{
"type": "FeatureCollection",
"name": "1925_bus",
"crs": { "type": "name", "properties": { "name": "urn:ogc:def:crs:OGC:1.3:CRS84" } },
"features": [
{ "type": "Feature", "properties": { "id": null }, "geometry": { "type": "MultiLineString", "coordinates": [ [ [ 6.648538861720904, 46.516659069390293 ], [ 6.647200861937721, 46.516764570292587 ], [ 6.646573674539353, 46.516879661952387 ], [ 6.645681674683898, 46.51708107177047 ], [ 6.643730425000089, 46.517627751799296 ], [ 6.642225175244008, 46.518327877838942 ], [ 6.640580550510513, 46.518932088949946 ], [ 6.639479488188935, 46.519162262843992 ], [ 6.638113613410269, 46.519382845244166 ], [ 6.637806988459956, 46.519363664201435 ], [ 6.63747248851416, 46.519267758886244 ], [ 6.637147135051253, 46.519098725356123 ], [ 6.637068301079657, 46.519085538320986 ], [ 6.636733801133861, 46.519095128892289 ], [ 6.634601363979414, 46.519411616795551 ], [ 6.636730316759428, 46.519096327713576 ], [ 6.637442871331461, 46.519038784261653 ], [ 6.637761691592298, 46.519060363063268 ], [ 6.638402816488404, 46.518954866618351 ], [ 6.638653691447752, 46.518916504223974 ], [ 6.638772160178554, 46.51890211831909 ], [ 6.638932441402581, 46.518926094825105 ], [ 6.639127566370962, 46.519045977196484 ], [ 6.639254746037852, 46.519161064024168 ], [ 6.639270425722811, 46.519176648680023 ], [ 6.639296558531076, 46.519186239235239 ], [ 6.639310496028819, 46.519187138349707 ], [ 6.639335757743476, 46.519185639825594 ] ] ] } },
{ "type": "Feature", "properties": { "id": null }, "geometry": { "type": "MultiLineString", "coordinates": [ [ [ 6.632154026485366, 46.520676351187696 ], [ 6.630913589186372, 46.520484545022043 ], [ 6.630593026738318, 46.520484545022043 ], [ 6.630342151778971, 46.520522906309346 ], [ 6.630035526828659, 46.520753073464356 ], [ 6.629478026918998, 46.521520290272377 ], [ 6.629352589439326, 46.521616191611621 ], [ 6.628822964525149, 46.521750453202174 ], [ 6.627261964778102, 46.5221244658835 ], [ 6.624983183897369, 46.52273822470417 ], [ 6.624704433942538, 46.522800559196533 ], [ 6.624119059037396, 46.522877278473572 ], [ 6.621345496986838, 46.523160179871319 ], [ 6.620544090866702, 46.523256078315882 ], [ 6.61876009115579, 46.523634875517033 ], [ 6.614202529394325, 46.524589049165762 ], [ 6.611275654868612, 46.525452106372619 ] ] ] } },
{ "type": "Feature", "properties": { "id": null }, "geometry": { "type": "MultiLineString", "coordinates": [ [ [ 6.637140166302382, 46.519091532428284 ], [ 6.637227275663268, 46.519235390804184 ], [ 6.637199400667784, 46.519360067755208 ], [ 6.637115775681336, 46.519460768160648 ], [ 6.636913681964084, 46.519573456488317 ], [ 6.636791728858845, 46.519678951732189 ], [ 6.636742947616749, 46.519810820499004 ], [ 6.63674991636562, 46.519918712888334 ], [ 6.636972916329484, 46.520362268238031 ], [ 6.637084416311416, 46.52058044818952 ], [ 6.637060025690368, 46.520649977880083 ], [ 6.636927619461825, 46.520762663741344 ], [ 6.636248166446927, 46.521237380335357 ], [ 6.63610879146951, 46.521354860064335 ], [ 6.635913666501127, 46.521585023694954 ], [ 6.635788229021454, 46.521695310089086 ], [ 6.635795197770324, 46.521728875468945 ], [ 6.635871854007902, 46.521848751656329 ], [ 6.635885791505644, 46.521987807702317 ], [ 6.635823072765807, 46.522050143055679 ], [ 6.635704604035005, 46.522107683318374 ], [ 6.635467666573399, 46.522208378631461 ], [ 6.635404947833563, 46.522304278756124 ], [ 6.63537707283808, 46.522333048760522 ], [ 6.635286479102759, 46.522352228754968 ], [ 6.634826541677291, 46.522385793728994 ], [ 6.634701104197617, 46.52242415367391 ], [ 6.634645354206651, 46.522462513591734 ], [ 6.634617479211169, 46.522563208247178 ], [ 6.634694135448746, 46.522769391959322 ], [ 6.6347289791931, 46.52284131632598 ], [ 6.634882291668257, 46.522855701187879 ], [ 6.635084385385507, 46.522855701187879 ], [ 6.63599380711314, 46.52278137936036 ], [ 6.635938057122174, 46.522944407752114 ], [ 6.635840494637984, 46.523069076192186 ], [ 6.636063494601848, 46.523395130759859 ], [ 6.636202869579262, 46.523749952624698 ], [ 6.636216807077004, 46.524037644327386 ], [ 6.636063494601848, 46.524229437949444 ], [ 6.63594851024548, 46.5245914465659 ], [ 6.63593457274774, 46.524917491996746 ], [ 6.635906697752256, 46.525118872020556 ], [ 6.635892760254515, 46.525205177516533 ], [ 6.63594851024548, 46.525396967016668 ], [ 6.636115760218378, 46.525665471179309 ], [ 6.636352697679984, 46.525847669676693 ], [ 6.63668719762578, 46.525914795284841 ], [ 6.636910197589644, 46.525905205917333 ], [ 6.637202885042214, 46.525876437804627 ], [ 6.637607072476719, 46.525818901533519 ], [ 6.637760384951875, 46.52578054398559 ], [ 6.637871884933807, 46.525684649997281 ], [ 6.63789975992929, 46.525598345263063 ], [ 6.637830072440582, 46.525531219263875 ], [ 6.637746447454133, 46.525444914285899 ], [ 6.637509509992528, 46.525320251297863 ], [ 6.637425885006079, 46.525253124955036 ], [ 6.637230760037697, 46.52530107235124 ], [ 6.637021697571575, 46.525435324835442 ], [ 6.636241197698052, 46.525531219263875 ], [ 6.63593457274774, 46.525521629828653 ], [ 6.63593457274774, 46.525435324835442 ], [ 6.635878822756774, 46.525320251297863 ], [ 6.635767322774841, 46.525233945984716 ], [ 6.634331760507468, 46.524466781619324 ], [ 6.634331760507468, 46.524399654221902 ], [ 6.634401447996176, 46.524361295671852 ], [ 6.634512947978108, 46.52428457849048 ], [ 6.634568697969073, 46.5241790921892 ], [ 6.634582635466814, 46.524102374750534 ], [ 6.634485072982624, 46.523910580679889 ], [ 6.634039073054896, 46.523200936730966 ], [ 6.634025135557155, 46.52311462805087 ], [ 6.633969385566189, 46.522951600169911 ], [ 6.63398332306393, 46.522846111280373 ], [ 6.634094823045863, 46.522615952992204 ], [ 6.634276010516502, 46.522146043459649 ], [ 6.634387510498434, 46.521954242482423 ], [ 6.634526885475849, 46.52186793182176 ], [ 6.634708072946489, 46.52175285072758 ], [ 6.634958947905835, 46.521714490308682 ], [ 6.63537707283808, 46.521733670521527 ], [ 6.635669760290653, 46.521719285362529 ], [ 6.635758611838754, 46.521696508853005 ], [ 6.635784744647019, 46.521695310089086 ] ] ] } }
]
}
