{
"type": "FeatureCollection",
"name": "1925_train",
"crs": { "type": "name", "properties": { "name": "urn:ogc:def:crs:OGC:1.3:CRS84" } },
"features": [
{ "type": "Feature", "properties": { "CADRE_NO": "205/249", "DDT_URL": null, "ETC_NOM": "Chemins de fer fédéraux", "ETC_SIGLE": "CFF", "ETC_URL": "https://www.cff.ch", "HORAIR_URL": "https://www.vd.ch/static/transport/carte_schematique/index.html?featureId=R8", "LIGNE_NOM": "RER Vaud // Allaman - Lausanne - Palézieux - Moudon - Payerne", "LIGNE_SIGL": null, "LIGNE_TYPE": "Régional", "PLAN_URL": "https://prestations.vd.ch/pub/101587/api/download/2_Cartographie_et_geodonnees/2.1_Carte_des_reseaux/Carte_des_lignes_TP/topo/ligne_R8.pdf", "SHAPE_LEN": 79932.745 }, "geometry": { "type": "MultiLineString", "coordinates": [ [ [ 6.588857184677416, 46.532367819239418 ], [ 6.589127415809246, 46.532226156538016 ], [ 6.589402699617074, 46.532077253154149 ], [ 6.589699713517993, 46.531906642112745 ], [ 6.589841664273359, 46.531823752201717 ], [ 6.590138546334349, 46.531653058080501 ], [ 6.590413966400821, 46.531504243264976 ], [ 6.591227090512195, 46.531080295030463 ], [ 6.591622908834239, 46.530874027569517 ], [ 6.592040928509846, 46.530666538994197 ], [ 6.592464848596131, 46.530464949378448 ], [ 6.592613345865836, 46.530396336740097 ], [ 6.593232495042953, 46.530121442003832 ], [ 6.593727668642465, 46.529913892394966 ], [ 6.594186609475074, 46.52973090928964 ], [ 6.594833395823875, 46.529488147835238 ], [ 6.59571139842998, 46.529180799274968 ], [ 6.596852970130803, 46.528788218340736 ], [ 6.597489560223737, 46.528569295945864 ], [ 6.598111854419252, 46.52835573375571 ], [ 6.598334136142595, 46.52827553353108 ], [ 6.598599267338273, 46.528179807969103 ], [ 6.59891918757539, 46.528061799093827 ], [ 6.599224592295678, 46.52794760424559 ], [ 6.599514696765261, 46.527837406655088 ], [ 6.599751934717064, 46.527749820533465 ], [ 6.600343119513906, 46.527538238274772 ], [ 6.60108726601111, 46.527283800225717 ], [ 6.601717625150513, 46.52707106967727 ], [ 6.602369467004986, 46.52685109021003 ], [ 6.602682899666276, 46.526745302718652 ], [ 6.602982075838134, 46.526644330240892 ], [ 6.603582872434128, 46.526441717230419 ], [ 6.604014094221814, 46.526298280628069 ], [ 6.604512080152406, 46.526136603368307 ], [ 6.605078801583582, 46.525953865290624 ], [ 6.605542405823539, 46.525802699293322 ], [ 6.607990509485765, 46.524961476038932 ], [ 6.610289888898129, 46.524170662434514 ], [ 6.610886605699538, 46.523954244341837 ], [ 6.611289687129591, 46.52379471495076 ], [ 6.611685212515318, 46.52362630389586 ], [ 6.612072527126738, 46.523449204400812 ], [ 6.612451368989567, 46.523263495607296 ], [ 6.612830280085186, 46.523064552810894 ], [ 6.613173525842408, 46.522871025810424 ], [ 6.6135000179417, 46.522673489623564 ], [ 6.613816459587672, 46.522468250752603 ], [ 6.61406921959897, 46.522293845603379 ], [ 6.614362275332652, 46.522082677761176 ], [ 6.615944763921938, 46.520914371658264 ], [ 6.616447467198208, 46.520543139821918 ], [ 6.617398356396768, 46.519844166898871 ], [ 6.617623156051785, 46.519690062672268 ], [ 6.617875004243752, 46.519531124894243 ], [ 6.618161737061994, 46.519366222578121 ], [ 6.618450057535439, 46.51921681330483 ], [ 6.618727209201438, 46.519090523510236 ], [ 6.618883120558318, 46.51902714828951 ], [ 6.619042489785475, 46.518967756120738 ], [ 6.61920479459529, 46.518912415185241 ], [ 6.619411787166183, 46.518849228296226 ], [ 6.619622590275961, 46.51879254573096 ], [ 6.619793920512203, 46.518752130666272 ], [ 6.620087372898026, 46.518693605860193 ], [ 6.620862226430828, 46.518565872278742 ], [ 6.621261250656286, 46.518489042749742 ], [ 6.623724989832772, 46.517923291045143 ], [ 6.62390054502569, 46.517883170060017 ], [ 6.624076099958311, 46.517843048803456 ], [ 6.624392163332336, 46.51777083032529 ], [ 6.624912612518904, 46.51765196622258 ], [ 6.625500791519225, 46.517517914091378 ], [ 6.625676071664333, 46.51747770744371 ], [ 6.625851770137405, 46.517437395571648 ], [ 6.626100563095037, 46.517384031932735 ], [ 6.626378381702706, 46.517332944693671 ], [ 6.626564048166511, 46.517300448730637 ], [ 6.626841863206008, 46.517249540259961 ], [ 6.627090781789131, 46.517196364281581 ], [ 6.627309029325965, 46.517146287950325 ], [ 6.627627059956548, 46.517073534833678 ], [ 6.627948282959607, 46.517004222158782 ], [ 6.628220831910248, 46.516956691210588 ], [ 6.629085447331478, 46.516831954040065 ], [ 6.629998509736817, 46.516700223884641 ], [ 6.630737055552688, 46.516591775916666 ], [ 6.630906026400511, 46.516559963627429 ], [ 6.631081274845229, 46.516519649504708 ], [ 6.63125281769794, 46.516472651639724 ], [ 6.631420290066559, 46.516418967453014 ], [ 6.631576217844575, 46.51636169241339 ], [ 6.631703478565785, 46.516306021447065 ], [ 6.63180288735861, 46.516258464612292 ], [ 6.631896867722419, 46.516207900378639 ], [ 6.632004591807664, 46.516141015959747 ], [ 6.632207698265121, 46.515995913982252 ], [ 6.632438092673025, 46.515827975637279 ], [ 6.632601980239563, 46.515708610876281 ], [ 6.632781150798105, 46.515578001410375 ], [ 6.633054778275708, 46.515378612819937 ], [ 6.633182080243398, 46.515285804708427 ], [ 6.63330903978782, 46.515193209931773 ], [ 6.633339378960249, 46.51517114204583 ], [ 6.633345057041116, 46.515166999181396 ], [ 6.633472238871251, 46.51507431584308 ], [ 6.633599394206644, 46.514981632177054 ], [ 6.633635398416849, 46.514955403251633 ], [ 6.633762592683983, 46.514862692694493 ], [ 6.633889746757254, 46.514770026692801 ], [ 6.634351920876998, 46.514439379393941 ], [ 6.634491925831726, 46.514348162258933 ], [ 6.634631966965039, 46.514263242463855 ], [ 6.634813167412046, 46.51416197144794 ], [ 6.635030196027508, 46.514052317754164 ], [ 6.63522463077671, 46.513963554436039 ], [ 6.635424602680734, 46.513880947330662 ], [ 6.635629668919401, 46.513804484277507 ], [ 6.635880384830966, 46.513720742260851 ], [ 6.636149921780234, 46.513641891778583 ], [ 6.636416930738071, 46.513570894347147 ], [ 6.636687356682259, 46.513506676502942 ], [ 6.636961198635139, 46.513449310182672 ], [ 6.637250216054659, 46.513396647419462 ], [ 6.637507645910727, 46.513356355327026 ], [ 6.637794880536993, 46.513318414159436 ], [ 6.638076135472245, 46.513288274638356 ], [ 6.638334068978075, 46.513266696064569 ], [ 6.638623212419277, 46.513249385273205 ], [ 6.638913161400951, 46.513239267287432 ], [ 6.639203265643236, 46.51323626554845 ], [ 6.639493392575278, 46.513240541049434 ], [ 6.639783165663947, 46.513252010172899 ], [ 6.640072169286224, 46.513270589029858 ], [ 6.640360024513024, 46.513296355923181 ], [ 6.640646211616851, 46.51332921724353 ], [ 6.6408739126234, 46.51336066793673 ], [ 6.641156523962486, 46.513406304222009 ], [ 6.641436558352183, 46.513458830669023 ], [ 6.641713753715652, 46.513518353407498 ], [ 6.641988761482039, 46.51358488602893 ], [ 6.642480752321917, 46.513721572225769 ], [ 6.643255217776533, 46.513957044097197 ], [ 6.643593084154467, 46.514055859641957 ], [ 6.643933135777143, 46.514147933438323 ], [ 6.644172312851584, 46.514206617002806 ], [ 6.644484442942599, 46.514279071059917 ], [ 6.64483377054709, 46.514355499955784 ], [ 6.645327323917453, 46.514447933016982 ], [ 6.645825770242159, 46.514526715109952 ], [ 6.6463284587441, 46.514591769658615 ], [ 6.646736486086869, 46.514634111781753 ], [ 6.647174991154801, 46.514669477250806 ], [ 6.647614938216026, 46.514694496613437 ], [ 6.648050215765752, 46.514709154245807 ], [ 6.648713513625697, 46.514715394790571 ], [ 6.650750060433398, 46.514718773105571 ], [ 6.651376022766402, 46.514719799914936 ], [ 6.652035395536021, 46.514720875056327 ], [ 6.654183086143252, 46.514723981954774 ], [ 6.654412672337538, 46.514724310093307 ], [ 6.655474510085235, 46.514725826205833 ], [ 6.658588665420005, 46.51473040000019 ], [ 6.6634960009277, 46.51473742340864 ], [ 6.663772249527695, 46.514737817609124 ], [ 6.663886449706145, 46.514737976989572 ] ] ] } },
{ "type": "Feature", "properties": { "CADRE_NO": "210", "DDT_URL": null, "ETC_NOM": "Chemins de fer fédéraux", "ETC_SIGLE": "CFF", "ETC_URL": "https://www.cff.ch", "HORAIR_URL": "https://www.tableaux-horaires.ch/fileadmin/fap_pdf_fields/2025/210.pdf", "LIGNE_NOM": "Lausanne - Yverdon-les-Bains - Neuchâtel - Biel/Bienne (GL)", "LIGNE_SIGL": null, "LIGNE_TYPE": "National", "PLAN_URL": "https://prestations.vd.ch/pub/101587/api/download/2_Cartographie_et_geodonnees/2.1_Carte_des_reseaux/Carte_des_lignes_TP/topo/ligne_GL-210.pdf", "SHAPE_LEN": 84212.065 }, "geometry": { "type": "MultiLineString", "coordinates": [ [ [ 6.588857184677416, 46.532367819239418 ], [ 6.589127415809246, 46.532226156538016 ], [ 6.589402699617074, 46.532077253154149 ], [ 6.589699713517993, 46.531906642112745 ], [ 6.589841664273359, 46.531823752201717 ], [ 6.590138546334349, 46.531653058080501 ], [ 6.590413966400821, 46.531504243264976 ], [ 6.591227090512195, 46.531080295030463 ], [ 6.591622908834239, 46.530874027569517 ], [ 6.592040928509846, 46.530666538994197 ], [ 6.592464848596131, 46.530464949378448 ], [ 6.592613345865836, 46.530396336740097 ], [ 6.593232495042953, 46.530121442003832 ], [ 6.593727668642465, 46.529913892394966 ], [ 6.594186609475074, 46.52973090928964 ], [ 6.594833395823875, 46.529488147835238 ], [ 6.59571139842998, 46.529180799274968 ], [ 6.596852970130803, 46.528788218340736 ], [ 6.597489560223737, 46.528569295945864 ], [ 6.598111854419252, 46.52835573375571 ], [ 6.598334136142595, 46.52827553353108 ], [ 6.598599267338273, 46.528179807969103 ], [ 6.59891918757539, 46.528061799093827 ], [ 6.599224592295678, 46.52794760424559 ], [ 6.599514696765261, 46.527837406655088 ], [ 6.599751934717064, 46.527749820533465 ], [ 6.600343119513906, 46.527538238274772 ], [ 6.60108726601111, 46.527283800225717 ], [ 6.601717625150513, 46.52707106967727 ], [ 6.602369467004986, 46.52685109021003 ], [ 6.602682899666276, 46.526745302718652 ], [ 6.602982075838134, 46.526644330240892 ], [ 6.603582872434128, 46.526441717230419 ], [ 6.604014094221814, 46.526298280628069 ], [ 6.604512080152406, 46.526136603368307 ], [ 6.605078801583582, 46.525953865290624 ], [ 6.605542405823539, 46.525802699293322 ], [ 6.607990509485765, 46.524961476038932 ], [ 6.610289888898129, 46.524170662434514 ], [ 6.610886605699538, 46.523954244341837 ], [ 6.611289687129591, 46.52379471495076 ], [ 6.611685212515318, 46.52362630389586 ], [ 6.612072527126738, 46.523449204400812 ], [ 6.612451368989567, 46.523263495607296 ], [ 6.612830280085186, 46.523064552810894 ], [ 6.613173525842408, 46.522871025810424 ], [ 6.6135000179417, 46.522673489623564 ], [ 6.613816459587672, 46.522468250752603 ], [ 6.61406921959897, 46.522293845603379 ], [ 6.614362275332652, 46.522082677761176 ], [ 6.615944763921938, 46.520914371658264 ], [ 6.616447467198208, 46.520543139821918 ], [ 6.617398356396768, 46.519844166898871 ], [ 6.617623156051785, 46.519690062672268 ], [ 6.617875004243752, 46.519531124894243 ], [ 6.618161737061994, 46.519366222578121 ], [ 6.618450057535439, 46.51921681330483 ], [ 6.618727209201438, 46.519090523510236 ], [ 6.618883120558318, 46.51902714828951 ], [ 6.619042489785475, 46.518967756120738 ], [ 6.61920479459529, 46.518912415185241 ], [ 6.619411787166183, 46.518849228296226 ], [ 6.619622590275961, 46.51879254573096 ], [ 6.619793920512203, 46.518752130666272 ], [ 6.620087372898026, 46.518693605860193 ], [ 6.620862226430828, 46.518565872278742 ], [ 6.621261250656286, 46.518489042749742 ], [ 6.623724989832772, 46.517923291045143 ], [ 6.62390054502569, 46.517883170060017 ], [ 6.624076099958311, 46.517843048803456 ], [ 6.624392163332336, 46.51777083032529 ], [ 6.624912612518904, 46.51765196622258 ], [ 6.625500791519225, 46.517517914091378 ], [ 6.625676071664333, 46.51747770744371 ], [ 6.625851770137405, 46.517437395571648 ], [ 6.626100563095037, 46.517384031932735 ], [ 6.626378381702706, 46.517332944693671 ], [ 6.626564048166511, 46.517300448730637 ], [ 6.626841863206008, 46.517249540259961 ], [ 6.627090781789131, 46.517196364281581 ], [ 6.627309029325965, 46.517146287950325 ], [ 6.627627059956548, 46.517073534833678 ], [ 6.627948282959607, 46.517004222158782 ], [ 6.628220831910248, 46.516956691210588 ], [ 6.629085447331478, 46.516831954040065 ] ] ] } },
{ "type": "Feature", "properties": { "CADRE_NO": "100", "DDT_URL": null, "ETC_NOM": "Chemins de fer fédéraux", "ETC_SIGLE": "CFF", "ETC_URL": "https://www.cff.ch", "HORAIR_URL": "https://www.tableaux-horaires.ch/fileadmin/fap_pdf_fields/2025/100.pdf", "LIGNE_NOM": "Lausanne - Saint-Maurice (RE)", "LIGNE_SIGL": null, "LIGNE_TYPE": "Régional", "PLAN_URL": "https://prestations.vd.ch/pub/101587/api/download/2_Cartographie_et_geodonnees/2.1_Carte_des_reseaux/Carte_des_lignes_TP/topo/ligne_RE.pdf", "SHAPE_LEN": 51591.639 }, "geometry": { "type": "MultiLineString", "coordinates": [ [ [ 6.629085447331478, 46.516831954040065 ], [ 6.629998509736817, 46.516700223884641 ], [ 6.630737055552688, 46.516591775916666 ], [ 6.630906026400511, 46.516559963627429 ], [ 6.631081274845229, 46.516519649504708 ], [ 6.63125281769794, 46.516472651639724 ], [ 6.631420290066559, 46.516418967453014 ], [ 6.631576217844575, 46.51636169241339 ], [ 6.631703478565785, 46.516306021447065 ], [ 6.63180288735861, 46.516258464612292 ], [ 6.631896867722419, 46.516207900378639 ], [ 6.632004591807664, 46.516141015959747 ], [ 6.632207698265121, 46.515995913982252 ] ], [ [ 6.661802236619645, 46.510371192180294 ], [ 6.660274359361511, 46.510748671305691 ], [ 6.659771787147661, 46.510865948068208 ], [ 6.659656539773739, 46.510889292970383 ], [ 6.659436995547533, 46.510933781658686 ], [ 6.659325524450574, 46.510956369514425 ], [ 6.658960212213813, 46.511016300368077 ], [ 6.658565649618114, 46.511076037871511 ], [ 6.658201065813883, 46.5111242044715 ], [ 6.657642789497674, 46.511183243946121 ], [ 6.657130534083452, 46.511222446646954 ], [ 6.656616525426775, 46.511247682078093 ], [ 6.656101274387341, 46.511258791808771 ], [ 6.655524796690448, 46.511254489048852 ], [ 6.654195817669743, 46.511210931239177 ], [ 6.654046720887185, 46.511206040629951 ], [ 6.652708718881583, 46.511162160088745 ], [ 6.652336592123508, 46.511152473963392 ], [ 6.65197713565034, 46.511148712938869 ], [ 6.651609105616609, 46.511152996730893 ], [ 6.65114380074246, 46.511171087623914 ], [ 6.650746125682822, 46.511197823855071 ], [ 6.65028434967275, 46.511241934354587 ], [ 6.649898859689469, 46.511289902055189 ], [ 6.649491670606336, 46.511352381053932 ], [ 6.649120885054741, 46.511420320728845 ], [ 6.648754121770006, 46.51149828183442 ], [ 6.648497055696183, 46.511559463701019 ], [ 6.648213099809658, 46.511632782201687 ], [ 6.646800999675857, 46.512025848175909 ], [ 6.646333090457503, 46.512149874859489 ], [ 6.646053113714328, 46.512217998079201 ], [ 6.645770854374731, 46.512281786546801 ], [ 6.645200520208925, 46.512396177459664 ], [ 6.644840487660975, 46.512458609901088 ], [ 6.644478081835072, 46.512514007659085 ], [ 6.644113563577982, 46.512562363541285 ], [ 6.643820538202847, 46.512595934953424 ], [ 6.643452947965162, 46.512631591738995 ], [ 6.64315733526697, 46.512654977751239 ], [ 6.642311838093814, 46.512704991366675 ], [ 6.639382914503702, 46.512860128435385 ], [ 6.638835219725339, 46.512897046932899 ], [ 6.638477682932161, 46.512930977319712 ], [ 6.638096182869829, 46.512979850857654 ], [ 6.637712538056303, 46.513043272615768 ], [ 6.637388024413196, 46.513108478211763 ], [ 6.637120894588052, 46.513170292057588 ], [ 6.636909775379539, 46.513224674609262 ], [ 6.636649239337427, 46.513298687655677 ], [ 6.636443710522981, 46.513362644713276 ], [ 6.63624111519576, 46.513430850309121 ], [ 6.63600643730496, 46.513514022897731 ], [ 6.635381901442852, 46.513762526476683 ], [ 6.634993019306218, 46.513932226635056 ], [ 6.634837224201832, 46.514007589348331 ], [ 6.634688166485809, 46.514085518505112 ], [ 6.634551364002027, 46.514162994581923 ], [ 6.634401050327144, 46.514255218224825 ], [ 6.634245892962119, 46.514357662849491 ], [ 6.63404797466337, 46.514496417986727 ], [ 6.633890232284834, 46.514614856813971 ], [ 6.633691820350045, 46.514777888251061 ], [ 6.633633342685224, 46.514828301086396 ], [ 6.633452993965161, 46.514977075580759 ], [ 6.633277699722786, 46.51511014254708 ], [ 6.633232381975267, 46.515143106265349 ], [ 6.633104734583135, 46.515237261389331 ], [ 6.632978120569961, 46.515328499987206 ], [ 6.632942155418361, 46.515354693000987 ], [ 6.632815182642299, 46.51544723330359 ], [ 6.632705462126458, 46.515550295511737 ], [ 6.632672423799614, 46.515581187197334 ], [ 6.632563078879575, 46.515685241508457 ], [ 6.632453430714919, 46.515786882612787 ], [ 6.632420456309758, 46.515817837653636 ], [ 6.632312907998374, 46.515914077911319 ], [ 6.632207698265121, 46.515995913982252 ] ] ] } },
{ "type": "Feature", "properties": { "CADRE_NO": "TGV9", "DDT_URL": null, "ETC_NOM": "Société nationale des chemins de fer français", "ETC_SIGLE": "SNCF", "ETC_URL": "https://www.sncf.com/", "HORAIR_URL": "https://www.viamobigo.fr/ftp/document/fiche-horaires-pontarlier-frasne-vallorbe-sa2024.pdf", "LIGNE_NOM": "Lausanne - Vallorbe - Paris Gare de Lyon", "LIGNE_SIGL": "Lyria", "LIGNE_TYPE": "International", "PLAN_URL": "https://prestations.vd.ch/pub/101587/api/download/2_Cartographie_et_geodonnees/2.1_Carte_des_reseaux/Carte_des_lignes_TP/topo/ligne_TGV9.pdf", "SHAPE_LEN": 54974.671 }, "geometry": { "type": "MultiLineString", "coordinates": [ [ [ 6.589841664273359, 46.531823752201717 ], [ 6.590138546334349, 46.531653058080501 ], [ 6.590413966400821, 46.531504243264976 ], [ 6.591227090512195, 46.531080295030463 ], [ 6.591622908834239, 46.530874027569517 ], [ 6.592040928509846, 46.530666538994197 ], [ 6.592464848596131, 46.530464949378448 ], [ 6.592613345865836, 46.530396336740097 ], [ 6.593232495042953, 46.530121442003832 ], [ 6.593727668642465, 46.529913892394966 ], [ 6.594186609475074, 46.52973090928964 ], [ 6.594833395823875, 46.529488147835238 ], [ 6.59571139842998, 46.529180799274968 ], [ 6.596852970130803, 46.528788218340736 ], [ 6.597489560223737, 46.528569295945864 ], [ 6.598111854419252, 46.52835573375571 ], [ 6.598334136142595, 46.52827553353108 ], [ 6.598599267338273, 46.528179807969103 ], [ 6.59891918757539, 46.528061799093827 ], [ 6.599224592295678, 46.52794760424559 ], [ 6.599514696765261, 46.527837406655088 ], [ 6.599751934717064, 46.527749820533465 ], [ 6.600343119513906, 46.527538238274772 ], [ 6.60108726601111, 46.527283800225717 ], [ 6.601717625150513, 46.52707106967727 ], [ 6.602369467004986, 46.52685109021003 ], [ 6.602682899666276, 46.526745302718652 ], [ 6.602982075838134, 46.526644330240892 ], [ 6.603582872434128, 46.526441717230419 ], [ 6.604014094221814, 46.526298280628069 ], [ 6.604512080152406, 46.526136603368307 ], [ 6.605078801583582, 46.525953865290624 ], [ 6.605542405823539, 46.525802699293322 ], [ 6.607990509485765, 46.524961476038932 ], [ 6.610289888898129, 46.524170662434514 ], [ 6.610886605699538, 46.523954244341837 ], [ 6.611289687129591, 46.52379471495076 ], [ 6.611685212515318, 46.52362630389586 ], [ 6.612072527126738, 46.523449204400812 ], [ 6.612451368989567, 46.523263495607296 ], [ 6.612830280085186, 46.523064552810894 ], [ 6.613173525842408, 46.522871025810424 ], [ 6.6135000179417, 46.522673489623564 ], [ 6.613816459587672, 46.522468250752603 ], [ 6.61406921959897, 46.522293845603379 ], [ 6.614362275332652, 46.522082677761176 ], [ 6.615944763921938, 46.520914371658264 ], [ 6.616447467198208, 46.520543139821918 ], [ 6.617398356396768, 46.519844166898871 ], [ 6.617623156051785, 46.519690062672268 ], [ 6.617875004243752, 46.519531124894243 ], [ 6.618161737061994, 46.519366222578121 ], [ 6.618450057535439, 46.51921681330483 ], [ 6.618727209201438, 46.519090523510236 ], [ 6.618883120558318, 46.51902714828951 ], [ 6.619042489785475, 46.518967756120738 ], [ 6.61920479459529, 46.518912415185241 ], [ 6.619411787166183, 46.518849228296226 ], [ 6.619622590275961, 46.51879254573096 ], [ 6.619793920512203, 46.518752130666272 ], [ 6.620087372898026, 46.518693605860193 ], [ 6.620862226430828, 46.518565872278742 ], [ 6.621261250656286, 46.518489042749742 ], [ 6.623724989832772, 46.517923291045143 ], [ 6.62390054502569, 46.517883170060017 ], [ 6.624076099958311, 46.517843048803456 ], [ 6.624392163332336, 46.51777083032529 ], [ 6.624912612518904, 46.51765196622258 ], [ 6.625500791519225, 46.517517914091378 ], [ 6.625676071664333, 46.51747770744371 ], [ 6.625851770137405, 46.517437395571648 ], [ 6.626100563095037, 46.517384031932735 ], [ 6.626378381702706, 46.517332944693671 ], [ 6.626564048166511, 46.517300448730637 ], [ 6.626841863206008, 46.517249540259961 ], [ 6.627090781789131, 46.517196364281581 ], [ 6.627309029325965, 46.517146287950325 ], [ 6.627627059956548, 46.517073534833678 ], [ 6.627948282959607, 46.517004222158782 ], [ 6.628220831910248, 46.516956691210588 ], [ 6.629085447331478, 46.516831954040065 ] ] ] } },
{ "type": "Feature", "properties": { "CADRE_NO": "203/249", "DDT_URL": null, "ETC_NOM": "Chemins de fer fédéraux", "ETC_SIGLE": "CFF", "ETC_URL": "https://www.cff.ch", "HORAIR_URL": "https://www.vd.ch/static/transport/carte_schematique/index.html?featureId=S41", "LIGNE_NOM": "RER Fribourg | Freiburg // Lausanne - Palézieux - Romont - Fribourg/Freiburg", "LIGNE_SIGL": null, "LIGNE_TYPE": "Régional", "PLAN_URL": "https://prestations.vd.ch/pub/101587/api/download/2_Cartographie_et_geodonnees/2.1_Carte_des_reseaux/Carte_des_lignes_TP/topo/ligne_S41.pdf", "SHAPE_LEN": 65757.33 }, "geometry": { "type": "MultiLineString", "coordinates": [ [ [ 6.629085447331478, 46.516831954040065 ], [ 6.629998509736817, 46.516700223884641 ], [ 6.630737055552688, 46.516591775916666 ], [ 6.630906026400511, 46.516559963627429 ], [ 6.631081274845229, 46.516519649504708 ], [ 6.63125281769794, 46.516472651639724 ], [ 6.631420290066559, 46.516418967453014 ], [ 6.631576217844575, 46.51636169241339 ], [ 6.631703478565785, 46.516306021447065 ], [ 6.63180288735861, 46.516258464612292 ], [ 6.631896867722419, 46.516207900378639 ], [ 6.632004591807664, 46.516141015959747 ], [ 6.632207698265121, 46.515995913982252 ], [ 6.632438092673025, 46.515827975637279 ], [ 6.632601980239563, 46.515708610876281 ], [ 6.632781150798105, 46.515578001410375 ], [ 6.633054778275708, 46.515378612819937 ], [ 6.633182080243398, 46.515285804708427 ], [ 6.63330903978782, 46.515193209931773 ], [ 6.633339378960249, 46.51517114204583 ], [ 6.633345057041116, 46.515166999181396 ], [ 6.633472238871251, 46.51507431584308 ], [ 6.633599394206644, 46.514981632177054 ], [ 6.633635398416849, 46.514955403251633 ], [ 6.633762592683983, 46.514862692694493 ], [ 6.633889746757254, 46.514770026692801 ], [ 6.634351920876998, 46.514439379393941 ], [ 6.634491925831726, 46.514348162258933 ], [ 6.634631966965039, 46.514263242463855 ], [ 6.634813167412046, 46.51416197144794 ], [ 6.635030196027508, 46.514052317754164 ], [ 6.63522463077671, 46.513963554436039 ], [ 6.635424602680734, 46.513880947330662 ], [ 6.635629668919401, 46.513804484277507 ], [ 6.635880384830966, 46.513720742260851 ], [ 6.636149921780234, 46.513641891778583 ], [ 6.636416930738071, 46.513570894347147 ], [ 6.636687356682259, 46.513506676502942 ], [ 6.636961198635139, 46.513449310182672 ], [ 6.637250216054659, 46.513396647419462 ], [ 6.637507645910727, 46.513356355327026 ], [ 6.637794880536993, 46.513318414159436 ], [ 6.638076135472245, 46.513288274638356 ], [ 6.638334068978075, 46.513266696064569 ], [ 6.638623212419277, 46.513249385273205 ], [ 6.638913161400951, 46.513239267287432 ], [ 6.639203265643236, 46.51323626554845 ], [ 6.639493392575278, 46.513240541049434 ], [ 6.639783165663947, 46.513252010172899 ], [ 6.640072169286224, 46.513270589029858 ], [ 6.640360024513024, 46.513296355923181 ], [ 6.640646211616851, 46.51332921724353 ], [ 6.6408739126234, 46.51336066793673 ], [ 6.641156523962486, 46.513406304222009 ], [ 6.641436558352183, 46.513458830669023 ], [ 6.641713753715652, 46.513518353407498 ], [ 6.641988761482039, 46.51358488602893 ], [ 6.642480752321917, 46.513721572225769 ], [ 6.643255217776533, 46.513957044097197 ], [ 6.643593084154467, 46.514055859641957 ], [ 6.643933135777143, 46.514147933438323 ], [ 6.644172312851584, 46.514206617002806 ], [ 6.644484442942599, 46.514279071059917 ], [ 6.64483377054709, 46.514355499955784 ], [ 6.645327323917453, 46.514447933016982 ], [ 6.645825770242159, 46.514526715109952 ], [ 6.6463284587441, 46.514591769658615 ], [ 6.646736486086869, 46.514634111781753 ], [ 6.647174991154801, 46.514669477250806 ], [ 6.647614938216026, 46.514694496613437 ], [ 6.648050215765752, 46.514709154245807 ], [ 6.648713513625697, 46.514715394790571 ], [ 6.650750060433398, 46.514718773105571 ], [ 6.651376022766402, 46.514719799914936 ], [ 6.652035395536021, 46.514720875056327 ], [ 6.654183086143252, 46.514723981954774 ], [ 6.654412672337538, 46.514724310093307 ], [ 6.655474510085235, 46.514725826205833 ], [ 6.658588665420005, 46.51473040000019 ], [ 6.6634960009277, 46.51473742340864 ], [ 6.663772249527695, 46.514737817609124 ], [ 6.663886449706145, 46.514737976989572 ] ] ] } },
{ "type": "Feature", "properties": { "CADRE_NO": "100", "DDT_URL": null, "ETC_NOM": "Chemins de fer fédéraux", "ETC_SIGLE": "CFF", "ETC_URL": "https://www.cff.ch", "HORAIR_URL": "https://www.tableaux-horaires.ch/fileadmin/fap_pdf_fields/2025/100.pdf", "LIGNE_NOM": "Lausanne - Sion - Brig (GL)", "LIGNE_SIGL": null, "LIGNE_TYPE": "International/National", "PLAN_URL": "https://prestations.vd.ch/pub/101587/api/download/2_Cartographie_et_geodonnees/2.1_Carte_des_reseaux/Carte_des_lignes_TP/topo/ligne_GL-100.pdf", "SHAPE_LEN": 67675.031 }, "geometry": { "type": "MultiLineString", "coordinates": [ [ [ 6.629085447331478, 46.516831954040065 ], [ 6.629998509736817, 46.516700223884641 ], [ 6.630737055552688, 46.516591775916666 ], [ 6.630906026400511, 46.516559963627429 ], [ 6.631081274845229, 46.516519649504708 ], [ 6.63125281769794, 46.516472651639724 ], [ 6.631420290066559, 46.516418967453014 ], [ 6.631576217844575, 46.51636169241339 ], [ 6.631703478565785, 46.516306021447065 ], [ 6.63180288735861, 46.516258464612292 ], [ 6.631896867722419, 46.516207900378639 ], [ 6.632004591807664, 46.516141015959747 ], [ 6.632207698265121, 46.515995913982252 ] ], [ [ 6.661802236619645, 46.510371192180294 ], [ 6.660274359361511, 46.510748671305691 ], [ 6.659771787147661, 46.510865948068208 ], [ 6.659656539773739, 46.510889292970383 ], [ 6.659436995547533, 46.510933781658686 ], [ 6.659325524450574, 46.510956369514425 ], [ 6.658960212213813, 46.511016300368077 ], [ 6.658565649618114, 46.511076037871511 ], [ 6.658201065813883, 46.5111242044715 ], [ 6.657642789497674, 46.511183243946121 ], [ 6.657130534083452, 46.511222446646954 ], [ 6.656616525426775, 46.511247682078093 ], [ 6.656101274387341, 46.511258791808771 ], [ 6.655524796690448, 46.511254489048852 ], [ 6.654195817669743, 46.511210931239177 ], [ 6.654046720887185, 46.511206040629951 ], [ 6.652708718881583, 46.511162160088745 ], [ 6.652336592123508, 46.511152473963392 ], [ 6.65197713565034, 46.511148712938869 ], [ 6.651609105616609, 46.511152996730893 ], [ 6.65114380074246, 46.511171087623914 ], [ 6.650746125682822, 46.511197823855071 ], [ 6.65028434967275, 46.511241934354587 ], [ 6.649898859689469, 46.511289902055189 ], [ 6.649491670606336, 46.511352381053932 ], [ 6.649120885054741, 46.511420320728845 ], [ 6.648754121770006, 46.51149828183442 ], [ 6.648497055696183, 46.511559463701019 ], [ 6.648213099809658, 46.511632782201687 ], [ 6.646800999675857, 46.512025848175909 ], [ 6.646333090457503, 46.512149874859489 ], [ 6.646053113714328, 46.512217998079201 ], [ 6.645770854374731, 46.512281786546801 ], [ 6.645200520208925, 46.512396177459664 ], [ 6.644840487660975, 46.512458609901088 ], [ 6.644478081835072, 46.512514007659085 ], [ 6.644113563577982, 46.512562363541285 ], [ 6.643820538202847, 46.512595934953424 ], [ 6.643452947965162, 46.512631591738995 ], [ 6.64315733526697, 46.512654977751239 ], [ 6.642311838093814, 46.512704991366675 ], [ 6.639382914503702, 46.512860128435385 ], [ 6.638835219725339, 46.512897046932899 ], [ 6.638477682932161, 46.512930977319712 ], [ 6.638096182869829, 46.512979850857654 ], [ 6.637712538056303, 46.513043272615768 ], [ 6.637388024413196, 46.513108478211763 ], [ 6.637120894588052, 46.513170292057588 ], [ 6.636909775379539, 46.513224674609262 ], [ 6.636649239337427, 46.513298687655677 ], [ 6.636443710522981, 46.513362644713276 ], [ 6.63624111519576, 46.513430850309121 ], [ 6.63600643730496, 46.513514022897731 ], [ 6.635381901442852, 46.513762526476683 ], [ 6.634993019306218, 46.513932226635056 ], [ 6.634837224201832, 46.514007589348331 ], [ 6.634688166485809, 46.514085518505112 ], [ 6.634551364002027, 46.514162994581923 ], [ 6.634401050327144, 46.514255218224825 ], [ 6.634245892962119, 46.514357662849491 ], [ 6.63404797466337, 46.514496417986727 ], [ 6.633890232284834, 46.514614856813971 ], [ 6.633691820350045, 46.514777888251061 ], [ 6.633633342685224, 46.514828301086396 ], [ 6.633452993965161, 46.514977075580759 ], [ 6.633277699722786, 46.51511014254708 ], [ 6.633232381975267, 46.515143106265349 ], [ 6.633104734583135, 46.515237261389331 ], [ 6.632978120569961, 46.515328499987206 ], [ 6.632942155418361, 46.515354693000987 ], [ 6.632815182642299, 46.51544723330359 ], [ 6.632705462126458, 46.515550295511737 ], [ 6.632672423799614, 46.515581187197334 ], [ 6.632563078879575, 46.515685241508457 ], [ 6.632453430714919, 46.515786882612787 ], [ 6.632420456309758, 46.515817837653636 ], [ 6.632312907998374, 46.515914077911319 ], [ 6.632207698265121, 46.515995913982252 ] ] ] } },
{ "type": "Feature", "properties": { "CADRE_NO": "201/206", "DDT_URL": null, "ETC_NOM": "Chemins de fer fédéraux", "ETC_SIGLE": "CFF", "ETC_URL": "https://www.cff.ch", "HORAIR_URL": "https://www.vd.ch/static/transport/carte_schematique/index.html?featureId=R1", "LIGNE_NOM": "RER Vaud // Grandson - Yverdon-les-Bains - Lausanne - Cully", "LIGNE_SIGL": null, "LIGNE_TYPE": "Régional", "PLAN_URL": "https://prestations.vd.ch/pub/101587/api/download/2_Cartographie_et_geodonnees/2.1_Carte_des_reseaux/Carte_des_lignes_TP/topo/ligne_R1.pdf", "SHAPE_LEN": 52780.89 }, "geometry": { "type": "MultiLineString", "coordinates": [ [ [ 6.588857184677416, 46.532367819239418 ], [ 6.589127415809246, 46.532226156538016 ], [ 6.589402699617074, 46.532077253154149 ], [ 6.589699713517993, 46.531906642112745 ], [ 6.589841664273359, 46.531823752201717 ], [ 6.590138546334349, 46.531653058080501 ], [ 6.590413966400821, 46.531504243264976 ], [ 6.591227090512195, 46.531080295030463 ], [ 6.591622908834239, 46.530874027569517 ], [ 6.592040928509846, 46.530666538994197 ], [ 6.592464848596131, 46.530464949378448 ], [ 6.592613345865836, 46.530396336740097 ], [ 6.593232495042953, 46.530121442003832 ], [ 6.593727668642465, 46.529913892394966 ], [ 6.594186609475074, 46.52973090928964 ], [ 6.594833395823875, 46.529488147835238 ], [ 6.59571139842998, 46.529180799274968 ], [ 6.596852970130803, 46.528788218340736 ], [ 6.597489560223737, 46.528569295945864 ], [ 6.598111854419252, 46.52835573375571 ], [ 6.598334136142595, 46.52827553353108 ], [ 6.598599267338273, 46.528179807969103 ], [ 6.59891918757539, 46.528061799093827 ], [ 6.599224592295678, 46.52794760424559 ], [ 6.599514696765261, 46.527837406655088 ], [ 6.599751934717064, 46.527749820533465 ], [ 6.600343119513906, 46.527538238274772 ], [ 6.60108726601111, 46.527283800225717 ], [ 6.601717625150513, 46.52707106967727 ], [ 6.602369467004986, 46.52685109021003 ], [ 6.602682899666276, 46.526745302718652 ], [ 6.602982075838134, 46.526644330240892 ], [ 6.603582872434128, 46.526441717230419 ], [ 6.604014094221814, 46.526298280628069 ], [ 6.604512080152406, 46.526136603368307 ], [ 6.605078801583582, 46.525953865290624 ], [ 6.605542405823539, 46.525802699293322 ], [ 6.607990509485765, 46.524961476038932 ], [ 6.610289888898129, 46.524170662434514 ], [ 6.610886605699538, 46.523954244341837 ], [ 6.611289687129591, 46.52379471495076 ], [ 6.611685212515318, 46.52362630389586 ], [ 6.612072527126738, 46.523449204400812 ], [ 6.612451368989567, 46.523263495607296 ], [ 6.612830280085186, 46.523064552810894 ], [ 6.613173525842408, 46.522871025810424 ], [ 6.6135000179417, 46.522673489623564 ], [ 6.613816459587672, 46.522468250752603 ], [ 6.61406921959897, 46.522293845603379 ], [ 6.614362275332652, 46.522082677761176 ], [ 6.615944763921938, 46.520914371658264 ], [ 6.616447467198208, 46.520543139821918 ], [ 6.617398356396768, 46.519844166898871 ], [ 6.617623156051785, 46.519690062672268 ], [ 6.617875004243752, 46.519531124894243 ], [ 6.618161737061994, 46.519366222578121 ], [ 6.618450057535439, 46.51921681330483 ], [ 6.618727209201438, 46.519090523510236 ], [ 6.618883120558318, 46.51902714828951 ], [ 6.619042489785475, 46.518967756120738 ], [ 6.61920479459529, 46.518912415185241 ], [ 6.619411787166183, 46.518849228296226 ], [ 6.619622590275961, 46.51879254573096 ], [ 6.619793920512203, 46.518752130666272 ], [ 6.620087372898026, 46.518693605860193 ], [ 6.620862226430828, 46.518565872278742 ], [ 6.621261250656286, 46.518489042749742 ], [ 6.623724989832772, 46.517923291045143 ], [ 6.62390054502569, 46.517883170060017 ], [ 6.624076099958311, 46.517843048803456 ], [ 6.624392163332336, 46.51777083032529 ], [ 6.624912612518904, 46.51765196622258 ], [ 6.625500791519225, 46.517517914091378 ], [ 6.625676071664333, 46.51747770744371 ], [ 6.625851770137405, 46.517437395571648 ], [ 6.626100563095037, 46.517384031932735 ], [ 6.626378381702706, 46.517332944693671 ], [ 6.626564048166511, 46.517300448730637 ], [ 6.626841863206008, 46.517249540259961 ], [ 6.627090781789131, 46.517196364281581 ], [ 6.627309029325965, 46.517146287950325 ], [ 6.627627059956548, 46.517073534833678 ], [ 6.627948282959607, 46.517004222158782 ], [ 6.628220831910248, 46.516956691210588 ], [ 6.629085447331478, 46.516831954040065 ], [ 6.629998509736817, 46.516700223884641 ], [ 6.630737055552688, 46.516591775916666 ], [ 6.630906026400511, 46.516559963627429 ], [ 6.631081274845229, 46.516519649504708 ], [ 6.63125281769794, 46.516472651639724 ], [ 6.631420290066559, 46.516418967453014 ], [ 6.631576217844575, 46.51636169241339 ], [ 6.631703478565785, 46.516306021447065 ], [ 6.63180288735861, 46.516258464612292 ], [ 6.631896867722419, 46.516207900378639 ], [ 6.632004591807664, 46.516141015959747 ], [ 6.632207698265121, 46.515995913982252 ] ], [ [ 6.661802236619645, 46.510371192180294 ], [ 6.660274359361511, 46.510748671305691 ], [ 6.659771787147661, 46.510865948068208 ], [ 6.659656539773739, 46.510889292970383 ], [ 6.659436995547533, 46.510933781658686 ], [ 6.659325524450574, 46.510956369514425 ], [ 6.658960212213813, 46.511016300368077 ], [ 6.658565649618114, 46.511076037871511 ], [ 6.658201065813883, 46.5111242044715 ], [ 6.657642789497674, 46.511183243946121 ], [ 6.657130534083452, 46.511222446646954 ], [ 6.656616525426775, 46.511247682078093 ], [ 6.656101274387341, 46.511258791808771 ], [ 6.655524796690448, 46.511254489048852 ], [ 6.654195817669743, 46.511210931239177 ], [ 6.654046720887185, 46.511206040629951 ], [ 6.652708718881583, 46.511162160088745 ], [ 6.652336592123508, 46.511152473963392 ], [ 6.65197713565034, 46.511148712938869 ], [ 6.651609105616609, 46.511152996730893 ], [ 6.65114380074246, 46.511171087623914 ], [ 6.650746125682822, 46.511197823855071 ], [ 6.65028434967275, 46.511241934354587 ], [ 6.649898859689469, 46.511289902055189 ], [ 6.649491670606336, 46.511352381053932 ], [ 6.649120885054741, 46.511420320728845 ], [ 6.648754121770006, 46.51149828183442 ], [ 6.648497055696183, 46.511559463701019 ], [ 6.648213099809658, 46.511632782201687 ], [ 6.646800999675857, 46.512025848175909 ], [ 6.646333090457503, 46.512149874859489 ], [ 6.646053113714328, 46.512217998079201 ], [ 6.645770854374731, 46.512281786546801 ], [ 6.645200520208925, 46.512396177459664 ], [ 6.644840487660975, 46.512458609901088 ], [ 6.644478081835072, 46.512514007659085 ], [ 6.644113563577982, 46.512562363541285 ], [ 6.643820538202847, 46.512595934953424 ], [ 6.643452947965162, 46.512631591738995 ], [ 6.64315733526697, 46.512654977751239 ], [ 6.642311838093814, 46.512704991366675 ], [ 6.639382914503702, 46.512860128435385 ], [ 6.638835219725339, 46.512897046932899 ], [ 6.638477682932161, 46.512930977319712 ], [ 6.638096182869829, 46.512979850857654 ], [ 6.637712538056303, 46.513043272615768 ], [ 6.637388024413196, 46.513108478211763 ], [ 6.637120894588052, 46.513170292057588 ], [ 6.636909775379539, 46.513224674609262 ], [ 6.636649239337427, 46.513298687655677 ], [ 6.636443710522981, 46.513362644713276 ], [ 6.63624111519576, 46.513430850309121 ], [ 6.63600643730496, 46.513514022897731 ], [ 6.635381901442852, 46.513762526476683 ], [ 6.634993019306218, 46.513932226635056 ], [ 6.634837224201832, 46.514007589348331 ], [ 6.634688166485809, 46.514085518505112 ], [ 6.634551364002027, 46.514162994581923 ], [ 6.634401050327144, 46.514255218224825 ], [ 6.634245892962119, 46.514357662849491 ], [ 6.63404797466337, 46.514496417986727 ], [ 6.633890232284834, 46.514614856813971 ], [ 6.633691820350045, 46.514777888251061 ], [ 6.633633342685224, 46.514828301086396 ], [ 6.633452993965161, 46.514977075580759 ], [ 6.633277699722786, 46.51511014254708 ], [ 6.633232381975267, 46.515143106265349 ], [ 6.633104734583135, 46.515237261389331 ], [ 6.632978120569961, 46.515328499987206 ], [ 6.632942155418361, 46.515354693000987 ], [ 6.632815182642299, 46.51544723330359 ], [ 6.632705462126458, 46.515550295511737 ], [ 6.632672423799614, 46.515581187197334 ], [ 6.632563078879575, 46.515685241508457 ], [ 6.632453430714919, 46.515786882612787 ], [ 6.632420456309758, 46.515817837653636 ], [ 6.632312907998374, 46.515914077911319 ], [ 6.632207698265121, 46.515995913982252 ] ] ] } },
{ "type": "Feature", "properties": { "CADRE_NO": "205/249", "DDT_URL": null, "ETC_NOM": "Chemins de fer fédéraux", "ETC_SIGLE": "CFF", "ETC_URL": "https://www.cff.ch", "HORAIR_URL": "https://www.vd.ch/static/transport/carte_schematique/index.html?featureId=R9", "LIGNE_NOM": "RER Vaud //Allaman - Lausanne - Palézieux - Payerne - Murten/Morat", "LIGNE_SIGL": null, "LIGNE_TYPE": "Régional", "PLAN_URL": "https://prestations.vd.ch/pub/101587/api/download/2_Cartographie_et_geodonnees/2.1_Carte_des_reseaux/Carte_des_lignes_TP/topo/ligne_R9.pdf", "SHAPE_LEN": 98048.127 }, "geometry": { "type": "MultiLineString", "coordinates": [ [ [ 6.588857184677416, 46.532367819239418 ], [ 6.589127415809246, 46.532226156538016 ], [ 6.589402699617074, 46.532077253154149 ], [ 6.589699713517993, 46.531906642112745 ], [ 6.589841664273359, 46.531823752201717 ], [ 6.590138546334349, 46.531653058080501 ], [ 6.590413966400821, 46.531504243264976 ], [ 6.591227090512195, 46.531080295030463 ], [ 6.591622908834239, 46.530874027569517 ], [ 6.592040928509846, 46.530666538994197 ], [ 6.592464848596131, 46.530464949378448 ], [ 6.592613345865836, 46.530396336740097 ], [ 6.593232495042953, 46.530121442003832 ], [ 6.593727668642465, 46.529913892394966 ], [ 6.594186609475074, 46.52973090928964 ], [ 6.594833395823875, 46.529488147835238 ], [ 6.59571139842998, 46.529180799274968 ], [ 6.596852970130803, 46.528788218340736 ], [ 6.597489560223737, 46.528569295945864 ], [ 6.598111854419252, 46.52835573375571 ], [ 6.598334136142595, 46.52827553353108 ], [ 6.598599267338273, 46.528179807969103 ], [ 6.59891918757539, 46.528061799093827 ], [ 6.599224592295678, 46.52794760424559 ], [ 6.599514696765261, 46.527837406655088 ], [ 6.599751934717064, 46.527749820533465 ], [ 6.600343119513906, 46.527538238274772 ], [ 6.60108726601111, 46.527283800225717 ], [ 6.601717625150513, 46.52707106967727 ], [ 6.602369467004986, 46.52685109021003 ], [ 6.602682899666276, 46.526745302718652 ], [ 6.602982075838134, 46.526644330240892 ], [ 6.603582872434128, 46.526441717230419 ], [ 6.604014094221814, 46.526298280628069 ], [ 6.604512080152406, 46.526136603368307 ], [ 6.605078801583582, 46.525953865290624 ], [ 6.605542405823539, 46.525802699293322 ], [ 6.607990509485765, 46.524961476038932 ], [ 6.610289888898129, 46.524170662434514 ], [ 6.610886605699538, 46.523954244341837 ], [ 6.611289687129591, 46.52379471495076 ], [ 6.611685212515318, 46.52362630389586 ], [ 6.612072527126738, 46.523449204400812 ], [ 6.612451368989567, 46.523263495607296 ], [ 6.612830280085186, 46.523064552810894 ], [ 6.613173525842408, 46.522871025810424 ], [ 6.6135000179417, 46.522673489623564 ], [ 6.613816459587672, 46.522468250752603 ], [ 6.61406921959897, 46.522293845603379 ], [ 6.614362275332652, 46.522082677761176 ], [ 6.615944763921938, 46.520914371658264 ], [ 6.616447467198208, 46.520543139821918 ], [ 6.617398356396768, 46.519844166898871 ], [ 6.617623156051785, 46.519690062672268 ], [ 6.617875004243752, 46.519531124894243 ], [ 6.618161737061994, 46.519366222578121 ], [ 6.618450057535439, 46.51921681330483 ], [ 6.618727209201438, 46.519090523510236 ], [ 6.618883120558318, 46.51902714828951 ], [ 6.619042489785475, 46.518967756120738 ], [ 6.61920479459529, 46.518912415185241 ], [ 6.619411787166183, 46.518849228296226 ], [ 6.619622590275961, 46.51879254573096 ], [ 6.619793920512203, 46.518752130666272 ], [ 6.620087372898026, 46.518693605860193 ], [ 6.620862226430828, 46.518565872278742 ], [ 6.621261250656286, 46.518489042749742 ], [ 6.623724989832772, 46.517923291045143 ], [ 6.62390054502569, 46.517883170060017 ], [ 6.624076099958311, 46.517843048803456 ], [ 6.624392163332336, 46.51777083032529 ], [ 6.624912612518904, 46.51765196622258 ], [ 6.625500791519225, 46.517517914091378 ], [ 6.625676071664333, 46.51747770744371 ], [ 6.625851770137405, 46.517437395571648 ], [ 6.626100563095037, 46.517384031932735 ], [ 6.626378381702706, 46.517332944693671 ], [ 6.626564048166511, 46.517300448730637 ], [ 6.626841863206008, 46.517249540259961 ], [ 6.627090781789131, 46.517196364281581 ], [ 6.627309029325965, 46.517146287950325 ], [ 6.627627059956548, 46.517073534833678 ], [ 6.627948282959607, 46.517004222158782 ], [ 6.628220831910248, 46.516956691210588 ], [ 6.629085447331478, 46.516831954040065 ], [ 6.629998509736817, 46.516700223884641 ], [ 6.630737055552688, 46.516591775916666 ], [ 6.630906026400511, 46.516559963627429 ], [ 6.631081274845229, 46.516519649504708 ], [ 6.63125281769794, 46.516472651639724 ], [ 6.631420290066559, 46.516418967453014 ], [ 6.631576217844575, 46.51636169241339 ], [ 6.631703478565785, 46.516306021447065 ], [ 6.63180288735861, 46.516258464612292 ], [ 6.631896867722419, 46.516207900378639 ], [ 6.632004591807664, 46.516141015959747 ], [ 6.632207698265121, 46.515995913982252 ], [ 6.632438092673025, 46.515827975637279 ], [ 6.632601980239563, 46.515708610876281 ], [ 6.632781150798105, 46.515578001410375 ], [ 6.633054778275708, 46.515378612819937 ], [ 6.633182080243398, 46.515285804708427 ], [ 6.63330903978782, 46.515193209931773 ], [ 6.633339378960249, 46.51517114204583 ], [ 6.633345057041116, 46.515166999181396 ], [ 6.633472238871251, 46.51507431584308 ], [ 6.633599394206644, 46.514981632177054 ], [ 6.633635398416849, 46.514955403251633 ], [ 6.633762592683983, 46.514862692694493 ], [ 6.633889746757254, 46.514770026692801 ], [ 6.634351920876998, 46.514439379393941 ], [ 6.634491925831726, 46.514348162258933 ], [ 6.634631966965039, 46.514263242463855 ], [ 6.634813167412046, 46.51416197144794 ], [ 6.635030196027508, 46.514052317754164 ], [ 6.63522463077671, 46.513963554436039 ], [ 6.635424602680734, 46.513880947330662 ], [ 6.635629668919401, 46.513804484277507 ], [ 6.635880384830966, 46.513720742260851 ], [ 6.636149921780234, 46.513641891778583 ], [ 6.636416930738071, 46.513570894347147 ], [ 6.636687356682259, 46.513506676502942 ], [ 6.636961198635139, 46.513449310182672 ], [ 6.637250216054659, 46.513396647419462 ], [ 6.637507645910727, 46.513356355327026 ], [ 6.637794880536993, 46.513318414159436 ], [ 6.638076135472245, 46.513288274638356 ], [ 6.638334068978075, 46.513266696064569 ], [ 6.638623212419277, 46.513249385273205 ], [ 6.638913161400951, 46.513239267287432 ], [ 6.639203265643236, 46.51323626554845 ], [ 6.639493392575278, 46.513240541049434 ], [ 6.639783165663947, 46.513252010172899 ], [ 6.640072169286224, 46.513270589029858 ], [ 6.640360024513024, 46.513296355923181 ], [ 6.640646211616851, 46.51332921724353 ], [ 6.6408739126234, 46.51336066793673 ], [ 6.641156523962486, 46.513406304222009 ], [ 6.641436558352183, 46.513458830669023 ], [ 6.641713753715652, 46.513518353407498 ], [ 6.641988761482039, 46.51358488602893 ], [ 6.642480752321917, 46.513721572225769 ], [ 6.643255217776533, 46.513957044097197 ], [ 6.643593084154467, 46.514055859641957 ], [ 6.643933135777143, 46.514147933438323 ], [ 6.644172312851584, 46.514206617002806 ], [ 6.644484442942599, 46.514279071059917 ], [ 6.64483377054709, 46.514355499955784 ], [ 6.645327323917453, 46.514447933016982 ], [ 6.645825770242159, 46.514526715109952 ], [ 6.6463284587441, 46.514591769658615 ], [ 6.646736486086869, 46.514634111781753 ], [ 6.647174991154801, 46.514669477250806 ], [ 6.647614938216026, 46.514694496613437 ], [ 6.648050215765752, 46.514709154245807 ], [ 6.648713513625697, 46.514715394790571 ], [ 6.650750060433398, 46.514718773105571 ], [ 6.651376022766402, 46.514719799914936 ], [ 6.652035395536021, 46.514720875056327 ], [ 6.654183086143252, 46.514723981954774 ], [ 6.654412672337538, 46.514724310093307 ], [ 6.655474510085235, 46.514725826205833 ], [ 6.658588665420005, 46.51473040000019 ], [ 6.6634960009277, 46.51473742340864 ], [ 6.663772249527695, 46.514737817609124 ], [ 6.663886449706145, 46.514737976989572 ] ] ] } },
{ "type": "Feature", "properties": { "CADRE_NO": "192", "DDT_URL": null, "ETC_NOM": "Transports publics de la région lausannoise", "ETC_SIGLE": "TL", "ETC_URL": "https://www.t-l.ch", "HORAIR_URL": "https://www.tableaux-horaires.ch/fileadmin/fap_pdf_fields/2025/192.pdf", "LIGNE_NOM": "Lausanne Ouchy-Olympique - gare - Flon - Epalinges Croisettes (m2)", "LIGNE_SIGL": null, "LIGNE_TYPE": "Métro", "PLAN_URL": "https://prestations.vd.ch/pub/101587/api/download/2_Cartographie_et_geodonnees/2.1_Carte_des_reseaux/Carte_des_lignes_TP/topo/ligne_m2.pdf", "SHAPE_LEN": 5866.798 }, "geometry": { "type": "MultiLineString", "coordinates": [ ] } },
{ "type": "Feature", "properties": { "CADRE_NO": "101", "DDT_URL": null, "ETC_NOM": "Chemin de fer Lausanne - Echallens - Bercher", "ETC_SIGLE": "LEB", "ETC_URL": "https://www.leb.ch", "HORAIR_URL": "https://www.tableaux-horaires.ch/fileadmin/fap_pdf_fields/2025/101.pdf", "LIGNE_NOM": "Lausanne-Flon - Echallens - Bercher", "LIGNE_SIGL": "LEB", "LIGNE_TYPE": "Régional", "PLAN_URL": "https://prestations.vd.ch/pub/101587/api/download/2_Cartographie_et_geodonnees/2.1_Carte_des_reseaux/Carte_des_lignes_TP/topo/ligne_R20.pdf", "SHAPE_LEN": 23658.642 }, "geometry": { "type": "MultiLineString", "coordinates": [ [ [ 6.63046335790678, 46.521331151415204 ], [ 6.6293085497088, 46.522145650338203 ], [ 6.629029895329672, 46.52226239231306 ], [ 6.628418133008771, 46.522489718862474 ], [ 6.627009102024978, 46.523003830699949 ], [ 6.626321630926602, 46.523242182370851 ], [ 6.625908408093867, 46.523378230322386 ], [ 6.625617617401934, 46.523463030941805 ], [ 6.625339701777102, 46.52353055168625 ], [ 6.625045249508158, 46.523580554740377 ], [ 6.624725806607266, 46.523618817781873 ], [ 6.624360336128352, 46.523648050364535 ], [ 6.623902487650057, 46.523682411881673 ], [ 6.623502774161475, 46.523757725630659 ], [ 6.623152819800172, 46.52387106227259 ], [ 6.622857270944563, 46.523993461295341 ], [ 6.622400466321656, 46.524236344578448 ], [ 6.620642102960312, 46.525147488541123 ], [ 6.620452443314384, 46.525242864877001 ], [ 6.620282049147246, 46.525335483125765 ], [ 6.620148781561065, 46.52541295867033 ], [ 6.620038026167729, 46.525479864160253 ], [ 6.619949074790743, 46.525538218670185 ], [ 6.619760902504879, 46.525669454015691 ], [ 6.619623401226256, 46.525772483273997 ], [ 6.61949401043673, 46.525876101696241 ], [ 6.619361498725691, 46.525990393787772 ], [ 6.61923892865782, 46.526101410983877 ], [ 6.619133950196167, 46.526194598923475 ], [ 6.61910263742001, 46.526219912641878 ], [ 6.618951192383907, 46.526342379888064 ], [ 6.618692199282837, 46.526541697002067 ], [ 6.618461684715959, 46.526717721623761 ], [ 6.618286514062022, 46.526852287155279 ], [ 6.618100946075075, 46.526990843461036 ], [ 6.617951404574015, 46.52709495315171 ], [ 6.617778040274374, 46.527209109855072 ], [ 6.617600371067318, 46.527314023149295 ], [ 6.617415267516242, 46.527420933468889 ], [ 6.617233320714042, 46.527515622665305 ], [ 6.616990334148079, 46.527634365911126 ], [ 6.616617797560392, 46.5278073161655 ], [ 6.616175169751148, 46.528016524179783 ], [ 6.615728109826861, 46.528224681788615 ], [ 6.615379372580845, 46.528388615633908 ], [ 6.615124386216496, 46.528518494996931 ], [ 6.614839287299881, 46.528681863527943 ], [ 6.614567137622937, 46.528867797647585 ], [ 6.614351438765638, 46.529040863011595 ], [ 6.614231497902515, 46.529144157373509 ], [ 6.614076844577532, 46.52929110929027 ], [ 6.613939863453482, 46.529443299233073 ], [ 6.613572466588392, 46.529892870932244 ], [ 6.613471885588705, 46.530018768535648 ], [ 6.613339106112151, 46.530186650531682 ], [ 6.613079745378424, 46.530504745858536 ], [ 6.612810307241286, 46.530836387354341 ], [ 6.612566931673836, 46.531140995790459 ], [ 6.612281378524635, 46.531492930886685 ], [ 6.612078261821037, 46.531744727542161 ], [ 6.611838889998094, 46.532045261410474 ], [ 6.611597583710193, 46.53234170545845 ], [ 6.611388564223611, 46.532592090487299 ], [ 6.611149171787815, 46.532892622795188 ], [ 6.610931957480479, 46.533162018971737 ], [ 6.610758908360586, 46.533382699254609 ], [ 6.61060376830977, 46.533602547386899 ], [ 6.610526374148208, 46.53372861165699 ], [ 6.610453476205233, 46.533849616901186 ], [ 6.61033351653777, 46.534049912030369 ], [ 6.61020911373148, 46.534249167037082 ], [ 6.610086289827063, 46.534442307098992 ], [ 6.609996807537827, 46.534584628665328 ], [ 6.609908875864969, 46.534721860701069 ], [ 6.609844408212632, 46.534808939881344 ], [ 6.609751719672192, 46.534934145259221 ], [ 6.609579661185874, 46.535152447073784 ], [ 6.609427247332105, 46.535344353699806 ], [ 6.609253726229434, 46.535562653343838 ], [ 6.60907871792491, 46.535780932862764 ], [ 6.608908186932761, 46.535996186184171 ], [ 6.608769450398756, 46.536164703148174 ], [ 6.608662023111519, 46.53631811959464 ], [ 6.60853954974854, 46.536487771791919 ], [ 6.608431870219413, 46.536657523096487 ], [ 6.60834372994209, 46.536807005119869 ], [ 6.60825679004945, 46.536975900444396 ], [ 6.60816042379088, 46.537180459222363 ], [ 6.608085396972057, 46.537344331819043 ], [ 6.608019155226866, 46.537513360461645 ], [ 6.607931148304966, 46.53775068105444 ], [ 6.607863087180385, 46.537942168544525 ], [ 6.60779910945917, 46.53815717470313 ], [ 6.607736478345181, 46.538380377135859 ], [ 6.60770121329212, 46.538556784299168 ], [ 6.607650433114642, 46.53877904790356 ], [ 6.607602420675378, 46.539014592001884 ], [ 6.607568771609189, 46.53918080938336 ], [ 6.607532063612912, 46.539355181805988 ], [ 6.607499915932939, 46.539520384607492 ], [ 6.607463396340845, 46.539682478714688 ], [ 6.607454163332998, 46.539714023379027 ], [ 6.60742433083383, 46.539815982557066 ], [ 6.607381068826911, 46.539934126298014 ], [ 6.607336456517878, 46.540045117230598 ], [ 6.607290580602368, 46.540140778535452 ], [ 6.607237093412262, 46.540250678862385 ], [ 6.607183967378989, 46.54033709299992 ], [ 6.60711877166698, 46.540437722475744 ], [ 6.607032626373416, 46.540553509763896 ], [ 6.606952537676918, 46.540661172917076 ], [ 6.606821533296324, 46.540807272006433 ], [ 6.606589632602436, 46.541065991102442 ], [ 6.606384784020729, 46.541298351639902 ], [ 6.606195998139245, 46.541544098883051 ], [ 6.606061372355851, 46.541732038399893 ], [ 6.605973529418093, 46.541862107255724 ], [ 6.605885389673348, 46.542010561893512 ], [ 6.605813764852293, 46.542144842855656 ], [ 6.605745038698188, 46.542282203720596 ], [ 6.60568830362867, 46.542410467535163 ], [ 6.605652644975254, 46.542515388206553 ], [ 6.605616668489818, 46.542641762229543 ], [ 6.605586644540305, 46.54276511226432 ], [ 6.605551451026614, 46.542935392975359 ], [ 6.605516458944412, 46.543093440460254 ], [ 6.605478255812037, 46.543267783284989 ], [ 6.605431177144035, 46.543441053375695 ], [ 6.605373495613841, 46.543630564525778 ], [ 6.605319134892078, 46.543796629209403 ], [ 6.605253924233305, 46.543993254910006 ], [ 6.605209801015245, 46.544167554176767 ], [ 6.605184160285189, 46.544294012960954 ], [ 6.605169164661011, 46.544403169450902 ], [ 6.605164729483629, 46.544475159643795 ], [ 6.605163251736053, 46.544499114397631 ], [ 6.605163307120184, 46.544591036936296 ], [ 6.605175339124813, 46.544674860975753 ], [ 6.605190157067294, 46.544769950593953 ], [ 6.605230210345348, 46.544955078541001 ], [ 6.605264796207955, 46.545112611277375 ], [ 6.605296740884264, 46.545248659918791 ], [ 6.605318699166658, 46.545360138854356 ], [ 6.605325973598299, 46.545463341519387 ], [ 6.60532276550757, 46.545576668795107 ], [ 6.605301948013858, 46.54567864864584 ], [ 6.605261919517325, 46.545778436326415 ], [ 6.605219259743445, 46.545857765538514 ], [ 6.605155728928422, 46.545946153475292 ], [ 6.605071513576591, 46.546032347354092 ], [ 6.604975444776926, 46.546119461671715 ], [ 6.604809087653616, 46.546252020623982 ], [ 6.604575563233544, 46.546422894945088 ], [ 6.604319538257234, 46.546611982431067 ], [ 6.604066502476135, 46.546799049216567 ], [ 6.603752050589525, 46.547032650333364 ], [ 6.603421259751496, 46.547271222159495 ], [ 6.603063359657519, 46.547539208634397 ], [ 6.602728008831135, 46.547783889248507 ], [ 6.602590487056751, 46.547870696301842 ], [ 6.602472568802668, 46.547935184347068 ], [ 6.602314284867513, 46.548023889229668 ] ] ] } },
{ "type": "Feature", "properties": { "CADRE_NO": "191", "DDT_URL": null, "ETC_NOM": "Transports publics de la région lausannoise", "ETC_SIGLE": "TL", "ETC_URL": "https://www.t-l.ch", "HORAIR_URL": "https://www.tableaux-horaires.ch/fileadmin/fap_pdf_fields/2025/191.pdf", "LIGNE_NOM": "Renens VD - Ecublens VD - Chavannes-R. - Lausanne (m1)", "LIGNE_SIGL": null, "LIGNE_TYPE": "Métro", "PLAN_URL": "https://prestations.vd.ch/pub/101587/api/download/2_Cartographie_et_geodonnees/2.1_Carte_des_reseaux/Carte_des_lignes_TP/topo/ligne_m1.pdf", "SHAPE_LEN": 7754.454 }, "geometry": { "type": "MultiLineString", "coordinates": [ ] } },
{ "type": "Feature", "properties": { "CADRE_NO": "250/249", "DDT_URL": null, "ETC_NOM": "Chemins de fer fédéraux", "ETC_SIGLE": "CFF", "ETC_URL": "https://www.cff.ch", "HORAIR_URL": "https://www.vd.ch/static/transport/carte_schematique/index.html?featureId=GL-250", "LIGNE_NOM": "Lausanne - Fribourg - Bern (GL)", "LIGNE_SIGL": null, "LIGNE_TYPE": "National", "PLAN_URL": "https://prestations.vd.ch/pub/101587/api/download/2_Cartographie_et_geodonnees/2.1_Carte_des_reseaux/Carte_des_lignes_TP/topo/ligne_GL-250.pdf", "SHAPE_LEN": 77073.099 }, "geometry": { "type": "MultiLineString", "coordinates": [ [ [ 6.629085447331478, 46.516831954040065 ], [ 6.629998509736817, 46.516700223884641 ], [ 6.630737055552688, 46.516591775916666 ], [ 6.630906026400511, 46.516559963627429 ], [ 6.631081274845229, 46.516519649504708 ], [ 6.63125281769794, 46.516472651639724 ], [ 6.631420290066559, 46.516418967453014 ], [ 6.631576217844575, 46.51636169241339 ], [ 6.631703478565785, 46.516306021447065 ], [ 6.63180288735861, 46.516258464612292 ], [ 6.631896867722419, 46.516207900378639 ], [ 6.632004591807664, 46.516141015959747 ], [ 6.632207698265121, 46.515995913982252 ], [ 6.632438092673025, 46.515827975637279 ], [ 6.632601980239563, 46.515708610876281 ], [ 6.632781150798105, 46.515578001410375 ], [ 6.633054778275708, 46.515378612819937 ], [ 6.633182080243398, 46.515285804708427 ], [ 6.63330903978782, 46.515193209931773 ], [ 6.633339378960249, 46.51517114204583 ], [ 6.633345057041116, 46.515166999181396 ], [ 6.633472238871251, 46.51507431584308 ], [ 6.633599394206644, 46.514981632177054 ], [ 6.633635398416849, 46.514955403251633 ], [ 6.633762592683983, 46.514862692694493 ], [ 6.633889746757254, 46.514770026692801 ], [ 6.634351920876998, 46.514439379393941 ], [ 6.634491925831726, 46.514348162258933 ], [ 6.634631966965039, 46.514263242463855 ], [ 6.634813167412046, 46.51416197144794 ], [ 6.635030196027508, 46.514052317754164 ], [ 6.63522463077671, 46.513963554436039 ], [ 6.635424602680734, 46.513880947330662 ], [ 6.635629668919401, 46.513804484277507 ], [ 6.635880384830966, 46.513720742260851 ], [ 6.636149921780234, 46.513641891778583 ], [ 6.636416930738071, 46.513570894347147 ], [ 6.636687356682259, 46.513506676502942 ], [ 6.636961198635139, 46.513449310182672 ], [ 6.637250216054659, 46.513396647419462 ], [ 6.637507645910727, 46.513356355327026 ], [ 6.637794880536993, 46.513318414159436 ], [ 6.638076135472245, 46.513288274638356 ], [ 6.638334068978075, 46.513266696064569 ], [ 6.638623212419277, 46.513249385273205 ], [ 6.638913161400951, 46.513239267287432 ], [ 6.639203265643236, 46.51323626554845 ], [ 6.639493392575278, 46.513240541049434 ], [ 6.639783165663947, 46.513252010172899 ], [ 6.640072169286224, 46.513270589029858 ], [ 6.640360024513024, 46.513296355923181 ], [ 6.640646211616851, 46.51332921724353 ], [ 6.6408739126234, 46.51336066793673 ], [ 6.641156523962486, 46.513406304222009 ], [ 6.641436558352183, 46.513458830669023 ], [ 6.641713753715652, 46.513518353407498 ], [ 6.641988761482039, 46.51358488602893 ], [ 6.642480752321917, 46.513721572225769 ], [ 6.643255217776533, 46.513957044097197 ], [ 6.643593084154467, 46.514055859641957 ], [ 6.643933135777143, 46.514147933438323 ], [ 6.644172312851584, 46.514206617002806 ], [ 6.644484442942599, 46.514279071059917 ], [ 6.64483377054709, 46.514355499955784 ], [ 6.645327323917453, 46.514447933016982 ], [ 6.645825770242159, 46.514526715109952 ], [ 6.6463284587441, 46.514591769658615 ], [ 6.646736486086869, 46.514634111781753 ], [ 6.647174991154801, 46.514669477250806 ], [ 6.647614938216026, 46.514694496613437 ], [ 6.648050215765752, 46.514709154245807 ], [ 6.648713513625697, 46.514715394790571 ], [ 6.650750060433398, 46.514718773105571 ], [ 6.651376022766402, 46.514719799914936 ], [ 6.652035395536021, 46.514720875056327 ], [ 6.654183086143252, 46.514723981954774 ], [ 6.654412672337538, 46.514724310093307 ], [ 6.655474510085235, 46.514725826205833 ], [ 6.658588665420005, 46.51473040000019 ], [ 6.6634960009277, 46.51473742340864 ], [ 6.663772249527695, 46.514737817609124 ], [ 6.663886449706145, 46.514737976989572 ] ] ] } },
{ "type": "Feature", "properties": { "CADRE_NO": "201/206", "DDT_URL": null, "ETC_NOM": "Chemins de fer fédéraux", "ETC_SIGLE": "CFF", "ETC_URL": "https://www.cff.ch", "HORAIR_URL": "https://www.vd.ch/static/transport/carte_schematique/index.html?featureId=R2", "LIGNE_NOM": "RER Vaud // Grandson - Yverdon-les-Bains - Lausanne - Cully", "LIGNE_SIGL": null, "LIGNE_TYPE": "Régional", "PLAN_URL": "https://prestations.vd.ch/pub/101587/api/download/2_Cartographie_et_geodonnees/2.1_Carte_des_reseaux/Carte_des_lignes_TP/topo/ligne_R2.pdf", "SHAPE_LEN": 52780.89 }, "geometry": { "type": "MultiLineString", "coordinates": [ [ [ 6.588857184677416, 46.532367819239418 ], [ 6.589127415809246, 46.532226156538016 ], [ 6.589402699617074, 46.532077253154149 ], [ 6.589699713517993, 46.531906642112745 ], [ 6.589841664273359, 46.531823752201717 ], [ 6.590138546334349, 46.531653058080501 ], [ 6.590413966400821, 46.531504243264976 ], [ 6.591227090512195, 46.531080295030463 ], [ 6.591622908834239, 46.530874027569517 ], [ 6.592040928509846, 46.530666538994197 ], [ 6.592464848596131, 46.530464949378448 ], [ 6.592613345865836, 46.530396336740097 ], [ 6.593232495042953, 46.530121442003832 ], [ 6.593727668642465, 46.529913892394966 ], [ 6.594186609475074, 46.52973090928964 ], [ 6.594833395823875, 46.529488147835238 ], [ 6.59571139842998, 46.529180799274968 ], [ 6.596852970130803, 46.528788218340736 ], [ 6.597489560223737, 46.528569295945864 ], [ 6.598111854419252, 46.52835573375571 ], [ 6.598334136142595, 46.52827553353108 ], [ 6.598599267338273, 46.528179807969103 ], [ 6.59891918757539, 46.528061799093827 ], [ 6.599224592295678, 46.52794760424559 ], [ 6.599514696765261, 46.527837406655088 ], [ 6.599751934717064, 46.527749820533465 ], [ 6.600343119513906, 46.527538238274772 ], [ 6.60108726601111, 46.527283800225717 ], [ 6.601717625150513, 46.52707106967727 ], [ 6.602369467004986, 46.52685109021003 ], [ 6.602682899666276, 46.526745302718652 ], [ 6.602982075838134, 46.526644330240892 ], [ 6.603582872434128, 46.526441717230419 ], [ 6.604014094221814, 46.526298280628069 ], [ 6.604512080152406, 46.526136603368307 ], [ 6.605078801583582, 46.525953865290624 ], [ 6.605542405823539, 46.525802699293322 ], [ 6.607990509485765, 46.524961476038932 ], [ 6.610289888898129, 46.524170662434514 ], [ 6.610886605699538, 46.523954244341837 ], [ 6.611289687129591, 46.52379471495076 ], [ 6.611685212515318, 46.52362630389586 ], [ 6.612072527126738, 46.523449204400812 ], [ 6.612451368989567, 46.523263495607296 ], [ 6.612830280085186, 46.523064552810894 ], [ 6.613173525842408, 46.522871025810424 ], [ 6.6135000179417, 46.522673489623564 ], [ 6.613816459587672, 46.522468250752603 ], [ 6.61406921959897, 46.522293845603379 ], [ 6.614362275332652, 46.522082677761176 ], [ 6.615944763921938, 46.520914371658264 ], [ 6.616447467198208, 46.520543139821918 ], [ 6.617398356396768, 46.519844166898871 ], [ 6.617623156051785, 46.519690062672268 ], [ 6.617875004243752, 46.519531124894243 ], [ 6.618161737061994, 46.519366222578121 ], [ 6.618450057535439, 46.51921681330483 ], [ 6.618727209201438, 46.519090523510236 ], [ 6.618883120558318, 46.51902714828951 ], [ 6.619042489785475, 46.518967756120738 ], [ 6.61920479459529, 46.518912415185241 ], [ 6.619411787166183, 46.518849228296226 ], [ 6.619622590275961, 46.51879254573096 ], [ 6.619793920512203, 46.518752130666272 ], [ 6.620087372898026, 46.518693605860193 ], [ 6.620862226430828, 46.518565872278742 ], [ 6.621261250656286, 46.518489042749742 ], [ 6.623724989832772, 46.517923291045143 ], [ 6.62390054502569, 46.517883170060017 ], [ 6.624076099958311, 46.517843048803456 ], [ 6.624392163332336, 46.51777083032529 ], [ 6.624912612518904, 46.51765196622258 ], [ 6.625500791519225, 46.517517914091378 ], [ 6.625676071664333, 46.51747770744371 ], [ 6.625851770137405, 46.517437395571648 ], [ 6.626100563095037, 46.517384031932735 ], [ 6.626378381702706, 46.517332944693671 ], [ 6.626564048166511, 46.517300448730637 ], [ 6.626841863206008, 46.517249540259961 ], [ 6.627090781789131, 46.517196364281581 ], [ 6.627309029325965, 46.517146287950325 ], [ 6.627627059956548, 46.517073534833678 ], [ 6.627948282959607, 46.517004222158782 ], [ 6.628220831910248, 46.516956691210588 ], [ 6.629085447331478, 46.516831954040065 ], [ 6.629998509736817, 46.516700223884641 ], [ 6.630737055552688, 46.516591775916666 ], [ 6.630906026400511, 46.516559963627429 ], [ 6.631081274845229, 46.516519649504708 ], [ 6.63125281769794, 46.516472651639724 ], [ 6.631420290066559, 46.516418967453014 ], [ 6.631576217844575, 46.51636169241339 ], [ 6.631703478565785, 46.516306021447065 ], [ 6.63180288735861, 46.516258464612292 ], [ 6.631896867722419, 46.516207900378639 ], [ 6.632004591807664, 46.516141015959747 ], [ 6.632207698265121, 46.515995913982252 ] ], [ [ 6.661802236619645, 46.510371192180294 ], [ 6.660274359361511, 46.510748671305691 ], [ 6.659771787147661, 46.510865948068208 ], [ 6.659656539773739, 46.510889292970383 ], [ 6.659436995547533, 46.510933781658686 ], [ 6.659325524450574, 46.510956369514425 ], [ 6.658960212213813, 46.511016300368077 ], [ 6.658565649618114, 46.511076037871511 ], [ 6.658201065813883, 46.5111242044715 ], [ 6.657642789497674, 46.511183243946121 ], [ 6.657130534083452, 46.511222446646954 ], [ 6.656616525426775, 46.511247682078093 ], [ 6.656101274387341, 46.511258791808771 ], [ 6.655524796690448, 46.511254489048852 ], [ 6.654195817669743, 46.511210931239177 ], [ 6.654046720887185, 46.511206040629951 ], [ 6.652708718881583, 46.511162160088745 ], [ 6.652336592123508, 46.511152473963392 ], [ 6.65197713565034, 46.511148712938869 ], [ 6.651609105616609, 46.511152996730893 ], [ 6.65114380074246, 46.511171087623914 ], [ 6.650746125682822, 46.511197823855071 ], [ 6.65028434967275, 46.511241934354587 ], [ 6.649898859689469, 46.511289902055189 ], [ 6.649491670606336, 46.511352381053932 ], [ 6.649120885054741, 46.511420320728845 ], [ 6.648754121770006, 46.51149828183442 ], [ 6.648497055696183, 46.511559463701019 ], [ 6.648213099809658, 46.511632782201687 ], [ 6.646800999675857, 46.512025848175909 ], [ 6.646333090457503, 46.512149874859489 ], [ 6.646053113714328, 46.512217998079201 ], [ 6.645770854374731, 46.512281786546801 ], [ 6.645200520208925, 46.512396177459664 ], [ 6.644840487660975, 46.512458609901088 ], [ 6.644478081835072, 46.512514007659085 ], [ 6.644113563577982, 46.512562363541285 ], [ 6.643820538202847, 46.512595934953424 ], [ 6.643452947965162, 46.512631591738995 ], [ 6.64315733526697, 46.512654977751239 ], [ 6.642311838093814, 46.512704991366675 ], [ 6.639382914503702, 46.512860128435385 ], [ 6.638835219725339, 46.512897046932899 ], [ 6.638477682932161, 46.512930977319712 ], [ 6.638096182869829, 46.512979850857654 ], [ 6.637712538056303, 46.513043272615768 ], [ 6.637388024413196, 46.513108478211763 ], [ 6.637120894588052, 46.513170292057588 ], [ 6.636909775379539, 46.513224674609262 ], [ 6.636649239337427, 46.513298687655677 ], [ 6.636443710522981, 46.513362644713276 ], [ 6.63624111519576, 46.513430850309121 ], [ 6.63600643730496, 46.513514022897731 ], [ 6.635381901442852, 46.513762526476683 ], [ 6.634993019306218, 46.513932226635056 ], [ 6.634837224201832, 46.514007589348331 ], [ 6.634688166485809, 46.514085518505112 ], [ 6.634551364002027, 46.514162994581923 ], [ 6.634401050327144, 46.514255218224825 ], [ 6.634245892962119, 46.514357662849491 ], [ 6.63404797466337, 46.514496417986727 ], [ 6.633890232284834, 46.514614856813971 ], [ 6.633691820350045, 46.514777888251061 ], [ 6.633633342685224, 46.514828301086396 ], [ 6.633452993965161, 46.514977075580759 ], [ 6.633277699722786, 46.51511014254708 ], [ 6.633232381975267, 46.515143106265349 ], [ 6.633104734583135, 46.515237261389331 ], [ 6.632978120569961, 46.515328499987206 ], [ 6.632942155418361, 46.515354693000987 ], [ 6.632815182642299, 46.51544723330359 ], [ 6.632705462126458, 46.515550295511737 ], [ 6.632672423799614, 46.515581187197334 ], [ 6.632563078879575, 46.515685241508457 ], [ 6.632453430714919, 46.515786882612787 ], [ 6.632420456309758, 46.515817837653636 ], [ 6.632312907998374, 46.515914077911319 ], [ 6.632207698265121, 46.515995913982252 ] ] ] } },
{ "type": "Feature", "properties": { "CADRE_NO": "202/206", "DDT_URL": null, "ETC_NOM": "Chemins de fer fédéraux", "ETC_SIGLE": "CFF", "ETC_URL": "https://www.cff.ch", "HORAIR_URL": "https://www.vd.ch/static/transport/carte_schematique/index.html?featureId=R4", "LIGNE_NOM": "RER Vaud // Le Brassus-/Vallorbe - Le Day - Lausanne - Aigle - Bex (- St-Maurice)", "LIGNE_SIGL": null, "LIGNE_TYPE": "Régional", "PLAN_URL": "https://prestations.vd.ch/pub/101587/api/download/2_Cartographie_et_geodonnees/2.1_Carte_des_reseaux/Carte_des_lignes_TP/topo/ligne_R4.pdf", "SHAPE_LEN": 119576.157 }, "geometry": { "type": "MultiLineString", "coordinates": [ [ [ 6.588857184677416, 46.532367819239418 ], [ 6.589127415809246, 46.532226156538016 ], [ 6.589402699617074, 46.532077253154149 ], [ 6.589699713517993, 46.531906642112745 ], [ 6.589841664273359, 46.531823752201717 ], [ 6.590138546334349, 46.531653058080501 ], [ 6.590413966400821, 46.531504243264976 ], [ 6.591227090512195, 46.531080295030463 ], [ 6.591622908834239, 46.530874027569517 ], [ 6.592040928509846, 46.530666538994197 ], [ 6.592464848596131, 46.530464949378448 ], [ 6.592613345865836, 46.530396336740097 ], [ 6.593232495042953, 46.530121442003832 ], [ 6.593727668642465, 46.529913892394966 ], [ 6.594186609475074, 46.52973090928964 ], [ 6.594833395823875, 46.529488147835238 ], [ 6.59571139842998, 46.529180799274968 ], [ 6.596852970130803, 46.528788218340736 ], [ 6.597489560223737, 46.528569295945864 ], [ 6.598111854419252, 46.52835573375571 ], [ 6.598334136142595, 46.52827553353108 ], [ 6.598599267338273, 46.528179807969103 ], [ 6.59891918757539, 46.528061799093827 ], [ 6.599224592295678, 46.52794760424559 ], [ 6.599514696765261, 46.527837406655088 ], [ 6.599751934717064, 46.527749820533465 ], [ 6.600343119513906, 46.527538238274772 ], [ 6.60108726601111, 46.527283800225717 ], [ 6.601717625150513, 46.52707106967727 ], [ 6.602369467004986, 46.52685109021003 ], [ 6.602682899666276, 46.526745302718652 ], [ 6.602982075838134, 46.526644330240892 ], [ 6.603582872434128, 46.526441717230419 ], [ 6.604014094221814, 46.526298280628069 ], [ 6.604512080152406, 46.526136603368307 ], [ 6.605078801583582, 46.525953865290624 ], [ 6.605542405823539, 46.525802699293322 ], [ 6.607990509485765, 46.524961476038932 ], [ 6.610289888898129, 46.524170662434514 ], [ 6.610886605699538, 46.523954244341837 ], [ 6.611289687129591, 46.52379471495076 ], [ 6.611685212515318, 46.52362630389586 ], [ 6.612072527126738, 46.523449204400812 ], [ 6.612451368989567, 46.523263495607296 ], [ 6.612830280085186, 46.523064552810894 ], [ 6.613173525842408, 46.522871025810424 ], [ 6.6135000179417, 46.522673489623564 ], [ 6.613816459587672, 46.522468250752603 ], [ 6.61406921959897, 46.522293845603379 ], [ 6.614362275332652, 46.522082677761176 ], [ 6.615944763921938, 46.520914371658264 ], [ 6.616447467198208, 46.520543139821918 ], [ 6.617398356396768, 46.519844166898871 ], [ 6.617623156051785, 46.519690062672268 ], [ 6.617875004243752, 46.519531124894243 ], [ 6.618161737061994, 46.519366222578121 ], [ 6.618450057535439, 46.51921681330483 ], [ 6.618727209201438, 46.519090523510236 ], [ 6.618883120558318, 46.51902714828951 ], [ 6.619042489785475, 46.518967756120738 ], [ 6.61920479459529, 46.518912415185241 ], [ 6.619411787166183, 46.518849228296226 ], [ 6.619622590275961, 46.51879254573096 ], [ 6.619793920512203, 46.518752130666272 ], [ 6.620087372898026, 46.518693605860193 ], [ 6.620862226430828, 46.518565872278742 ], [ 6.621261250656286, 46.518489042749742 ], [ 6.623724989832772, 46.517923291045143 ], [ 6.62390054502569, 46.517883170060017 ], [ 6.624076099958311, 46.517843048803456 ], [ 6.624392163332336, 46.51777083032529 ], [ 6.624912612518904, 46.51765196622258 ], [ 6.625500791519225, 46.517517914091378 ], [ 6.625676071664333, 46.51747770744371 ], [ 6.625851770137405, 46.517437395571648 ], [ 6.626100563095037, 46.517384031932735 ], [ 6.626378381702706, 46.517332944693671 ], [ 6.626564048166511, 46.517300448730637 ], [ 6.626841863206008, 46.517249540259961 ], [ 6.627090781789131, 46.517196364281581 ], [ 6.627309029325965, 46.517146287950325 ], [ 6.627627059956548, 46.517073534833678 ], [ 6.627948282959607, 46.517004222158782 ], [ 6.628220831910248, 46.516956691210588 ], [ 6.629085447331478, 46.516831954040065 ], [ 6.629998509736817, 46.516700223884641 ], [ 6.630737055552688, 46.516591775916666 ], [ 6.630906026400511, 46.516559963627429 ], [ 6.631081274845229, 46.516519649504708 ], [ 6.63125281769794, 46.516472651639724 ], [ 6.631420290066559, 46.516418967453014 ], [ 6.631576217844575, 46.51636169241339 ], [ 6.631703478565785, 46.516306021447065 ], [ 6.63180288735861, 46.516258464612292 ], [ 6.631896867722419, 46.516207900378639 ], [ 6.632004591807664, 46.516141015959747 ], [ 6.632207698265121, 46.515995913982252 ] ], [ [ 6.661802236619645, 46.510371192180294 ], [ 6.660274359361511, 46.510748671305691 ], [ 6.659771787147661, 46.510865948068208 ], [ 6.659656539773739, 46.510889292970383 ], [ 6.659436995547533, 46.510933781658686 ], [ 6.659325524450574, 46.510956369514425 ], [ 6.658960212213813, 46.511016300368077 ], [ 6.658565649618114, 46.511076037871511 ], [ 6.658201065813883, 46.5111242044715 ], [ 6.657642789497674, 46.511183243946121 ], [ 6.657130534083452, 46.511222446646954 ], [ 6.656616525426775, 46.511247682078093 ], [ 6.656101274387341, 46.511258791808771 ], [ 6.655524796690448, 46.511254489048852 ], [ 6.654195817669743, 46.511210931239177 ], [ 6.654046720887185, 46.511206040629951 ], [ 6.652708718881583, 46.511162160088745 ], [ 6.652336592123508, 46.511152473963392 ], [ 6.65197713565034, 46.511148712938869 ], [ 6.651609105616609, 46.511152996730893 ], [ 6.65114380074246, 46.511171087623914 ], [ 6.650746125682822, 46.511197823855071 ], [ 6.65028434967275, 46.511241934354587 ], [ 6.649898859689469, 46.511289902055189 ], [ 6.649491670606336, 46.511352381053932 ], [ 6.649120885054741, 46.511420320728845 ], [ 6.648754121770006, 46.51149828183442 ], [ 6.648497055696183, 46.511559463701019 ], [ 6.648213099809658, 46.511632782201687 ], [ 6.646800999675857, 46.512025848175909 ], [ 6.646333090457503, 46.512149874859489 ], [ 6.646053113714328, 46.512217998079201 ], [ 6.645770854374731, 46.512281786546801 ], [ 6.645200520208925, 46.512396177459664 ], [ 6.644840487660975, 46.512458609901088 ], [ 6.644478081835072, 46.512514007659085 ], [ 6.644113563577982, 46.512562363541285 ], [ 6.643820538202847, 46.512595934953424 ], [ 6.643452947965162, 46.512631591738995 ], [ 6.64315733526697, 46.512654977751239 ], [ 6.642311838093814, 46.512704991366675 ], [ 6.639382914503702, 46.512860128435385 ], [ 6.638835219725339, 46.512897046932899 ], [ 6.638477682932161, 46.512930977319712 ], [ 6.638096182869829, 46.512979850857654 ], [ 6.637712538056303, 46.513043272615768 ], [ 6.637388024413196, 46.513108478211763 ], [ 6.637120894588052, 46.513170292057588 ], [ 6.636909775379539, 46.513224674609262 ], [ 6.636649239337427, 46.513298687655677 ], [ 6.636443710522981, 46.513362644713276 ], [ 6.63624111519576, 46.513430850309121 ], [ 6.63600643730496, 46.513514022897731 ], [ 6.635381901442852, 46.513762526476683 ], [ 6.634993019306218, 46.513932226635056 ], [ 6.634837224201832, 46.514007589348331 ], [ 6.634688166485809, 46.514085518505112 ], [ 6.634551364002027, 46.514162994581923 ], [ 6.634401050327144, 46.514255218224825 ], [ 6.634245892962119, 46.514357662849491 ], [ 6.63404797466337, 46.514496417986727 ], [ 6.633890232284834, 46.514614856813971 ], [ 6.633691820350045, 46.514777888251061 ], [ 6.633633342685224, 46.514828301086396 ], [ 6.633452993965161, 46.514977075580759 ], [ 6.633277699722786, 46.51511014254708 ], [ 6.633232381975267, 46.515143106265349 ], [ 6.633104734583135, 46.515237261389331 ], [ 6.632978120569961, 46.515328499987206 ], [ 6.632942155418361, 46.515354693000987 ], [ 6.632815182642299, 46.51544723330359 ], [ 6.632705462126458, 46.515550295511737 ], [ 6.632672423799614, 46.515581187197334 ], [ 6.632563078879575, 46.515685241508457 ], [ 6.632453430714919, 46.515786882612787 ], [ 6.632420456309758, 46.515817837653636 ], [ 6.632312907998374, 46.515914077911319 ], [ 6.632207698265121, 46.515995913982252 ] ] ] } },
{ "type": "Feature", "properties": { "CADRE_NO": "202/206", "DDT_URL": null, "ETC_NOM": "Chemins de fer fédéraux", "ETC_SIGLE": "CFF", "ETC_URL": "https://www.cff.ch", "HORAIR_URL": "https://www.vd.ch/static/transport/carte_schematique/index.html?featureId=R3", "LIGNE_NOM": "RER Vaud // Vallorbe - Lausanne - Aigle - Bex (- St-Maurice)", "LIGNE_SIGL": null, "LIGNE_TYPE": "Régional", "PLAN_URL": "https://prestations.vd.ch/pub/101587/api/download/2_Cartographie_et_geodonnees/2.1_Carte_des_reseaux/Carte_des_lignes_TP/topo/ligne_R3.pdf", "SHAPE_LEN": 97866.836 }, "geometry": { "type": "MultiLineString", "coordinates": [ [ [ 6.588857184677416, 46.532367819239418 ], [ 6.589127415809246, 46.532226156538016 ], [ 6.589402699617074, 46.532077253154149 ], [ 6.589699713517993, 46.531906642112745 ], [ 6.589841664273359, 46.531823752201717 ], [ 6.590138546334349, 46.531653058080501 ], [ 6.590413966400821, 46.531504243264976 ], [ 6.591227090512195, 46.531080295030463 ], [ 6.591622908834239, 46.530874027569517 ], [ 6.592040928509846, 46.530666538994197 ], [ 6.592464848596131, 46.530464949378448 ], [ 6.592613345865836, 46.530396336740097 ], [ 6.593232495042953, 46.530121442003832 ], [ 6.593727668642465, 46.529913892394966 ], [ 6.594186609475074, 46.52973090928964 ], [ 6.594833395823875, 46.529488147835238 ], [ 6.59571139842998, 46.529180799274968 ], [ 6.596852970130803, 46.528788218340736 ], [ 6.597489560223737, 46.528569295945864 ], [ 6.598111854419252, 46.52835573375571 ], [ 6.598334136142595, 46.52827553353108 ], [ 6.598599267338273, 46.528179807969103 ], [ 6.59891918757539, 46.528061799093827 ], [ 6.599224592295678, 46.52794760424559 ], [ 6.599514696765261, 46.527837406655088 ], [ 6.599751934717064, 46.527749820533465 ], [ 6.600343119513906, 46.527538238274772 ], [ 6.60108726601111, 46.527283800225717 ], [ 6.601717625150513, 46.52707106967727 ], [ 6.602369467004986, 46.52685109021003 ], [ 6.602682899666276, 46.526745302718652 ], [ 6.602982075838134, 46.526644330240892 ], [ 6.603582872434128, 46.526441717230419 ], [ 6.604014094221814, 46.526298280628069 ], [ 6.604512080152406, 46.526136603368307 ], [ 6.605078801583582, 46.525953865290624 ], [ 6.605542405823539, 46.525802699293322 ], [ 6.607990509485765, 46.524961476038932 ], [ 6.610289888898129, 46.524170662434514 ], [ 6.610886605699538, 46.523954244341837 ], [ 6.611289687129591, 46.52379471495076 ], [ 6.611685212515318, 46.52362630389586 ], [ 6.612072527126738, 46.523449204400812 ], [ 6.612451368989567, 46.523263495607296 ], [ 6.612830280085186, 46.523064552810894 ], [ 6.613173525842408, 46.522871025810424 ], [ 6.6135000179417, 46.522673489623564 ], [ 6.613816459587672, 46.522468250752603 ], [ 6.61406921959897, 46.522293845603379 ], [ 6.614362275332652, 46.522082677761176 ], [ 6.615944763921938, 46.520914371658264 ], [ 6.616447467198208, 46.520543139821918 ], [ 6.617398356396768, 46.519844166898871 ], [ 6.617623156051785, 46.519690062672268 ], [ 6.617875004243752, 46.519531124894243 ], [ 6.618161737061994, 46.519366222578121 ], [ 6.618450057535439, 46.51921681330483 ], [ 6.618727209201438, 46.519090523510236 ], [ 6.618883120558318, 46.51902714828951 ], [ 6.619042489785475, 46.518967756120738 ], [ 6.61920479459529, 46.518912415185241 ], [ 6.619411787166183, 46.518849228296226 ], [ 6.619622590275961, 46.51879254573096 ], [ 6.619793920512203, 46.518752130666272 ], [ 6.620087372898026, 46.518693605860193 ], [ 6.620862226430828, 46.518565872278742 ], [ 6.621261250656286, 46.518489042749742 ], [ 6.623724989832772, 46.517923291045143 ], [ 6.62390054502569, 46.517883170060017 ], [ 6.624076099958311, 46.517843048803456 ], [ 6.624392163332336, 46.51777083032529 ], [ 6.624912612518904, 46.51765196622258 ], [ 6.625500791519225, 46.517517914091378 ], [ 6.625676071664333, 46.51747770744371 ], [ 6.625851770137405, 46.517437395571648 ], [ 6.626100563095037, 46.517384031932735 ], [ 6.626378381702706, 46.517332944693671 ], [ 6.626564048166511, 46.517300448730637 ], [ 6.626841863206008, 46.517249540259961 ], [ 6.627090781789131, 46.517196364281581 ], [ 6.627309029325965, 46.517146287950325 ], [ 6.627627059956548, 46.517073534833678 ], [ 6.627948282959607, 46.517004222158782 ], [ 6.628220831910248, 46.516956691210588 ], [ 6.629085447331478, 46.516831954040065 ], [ 6.629998509736817, 46.516700223884641 ], [ 6.630737055552688, 46.516591775916666 ], [ 6.630906026400511, 46.516559963627429 ], [ 6.631081274845229, 46.516519649504708 ], [ 6.63125281769794, 46.516472651639724 ], [ 6.631420290066559, 46.516418967453014 ], [ 6.631576217844575, 46.51636169241339 ], [ 6.631703478565785, 46.516306021447065 ], [ 6.63180288735861, 46.516258464612292 ], [ 6.631896867722419, 46.516207900378639 ], [ 6.632004591807664, 46.516141015959747 ], [ 6.632207698265121, 46.515995913982252 ] ], [ [ 6.661802236619645, 46.510371192180294 ], [ 6.660274359361511, 46.510748671305691 ], [ 6.659771787147661, 46.510865948068208 ], [ 6.659656539773739, 46.510889292970383 ], [ 6.659436995547533, 46.510933781658686 ], [ 6.659325524450574, 46.510956369514425 ], [ 6.658960212213813, 46.511016300368077 ], [ 6.658565649618114, 46.511076037871511 ], [ 6.658201065813883, 46.5111242044715 ], [ 6.657642789497674, 46.511183243946121 ], [ 6.657130534083452, 46.511222446646954 ], [ 6.656616525426775, 46.511247682078093 ], [ 6.656101274387341, 46.511258791808771 ], [ 6.655524796690448, 46.511254489048852 ], [ 6.654195817669743, 46.511210931239177 ], [ 6.654046720887185, 46.511206040629951 ], [ 6.652708718881583, 46.511162160088745 ], [ 6.652336592123508, 46.511152473963392 ], [ 6.65197713565034, 46.511148712938869 ], [ 6.651609105616609, 46.511152996730893 ], [ 6.65114380074246, 46.511171087623914 ], [ 6.650746125682822, 46.511197823855071 ], [ 6.65028434967275, 46.511241934354587 ], [ 6.649898859689469, 46.511289902055189 ], [ 6.649491670606336, 46.511352381053932 ], [ 6.649120885054741, 46.511420320728845 ], [ 6.648754121770006, 46.51149828183442 ], [ 6.648497055696183, 46.511559463701019 ], [ 6.648213099809658, 46.511632782201687 ], [ 6.646800999675857, 46.512025848175909 ], [ 6.646333090457503, 46.512149874859489 ], [ 6.646053113714328, 46.512217998079201 ], [ 6.645770854374731, 46.512281786546801 ], [ 6.645200520208925, 46.512396177459664 ], [ 6.644840487660975, 46.512458609901088 ], [ 6.644478081835072, 46.512514007659085 ], [ 6.644113563577982, 46.512562363541285 ], [ 6.643820538202847, 46.512595934953424 ], [ 6.643452947965162, 46.512631591738995 ], [ 6.64315733526697, 46.512654977751239 ], [ 6.642311838093814, 46.512704991366675 ], [ 6.639382914503702, 46.512860128435385 ], [ 6.638835219725339, 46.512897046932899 ], [ 6.638477682932161, 46.512930977319712 ], [ 6.638096182869829, 46.512979850857654 ], [ 6.637712538056303, 46.513043272615768 ], [ 6.637388024413196, 46.513108478211763 ], [ 6.637120894588052, 46.513170292057588 ], [ 6.636909775379539, 46.513224674609262 ], [ 6.636649239337427, 46.513298687655677 ], [ 6.636443710522981, 46.513362644713276 ], [ 6.63624111519576, 46.513430850309121 ], [ 6.63600643730496, 46.513514022897731 ], [ 6.635381901442852, 46.513762526476683 ], [ 6.634993019306218, 46.513932226635056 ], [ 6.634837224201832, 46.514007589348331 ], [ 6.634688166485809, 46.514085518505112 ], [ 6.634551364002027, 46.514162994581923 ], [ 6.634401050327144, 46.514255218224825 ], [ 6.634245892962119, 46.514357662849491 ], [ 6.63404797466337, 46.514496417986727 ], [ 6.633890232284834, 46.514614856813971 ], [ 6.633691820350045, 46.514777888251061 ], [ 6.633633342685224, 46.514828301086396 ], [ 6.633452993965161, 46.514977075580759 ], [ 6.633277699722786, 46.51511014254708 ], [ 6.633232381975267, 46.515143106265349 ], [ 6.633104734583135, 46.515237261389331 ], [ 6.632978120569961, 46.515328499987206 ], [ 6.632942155418361, 46.515354693000987 ], [ 6.632815182642299, 46.51544723330359 ], [ 6.632705462126458, 46.515550295511737 ], [ 6.632672423799614, 46.515581187197334 ], [ 6.632563078879575, 46.515685241508457 ], [ 6.632453430714919, 46.515786882612787 ], [ 6.632420456309758, 46.515817837653636 ], [ 6.632312907998374, 46.515914077911319 ], [ 6.632207698265121, 46.515995913982252 ] ] ] } },
{ "type": "Feature", "properties": { "CADRE_NO": "203/249", "DDT_URL": null, "ETC_NOM": "Chemins de fer fédéraux", "ETC_SIGLE": "CFF", "ETC_URL": "https://www.cff.ch", "HORAIR_URL": "https://www.vd.ch/static/transport/carte_schematique/index.html?featureId=S40", "LIGNE_NOM": "RER Fribourg | Freiburg // Lausanne - Palézieux - Romont - Fribourg/Freiburg", "LIGNE_SIGL": null, "LIGNE_TYPE": "Régional", "PLAN_URL": "https://prestations.vd.ch/pub/101587/api/download/2_Cartographie_et_geodonnees/2.1_Carte_des_reseaux/Carte_des_lignes_TP/topo/ligne_S40.pdf", "SHAPE_LEN": 65757.33 }, "geometry": { "type": "MultiLineString", "coordinates": [ [ [ 6.629085447331478, 46.516831954040065 ], [ 6.629998509736817, 46.516700223884641 ], [ 6.630737055552688, 46.516591775916666 ], [ 6.630906026400511, 46.516559963627429 ], [ 6.631081274845229, 46.516519649504708 ], [ 6.63125281769794, 46.516472651639724 ], [ 6.631420290066559, 46.516418967453014 ], [ 6.631576217844575, 46.51636169241339 ], [ 6.631703478565785, 46.516306021447065 ], [ 6.63180288735861, 46.516258464612292 ], [ 6.631896867722419, 46.516207900378639 ], [ 6.632004591807664, 46.516141015959747 ], [ 6.632207698265121, 46.515995913982252 ], [ 6.632438092673025, 46.515827975637279 ], [ 6.632601980239563, 46.515708610876281 ], [ 6.632781150798105, 46.515578001410375 ], [ 6.633054778275708, 46.515378612819937 ], [ 6.633182080243398, 46.515285804708427 ], [ 6.63330903978782, 46.515193209931773 ], [ 6.633339378960249, 46.51517114204583 ], [ 6.633345057041116, 46.515166999181396 ], [ 6.633472238871251, 46.51507431584308 ], [ 6.633599394206644, 46.514981632177054 ], [ 6.633635398416849, 46.514955403251633 ], [ 6.633762592683983, 46.514862692694493 ], [ 6.633889746757254, 46.514770026692801 ], [ 6.634351920876998, 46.514439379393941 ], [ 6.634491925831726, 46.514348162258933 ], [ 6.634631966965039, 46.514263242463855 ], [ 6.634813167412046, 46.51416197144794 ], [ 6.635030196027508, 46.514052317754164 ], [ 6.63522463077671, 46.513963554436039 ], [ 6.635424602680734, 46.513880947330662 ], [ 6.635629668919401, 46.513804484277507 ], [ 6.635880384830966, 46.513720742260851 ], [ 6.636149921780234, 46.513641891778583 ], [ 6.636416930738071, 46.513570894347147 ], [ 6.636687356682259, 46.513506676502942 ], [ 6.636961198635139, 46.513449310182672 ], [ 6.637250216054659, 46.513396647419462 ], [ 6.637507645910727, 46.513356355327026 ], [ 6.637794880536993, 46.513318414159436 ], [ 6.638076135472245, 46.513288274638356 ], [ 6.638334068978075, 46.513266696064569 ], [ 6.638623212419277, 46.513249385273205 ], [ 6.638913161400951, 46.513239267287432 ], [ 6.639203265643236, 46.51323626554845 ], [ 6.639493392575278, 46.513240541049434 ], [ 6.639783165663947, 46.513252010172899 ], [ 6.640072169286224, 46.513270589029858 ], [ 6.640360024513024, 46.513296355923181 ], [ 6.640646211616851, 46.51332921724353 ], [ 6.6408739126234, 46.51336066793673 ], [ 6.641156523962486, 46.513406304222009 ], [ 6.641436558352183, 46.513458830669023 ], [ 6.641713753715652, 46.513518353407498 ], [ 6.641988761482039, 46.51358488602893 ], [ 6.642480752321917, 46.513721572225769 ], [ 6.643255217776533, 46.513957044097197 ], [ 6.643593084154467, 46.514055859641957 ], [ 6.643933135777143, 46.514147933438323 ], [ 6.644172312851584, 46.514206617002806 ], [ 6.644484442942599, 46.514279071059917 ], [ 6.64483377054709, 46.514355499955784 ], [ 6.645327323917453, 46.514447933016982 ], [ 6.645825770242159, 46.514526715109952 ], [ 6.6463284587441, 46.514591769658615 ], [ 6.646736486086869, 46.514634111781753 ], [ 6.647174991154801, 46.514669477250806 ], [ 6.647614938216026, 46.514694496613437 ], [ 6.648050215765752, 46.514709154245807 ], [ 6.648713513625697, 46.514715394790571 ], [ 6.650750060433398, 46.514718773105571 ], [ 6.651376022766402, 46.514719799914936 ], [ 6.652035395536021, 46.514720875056327 ], [ 6.654183086143252, 46.514723981954774 ], [ 6.654412672337538, 46.514724310093307 ], [ 6.655474510085235, 46.514725826205833 ], [ 6.658588665420005, 46.51473040000019 ], [ 6.6634960009277, 46.51473742340864 ], [ 6.663772249527695, 46.514737817609124 ], [ 6.663886449706145, 46.514737976989572 ] ] ] } },
{ "type": "Feature", "properties": { "CADRE_NO": "100/150", "DDT_URL": null, "ETC_NOM": "Chemins de fer fédéraux", "ETC_SIGLE": "CFF", "ETC_URL": "https://www.cff.ch", "HORAIR_URL": "https://www.vd.ch/static/transport/carte_schematique/index.html?featureId=RE33", "LIGNE_NOM": "Annemasse - Genève - Lausanne - Vevey - St-Maurice/Martigny (RE33)", "LIGNE_SIGL": null, "LIGNE_TYPE": "Régional", "PLAN_URL": "https://prestations.vd.ch/pub/101587/api/download/2_Cartographie_et_geodonnees/2.1_Carte_des_reseaux/Carte_des_lignes_TP/topo/ligne_RE33.pdf", "SHAPE_LEN": 151010.423 }, "geometry": { "type": "MultiLineString", "coordinates": [ [ [ 6.588857184677416, 46.532367819239418 ], [ 6.589127415809246, 46.532226156538016 ], [ 6.589402699617074, 46.532077253154149 ], [ 6.589699713517993, 46.531906642112745 ], [ 6.589841664273359, 46.531823752201717 ], [ 6.590138546334349, 46.531653058080501 ], [ 6.590413966400821, 46.531504243264976 ], [ 6.591227090512195, 46.531080295030463 ], [ 6.591622908834239, 46.530874027569517 ], [ 6.592040928509846, 46.530666538994197 ], [ 6.592464848596131, 46.530464949378448 ], [ 6.592613345865836, 46.530396336740097 ], [ 6.593232495042953, 46.530121442003832 ], [ 6.593727668642465, 46.529913892394966 ], [ 6.594186609475074, 46.52973090928964 ], [ 6.594833395823875, 46.529488147835238 ], [ 6.59571139842998, 46.529180799274968 ], [ 6.596852970130803, 46.528788218340736 ], [ 6.597489560223737, 46.528569295945864 ], [ 6.598111854419252, 46.52835573375571 ], [ 6.598334136142595, 46.52827553353108 ], [ 6.598599267338273, 46.528179807969103 ], [ 6.59891918757539, 46.528061799093827 ], [ 6.599224592295678, 46.52794760424559 ], [ 6.599514696765261, 46.527837406655088 ], [ 6.599751934717064, 46.527749820533465 ], [ 6.600343119513906, 46.527538238274772 ], [ 6.60108726601111, 46.527283800225717 ], [ 6.601717625150513, 46.52707106967727 ], [ 6.602369467004986, 46.52685109021003 ], [ 6.602682899666276, 46.526745302718652 ], [ 6.602982075838134, 46.526644330240892 ], [ 6.603582872434128, 46.526441717230419 ], [ 6.604014094221814, 46.526298280628069 ], [ 6.604512080152406, 46.526136603368307 ], [ 6.605078801583582, 46.525953865290624 ], [ 6.605542405823539, 46.525802699293322 ], [ 6.607990509485765, 46.524961476038932 ], [ 6.610289888898129, 46.524170662434514 ], [ 6.610886605699538, 46.523954244341837 ], [ 6.611289687129591, 46.52379471495076 ], [ 6.611685212515318, 46.52362630389586 ], [ 6.612072527126738, 46.523449204400812 ], [ 6.612451368989567, 46.523263495607296 ], [ 6.612830280085186, 46.523064552810894 ], [ 6.613173525842408, 46.522871025810424 ], [ 6.6135000179417, 46.522673489623564 ], [ 6.613816459587672, 46.522468250752603 ], [ 6.61406921959897, 46.522293845603379 ], [ 6.614362275332652, 46.522082677761176 ], [ 6.615944763921938, 46.520914371658264 ], [ 6.616447467198208, 46.520543139821918 ], [ 6.617398356396768, 46.519844166898871 ], [ 6.617623156051785, 46.519690062672268 ], [ 6.617875004243752, 46.519531124894243 ], [ 6.618161737061994, 46.519366222578121 ], [ 6.618450057535439, 46.51921681330483 ], [ 6.618727209201438, 46.519090523510236 ], [ 6.618883120558318, 46.51902714828951 ], [ 6.619042489785475, 46.518967756120738 ], [ 6.61920479459529, 46.518912415185241 ], [ 6.619411787166183, 46.518849228296226 ], [ 6.619622590275961, 46.51879254573096 ], [ 6.619793920512203, 46.518752130666272 ], [ 6.620087372898026, 46.518693605860193 ], [ 6.620862226430828, 46.518565872278742 ], [ 6.621261250656286, 46.518489042749742 ], [ 6.623724989832772, 46.517923291045143 ], [ 6.62390054502569, 46.517883170060017 ], [ 6.624076099958311, 46.517843048803456 ], [ 6.624392163332336, 46.51777083032529 ], [ 6.624912612518904, 46.51765196622258 ], [ 6.625500791519225, 46.517517914091378 ], [ 6.625676071664333, 46.51747770744371 ], [ 6.625851770137405, 46.517437395571648 ], [ 6.626100563095037, 46.517384031932735 ], [ 6.626378381702706, 46.517332944693671 ], [ 6.626564048166511, 46.517300448730637 ], [ 6.626841863206008, 46.517249540259961 ], [ 6.627090781789131, 46.517196364281581 ], [ 6.627309029325965, 46.517146287950325 ], [ 6.627627059956548, 46.517073534833678 ], [ 6.627948282959607, 46.517004222158782 ], [ 6.628220831910248, 46.516956691210588 ], [ 6.629085447331478, 46.516831954040065 ], [ 6.629998509736817, 46.516700223884641 ], [ 6.630737055552688, 46.516591775916666 ], [ 6.630906026400511, 46.516559963627429 ], [ 6.631081274845229, 46.516519649504708 ], [ 6.63125281769794, 46.516472651639724 ], [ 6.631420290066559, 46.516418967453014 ], [ 6.631576217844575, 46.51636169241339 ], [ 6.631703478565785, 46.516306021447065 ], [ 6.63180288735861, 46.516258464612292 ], [ 6.631896867722419, 46.516207900378639 ], [ 6.632004591807664, 46.516141015959747 ], [ 6.632207698265121, 46.515995913982252 ] ], [ [ 6.661802236619645, 46.510371192180294 ], [ 6.660274359361511, 46.510748671305691 ], [ 6.659771787147661, 46.510865948068208 ], [ 6.659656539773739, 46.510889292970383 ], [ 6.659436995547533, 46.510933781658686 ], [ 6.659325524450574, 46.510956369514425 ], [ 6.658960212213813, 46.511016300368077 ], [ 6.658565649618114, 46.511076037871511 ], [ 6.658201065813883, 46.5111242044715 ], [ 6.657642789497674, 46.511183243946121 ], [ 6.657130534083452, 46.511222446646954 ], [ 6.656616525426775, 46.511247682078093 ], [ 6.656101274387341, 46.511258791808771 ], [ 6.655524796690448, 46.511254489048852 ], [ 6.654195817669743, 46.511210931239177 ], [ 6.654046720887185, 46.511206040629951 ], [ 6.652708718881583, 46.511162160088745 ], [ 6.652336592123508, 46.511152473963392 ], [ 6.65197713565034, 46.511148712938869 ], [ 6.651609105616609, 46.511152996730893 ], [ 6.65114380074246, 46.511171087623914 ], [ 6.650746125682822, 46.511197823855071 ], [ 6.65028434967275, 46.511241934354587 ], [ 6.649898859689469, 46.511289902055189 ], [ 6.649491670606336, 46.511352381053932 ], [ 6.649120885054741, 46.511420320728845 ], [ 6.648754121770006, 46.51149828183442 ], [ 6.648497055696183, 46.511559463701019 ], [ 6.648213099809658, 46.511632782201687 ], [ 6.646800999675857, 46.512025848175909 ], [ 6.646333090457503, 46.512149874859489 ], [ 6.646053113714328, 46.512217998079201 ], [ 6.645770854374731, 46.512281786546801 ], [ 6.645200520208925, 46.512396177459664 ], [ 6.644840487660975, 46.512458609901088 ], [ 6.644478081835072, 46.512514007659085 ], [ 6.644113563577982, 46.512562363541285 ], [ 6.643820538202847, 46.512595934953424 ], [ 6.643452947965162, 46.512631591738995 ], [ 6.64315733526697, 46.512654977751239 ], [ 6.642311838093814, 46.512704991366675 ], [ 6.639382914503702, 46.512860128435385 ], [ 6.638835219725339, 46.512897046932899 ], [ 6.638477682932161, 46.512930977319712 ], [ 6.638096182869829, 46.512979850857654 ], [ 6.637712538056303, 46.513043272615768 ], [ 6.637388024413196, 46.513108478211763 ], [ 6.637120894588052, 46.513170292057588 ], [ 6.636909775379539, 46.513224674609262 ], [ 6.636649239337427, 46.513298687655677 ], [ 6.636443710522981, 46.513362644713276 ], [ 6.63624111519576, 46.513430850309121 ], [ 6.63600643730496, 46.513514022897731 ], [ 6.635381901442852, 46.513762526476683 ], [ 6.634993019306218, 46.513932226635056 ], [ 6.634837224201832, 46.514007589348331 ], [ 6.634688166485809, 46.514085518505112 ], [ 6.634551364002027, 46.514162994581923 ], [ 6.634401050327144, 46.514255218224825 ], [ 6.634245892962119, 46.514357662849491 ], [ 6.63404797466337, 46.514496417986727 ], [ 6.633890232284834, 46.514614856813971 ], [ 6.633691820350045, 46.514777888251061 ], [ 6.633633342685224, 46.514828301086396 ], [ 6.633452993965161, 46.514977075580759 ], [ 6.633277699722786, 46.51511014254708 ], [ 6.633232381975267, 46.515143106265349 ], [ 6.633104734583135, 46.515237261389331 ], [ 6.632978120569961, 46.515328499987206 ], [ 6.632942155418361, 46.515354693000987 ], [ 6.632815182642299, 46.51544723330359 ], [ 6.632705462126458, 46.515550295511737 ], [ 6.632672423799614, 46.515581187197334 ], [ 6.632563078879575, 46.515685241508457 ], [ 6.632453430714919, 46.515786882612787 ], [ 6.632420456309758, 46.515817837653636 ], [ 6.632312907998374, 46.515914077911319 ], [ 6.632207698265121, 46.515995913982252 ] ] ] } },
{ "type": "Feature", "properties": { "CADRE_NO": "150", "DDT_URL": null, "ETC_NOM": "Chemins de fer fédéraux", "ETC_SIGLE": "CFF", "ETC_URL": "https://www.cff.ch", "HORAIR_URL": "https://www.tableaux-horaires.ch/fileadmin/fap_pdf_fields/2025/150.pdf", "LIGNE_NOM": "Genève-Aéroport - Genève - Nyon - Morges - Lausanne (GL)", "LIGNE_SIGL": null, "LIGNE_TYPE": "International/National", "PLAN_URL": "https://prestations.vd.ch/pub/101587/api/download/2_Cartographie_et_geodonnees/2.1_Carte_des_reseaux/Carte_des_lignes_TP/topo/ligne_GL-150.pdf", "SHAPE_LEN": 69673.537 }, "geometry": { "type": "MultiLineString", "coordinates": [ [ [ 6.588857184677416, 46.532367819239418 ], [ 6.589127415809246, 46.532226156538016 ], [ 6.589402699617074, 46.532077253154149 ], [ 6.589699713517993, 46.531906642112745 ], [ 6.589841664273359, 46.531823752201717 ], [ 6.590138546334349, 46.531653058080501 ], [ 6.590413966400821, 46.531504243264976 ], [ 6.591227090512195, 46.531080295030463 ], [ 6.591622908834239, 46.530874027569517 ], [ 6.592040928509846, 46.530666538994197 ], [ 6.592464848596131, 46.530464949378448 ], [ 6.592613345865836, 46.530396336740097 ], [ 6.593232495042953, 46.530121442003832 ], [ 6.593727668642465, 46.529913892394966 ], [ 6.594186609475074, 46.52973090928964 ], [ 6.594833395823875, 46.529488147835238 ], [ 6.59571139842998, 46.529180799274968 ], [ 6.596852970130803, 46.528788218340736 ], [ 6.597489560223737, 46.528569295945864 ], [ 6.598111854419252, 46.52835573375571 ], [ 6.598334136142595, 46.52827553353108 ], [ 6.598599267338273, 46.528179807969103 ], [ 6.59891918757539, 46.528061799093827 ], [ 6.599224592295678, 46.52794760424559 ], [ 6.599514696765261, 46.527837406655088 ], [ 6.599751934717064, 46.527749820533465 ], [ 6.600343119513906, 46.527538238274772 ], [ 6.60108726601111, 46.527283800225717 ], [ 6.601717625150513, 46.52707106967727 ], [ 6.602369467004986, 46.52685109021003 ], [ 6.602682899666276, 46.526745302718652 ], [ 6.602982075838134, 46.526644330240892 ], [ 6.603582872434128, 46.526441717230419 ], [ 6.604014094221814, 46.526298280628069 ], [ 6.604512080152406, 46.526136603368307 ], [ 6.605078801583582, 46.525953865290624 ], [ 6.605542405823539, 46.525802699293322 ], [ 6.607990509485765, 46.524961476038932 ], [ 6.610289888898129, 46.524170662434514 ], [ 6.610886605699538, 46.523954244341837 ], [ 6.611289687129591, 46.52379471495076 ], [ 6.611685212515318, 46.52362630389586 ], [ 6.612072527126738, 46.523449204400812 ], [ 6.612451368989567, 46.523263495607296 ], [ 6.612830280085186, 46.523064552810894 ], [ 6.613173525842408, 46.522871025810424 ], [ 6.6135000179417, 46.522673489623564 ], [ 6.613816459587672, 46.522468250752603 ], [ 6.61406921959897, 46.522293845603379 ], [ 6.614362275332652, 46.522082677761176 ], [ 6.615944763921938, 46.520914371658264 ], [ 6.616447467198208, 46.520543139821918 ], [ 6.617398356396768, 46.519844166898871 ], [ 6.617623156051785, 46.519690062672268 ], [ 6.617875004243752, 46.519531124894243 ], [ 6.618161737061994, 46.519366222578121 ], [ 6.618450057535439, 46.51921681330483 ], [ 6.618727209201438, 46.519090523510236 ], [ 6.618883120558318, 46.51902714828951 ], [ 6.619042489785475, 46.518967756120738 ], [ 6.61920479459529, 46.518912415185241 ], [ 6.619411787166183, 46.518849228296226 ], [ 6.619622590275961, 46.51879254573096 ], [ 6.619793920512203, 46.518752130666272 ], [ 6.620087372898026, 46.518693605860193 ], [ 6.620862226430828, 46.518565872278742 ], [ 6.621261250656286, 46.518489042749742 ], [ 6.623724989832772, 46.517923291045143 ], [ 6.62390054502569, 46.517883170060017 ], [ 6.624076099958311, 46.517843048803456 ], [ 6.624392163332336, 46.51777083032529 ], [ 6.624912612518904, 46.51765196622258 ], [ 6.625500791519225, 46.517517914091378 ], [ 6.625676071664333, 46.51747770744371 ], [ 6.625851770137405, 46.517437395571648 ], [ 6.626100563095037, 46.517384031932735 ], [ 6.626378381702706, 46.517332944693671 ], [ 6.626564048166511, 46.517300448730637 ], [ 6.626841863206008, 46.517249540259961 ], [ 6.627090781789131, 46.517196364281581 ], [ 6.627309029325965, 46.517146287950325 ], [ 6.627627059956548, 46.517073534833678 ], [ 6.627948282959607, 46.517004222158782 ], [ 6.628220831910248, 46.516956691210588 ], [ 6.629085447331478, 46.516831954040065 ] ] ] } }
]
}
