{
"type": "FeatureCollection",
"name": "1907_tram",
"crs": { "type": "name", "properties": { "name": "urn:ogc:def:crs:OGC:1.3:CRS84" } },
"features": [
{ "type": "Feature", "properties": { "id": 1 }, "geometry": { "type": "MultiLineString", "coordinates": [ [ [ 6.626237400328389, 46.516621701234243 ], [ 6.626882984614904, 46.517299901792569 ], [ 6.627001453345706, 46.517379026555354 ], [ 6.627119922076509, 46.51741978775182 ], [ 6.627370797035855, 46.517458151202916 ], [ 6.627762865562761, 46.517487020495373 ], [ 6.628463754994769, 46.517543762260573 ], [ 6.629487554505344, 46.517382623132747 ], [ 6.630958096796918, 46.517217496301448 ], [ 6.633483870142957, 46.517018898671544 ], [ 6.637359376414063, 46.51676355779513 ], [ 6.637553080170438, 46.516798218529445 ], [ 6.637973183988479, 46.517777901135332 ], [ 6.637937898111376, 46.517868809516457 ], [ 6.634404978906828, 46.519283731809288 ], [ 6.632303286519477, 46.519612010202088 ], [ 6.632059128017279, 46.519796817576662 ], [ 6.630423266052548, 46.521342454641371 ], [ 6.629764038096611, 46.522014457041891 ], [ 6.629748011494385, 46.52203519606342 ], [ 6.629717523218074, 46.522089140076318 ], [ 6.629709683375594, 46.522112515798618 ], [ 6.629708812281986, 46.52212270521288 ], [ 6.629711425562813, 46.522137090265055 ], [ 6.629719265405294, 46.522149677182583 ], [ 6.629731460715814, 46.52216226409719 ], [ 6.629764038096611, 46.522182456343295 ], [ 6.629791348401422, 46.522193731370969 ] ] ] } },
{ "type": "Feature", "properties": { "id": 2 }, "geometry": { "type": "MultiLineString", "coordinates": [ [ [ 6.637937138993682, 46.517868847677676 ], [ 6.641100379165983, 46.516650072576049 ], [ 6.642720681786574, 46.515964713004145 ], [ 6.643593254419688, 46.515697839913081 ], [ 6.644133418430664, 46.515592996554446 ], [ 6.644493527771316, 46.51557393410387 ], [ 6.644950589626756, 46.515583465329996 ], [ 6.645449202559965, 46.51568830870702 ], [ 6.646100169444987, 46.515831276622443 ], [ 6.646367606457508, 46.515870840790868 ], [ 6.64648797950415, 46.51587893251066 ], [ 6.646604543919113, 46.515875636360441 ], [ 6.64711124567066, 46.515821745439787 ], [ 6.647651409681636, 46.515755027114359 ], [ 6.648454730518472, 46.515678777499289 ], [ 6.649050295966472, 46.51557393410387 ], [ 6.649258051355308, 46.515507215474194 ], [ 6.649465806744145, 46.515402371747783 ], [ 6.650338379377259, 46.514971080654774 ], [ 6.650746964975305, 46.51476377377324 ], [ 6.651152087983537, 46.514577911758828 ], [ 6.651363305962186, 46.514513574759583 ], [ 6.651764966380605, 46.514463534818624 ], [ 6.652284354852697, 46.514451620540171 ], [ 6.652834906633115, 46.514461151963147 ], [ 6.65314653971637, 46.514461151963147 ], [ 6.653381995823718, 46.514434940545954 ], [ 6.653586288622742, 46.51438490053259 ], [ 6.653717867035672, 46.514342009055888 ], [ 6.653915234655065, 46.514241928811927 ], [ 6.654022574939297, 46.514175208546902 ], [ 6.654133377813344, 46.51404415064497 ], [ 6.654320357663297, 46.513858286169373 ], [ 6.654500412333622, 46.513567573791832 ], [ 6.654742793620598, 46.513291157302064 ], [ 6.654995562677017, 46.513071929431177 ], [ 6.655293345401017, 46.512814573845645 ], [ 6.65577810797497, 46.51245475056718 ], [ 6.655958162645295, 46.512352283899773 ], [ 6.656096666237854, 46.512285561314819 ], [ 6.656245557599854, 46.512266497704076 ], [ 6.656463700758133, 46.512271263607381 ], [ 6.65727740936441, 46.512340369158473 ], [ 6.657814110785573, 46.512440452904265 ], [ 6.658288485590082, 46.512492877649926 ], [ 6.658693608598315, 46.512480962939442 ], [ 6.659240697788918, 46.512402325784741 ], [ 6.659573106411057, 46.512323688516261 ], [ 6.65997822941929, 46.512166413637949 ], [ 6.660182522218312, 46.512073478268654 ], [ 6.660473379762684, 46.511925734533911 ], [ 6.66078501284594, 46.511770841477542 ], [ 6.66146021785966, 46.511411011288828 ], [ 6.662000381870636, 46.511153647838249 ], [ 6.662374341570541, 46.510960624450561 ] ] ] } },
{ "type": "Feature", "properties": { "id": null }, "geometry": { "type": "MultiLineString", "coordinates": [ [ [ 6.63442875950007, 46.519274365795646 ], [ 6.636833199388755, 46.51901902735888 ], [ 6.636909272052682, 46.519019041149249 ], [ 6.637034709532355, 46.519032228200494 ], [ 6.637183644104759, 46.519061582488504 ], [ 6.637252482934566, 46.519093368123521 ], [ 6.637299521989443, 46.519137724495195 ], [ 6.637334365733798, 46.519204858394275 ], [ 6.637348559265232, 46.519260172652743 ], [ 6.637369173660291, 46.519331097535492 ], [ 6.637376178227022, 46.51939307263337 ], [ 6.637367467290933, 46.519438627574132 ], [ 6.637330881359362, 46.51948418247671 ], [ 6.637290811053354, 46.519514152786513 ], [ 6.637096089115077, 46.519596803060395 ], [ 6.63702251422183, 46.519648419571539 ], [ 6.63696327985643, 46.519705962377827 ], [ 6.63691565696899, 46.519756644887835 ], [ 6.636904045491028, 46.519780288412434 ], [ 6.636907529865464, 46.519813854975382 ], [ 6.636935404860947, 46.519919349752499 ], [ 6.637064326715056, 46.52020226655263 ], [ 6.637207186066906, 46.520489977041926 ], [ 6.637357014167627, 46.520715349194425 ], [ 6.637433670405206, 46.520808854387546 ], [ 6.637503357893912, 46.52089276916746 ], [ 6.637593951629232, 46.52096709357857 ], [ 6.637663639117941, 46.521017442315419 ], [ 6.637778623474308, 46.521062995894269 ], [ 6.638506857731301, 46.52119486130195 ], [ 6.638708951448552, 46.52124520982774 ], [ 6.638876201421449, 46.521317136212211 ], [ 6.638959826407898, 46.521386664960012 ], [ 6.63901209202443, 46.52145859115722 ], [ 6.639032998271042, 46.521580865473943 ], [ 6.639029513896606, 46.521703139515466 ], [ 6.638915253289722, 46.521898515955222 ] ] ] } },
{ "type": "Feature", "properties": { "id": null }, "geometry": { "type": "MultiLineString", "coordinates": [ [ [ 6.638916925047667, 46.521896889363354 ], [ 6.638889050052185, 46.521925659583488 ], [ 6.63884026881009, 46.521954429788373 ], [ 6.6387427063259, 46.522011970152448 ], [ 6.638441122203362, 46.522153832701562 ], [ 6.638355940763573, 46.522201373420387 ], [ 6.638296706398171, 46.522266106031452 ], [ 6.638251409530512, 46.522323646065423 ], [ 6.638234978252772, 46.522394964082515 ], [ 6.638255592647831, 46.522891407673427 ], [ 6.638358664623127, 46.523373662817903 ], [ 6.638276207042889, 46.523699891811738 ], [ 6.637369173660291, 46.525189173202634 ], [ 6.637275911335811, 46.525314572123271 ], [ 6.637107839977669, 46.525399185822607 ], [ 6.636845484686911, 46.525483799390145 ], [ 6.636544597857927, 46.525543757992352 ], [ 6.635452034919797, 46.525600491343916 ], [ 6.634606844722375, 46.525557941335798 ], [ 6.63402964166072, 46.525387740970018 ], [ 6.633431824204007, 46.525075705581109 ], [ 6.632978307512707, 46.52473530129452 ], [ 6.632607248401643, 46.524238874553056 ], [ 6.631638371833867, 46.52286303959044 ], [ 6.631329155907981, 46.522593542063248 ], [ 6.630793181636444, 46.522423332409915 ], [ 6.629741847488432, 46.52218220115487 ], [ 6.629622574014713, 46.522154472198011 ], [ 6.629597312300053, 46.522150276559529 ], [ 6.629562468555702, 46.522145481543724 ], [ 6.629524140436909, 46.522144282789711 ], [ 6.629486683411733, 46.522143084035669 ], [ 6.629446632043752, 46.522148856524574 ], [ 6.628518829735397, 46.522468053963429 ], [ 6.627857670232562, 46.522693955117298 ], [ 6.626727618727457, 46.523098207496993 ], [ 6.626150683767007, 46.523298511615707 ], [ 6.625483768124651, 46.523502456868684 ], [ 6.625070915584145, 46.523575294273499 ], [ 6.624583961305598, 46.523629922263019 ], [ 6.62417640174638, 46.523655415305996 ] ] ] } },
{ "type": "Feature", "properties": { "id": null }, "geometry": { "type": "MultiLineString", "coordinates": [ ] } },
{ "type": "Feature", "properties": { "id": null }, "geometry": { "type": "MultiLineString", "coordinates": [ [ [ 6.629402187331672, 46.522163462850806 ], [ 6.629446632043752, 46.522132056607411 ], [ 6.630252355101009, 46.521510456020742 ] ] ] } },
{ "type": "Feature", "properties": { "id": null }, "geometry": { "type": "MultiLineString", "coordinates": [ ] } },
{ "type": "Feature", "properties": { "id": null }, "geometry": { "type": "MultiLineString", "coordinates": [ ] } },
{ "type": "Feature", "properties": { "id": null }, "geometry": { "type": "MultiLineString", "coordinates": [ [ [ 6.655199995819052, 46.541103805386292 ], [ 6.653581379674325, 46.540778478008725 ], [ 6.653139938907581, 46.540698953242156 ], [ 6.652961260501995, 46.54064834651188 ], [ 6.652803603085299, 46.5405688215547 ], [ 6.652299099351878, 46.54017842462099 ], [ 6.651910211057365, 46.539903699170111 ], [ 6.651657959190655, 46.53969403933818 ], [ 6.651174476446125, 46.539144582144573 ], [ 6.650606909746028, 46.53850836160553 ], [ 6.649776580684772, 46.537525097018495 ], [ 6.649555860301401, 46.537214208186967 ], [ 6.649324629423583, 46.536932237707461 ], [ 6.649135440523549, 46.536794866943438 ], [ 6.648746552229036, 46.536498434110698 ], [ 6.64839970591231, 46.536238150289179 ], [ 6.648136943551153, 46.536035706454342 ], [ 6.64794775465112, 46.53585495239264 ], [ 6.647779586739977, 46.535609125903179 ], [ 6.647579887345499, 46.535124699857974 ], [ 6.647422229928804, 46.534676421160526 ], [ 6.647254062017663, 46.534264290706084 ], [ 6.647233041028771, 46.534126913192907 ], [ 6.647233041028771, 46.533946152777688 ], [ 6.647275083006558, 46.533562938707597 ], [ 6.647275083006558, 46.533374945910985 ], [ 6.647233041028771, 46.533266488232307 ], [ 6.647169978062093, 46.533092955495896 ], [ 6.646770579273135, 46.532297590025912 ], [ 6.646213523067482, 46.531162366405539 ], [ 6.646055865650788, 46.530952672822046 ], [ 6.64594025021188, 46.530829748620839 ], [ 6.645278089061763, 46.530374203566936 ], [ 6.644100913683779, 46.529651108334079 ], [ 6.643028843250259, 46.528891847978919 ], [ 6.642272087650126, 46.528385668512492 ], [ 6.641935751827846, 46.528110883398199 ], [ 6.641683499961134, 46.527742090665278 ], [ 6.641483800566656, 46.52735160151304 ], [ 6.641168485733268, 46.526288589043283 ], [ 6.640968786338789, 46.525464197704302 ], [ 6.640724618591345, 46.52482167353152 ], [ 6.640532378619092, 46.524185126003182 ], [ 6.640532378619092, 46.524028054686568 ], [ 6.640544393617358, 46.523895783751911 ], [ 6.640640513603485, 46.523713910690908 ], [ 6.640832753575737, 46.523474167998387 ], [ 6.640892828567066, 46.523160020799864 ], [ 6.64096491855666, 46.522697063722575 ], [ 6.640940888560129, 46.522002620709571 ], [ 6.640922400308624, 46.521843994075169 ], [ 6.640894525313141, 46.521786453533196 ], [ 6.640856197194352, 46.521745695612431 ], [ 6.640748648587876, 46.521680197721928 ], [ 6.640678494098148, 46.521647396971844 ], [ 6.640592453610421, 46.521622326726735 ], [ 6.640507759750815, 46.521613831541643 ], [ 6.640399744143318, 46.521628216728551 ], [ 6.640256033658979, 46.521688465001915 ], [ 6.640159913672853, 46.521812474050897 ], [ 6.639835508719677, 46.522101827397741 ], [ 6.639735099719772, 46.522163462850784 ], [ 6.639619238750891, 46.522209301105498 ], [ 6.639529521628085, 46.522225798002609 ], [ 6.639489451322079, 46.522231791763431 ], [ 6.639445896641635, 46.522232990515526 ], [ 6.639346591970227, 46.52223119238738 ], [ 6.639182826371765, 46.522219204864925 ], [ 6.638935435786855, 46.522206018587177 ], [ 6.638790834247786, 46.522202422329052 ], [ 6.638613131151582, 46.522196428564989 ], [ 6.63847201398695, 46.522194031059165 ], [ 6.63840406868546, 46.522197627317844 ], [ 6.638377935877195, 46.522202422329052 ], [ 6.638357029630582, 46.52220961484506 ], [ 6.638343092132841, 46.522215608607674 ] ] ] } },
{ "type": "Feature", "properties": { "id": null }, "geometry": { "type": "MultiLineString", "coordinates": [ [ [ 6.639030503835868, 46.521704999558139 ], [ 6.639030503835868, 46.521853810337653 ], [ 6.639040838113523, 46.521943491118535 ], [ 6.639060002172918, 46.521999832736981 ], [ 6.639093103730054, 46.522047783004524 ], [ 6.639147111533802, 46.52208494443277 ], [ 6.639318863794247, 46.52216796508921 ], [ 6.639444154454418, 46.522207816716154 ], [ 6.639501646632603, 46.522218605488739 ], [ 6.639550427874697, 46.522221002993462 ] ] ] } },
{ "type": "Feature", "properties": { "id": null }, "geometry": { "type": "MultiLineString", "coordinates": [ [ [ 6.640256884791468, 46.521686956202238 ], [ 6.640462462883154, 46.521479569613476 ], [ 6.640532378619092, 46.521440446054825 ], [ 6.640605322235005, 46.521405245903416 ], [ 6.641019962792814, 46.521311741736682 ], [ 6.641842013430064, 46.521208960682706 ], [ 6.642720681786572, 46.521087469171498 ], [ 6.643697132114106, 46.521039817851211 ], [ 6.644784385315686, 46.521154180949701 ], [ 6.645719284565452, 46.521387671528331 ], [ 6.646737285970753, 46.521740288051227 ], [ 6.647519831268704, 46.522178672969517 ], [ 6.647900716148238, 46.522455044252219 ], [ 6.649354914724875, 46.523555184404749 ], [ 6.649555624599405, 46.523741318456892 ], [ 6.649712701892515, 46.523987494772165 ], [ 6.649930864799613, 46.52488813032182 ], [ 6.650044309511305, 46.525344446634548 ], [ 6.650157754222994, 46.525560595129058 ], [ 6.650349737581241, 46.525782746852208 ], [ 6.650838422493139, 46.526275079865748 ], [ 6.651126397530509, 46.526539256716433 ], [ 6.651231115725915, 46.526587288733062 ], [ 6.651353286953889, 46.526599296730588 ], [ 6.651484184698147, 46.526593292732151 ], [ 6.651632535474975, 46.526557268727643 ], [ 6.651728527154098, 46.526491224657313 ], [ 6.651798339284369, 46.526407168451676 ], [ 6.651815792316937, 46.52629909599618 ], [ 6.651981596126332, 46.525584611575354 ], [ 6.652095040838021, 46.525374467310215 ], [ 6.65222593858228, 46.52516432223215 ], [ 6.652452828005662, 46.524990201408791 ], [ 6.652723350010463, 46.524894134508713 ], [ 6.653072410661819, 46.524780054844236 ], [ 6.653238214471214, 46.524726017024811 ], [ 6.65338656524804, 46.524617941224705 ], [ 6.654128319132172, 46.524047537606684 ], [ 6.654843893467452, 46.523447106275377 ], [ 6.655123141988536, 46.523260971215201 ], [ 6.655437296574758, 46.523140883741156 ], [ 6.65589107542152, 46.523062826740691 ], [ 6.657086608152416, 46.522804637401691 ], [ 6.658142516622768, 46.522522429046212 ], [ 6.658543936371827, 46.522480397889126 ], [ 6.659913999428401, 46.522456380070466 ], [ 6.660271786596041, 46.522450375614149 ], [ 6.660620847247397, 46.522372317621581 ], [ 6.660978634415038, 46.522240219224813 ], [ 6.661894918624848, 46.521861935675432 ] ] ] } },
{ "type": "Feature", "properties": { "id": null }, "geometry": { "type": "MultiLineString", "coordinates": [ [ [ 6.628463148421345, 46.517544468868856 ], [ 6.622805519592743, 46.519887777987087 ], [ 6.622593800341186, 46.520004325541734 ], [ 6.622551456490874, 46.52004803081028 ], [ 6.622562042453453, 46.520128157044624 ], [ 6.622572628416031, 46.520200998973316 ], [ 6.622636144191498, 46.520397671692976 ], [ 6.622805519592743, 46.520703605619651 ], [ 6.623080754619766, 46.521162503279719 ], [ 6.623821772000213, 46.52227695288903 ], [ 6.624562789380661, 46.523289406898996 ], [ 6.624583961305818, 46.523369528353122 ], [ 6.624583961305818, 46.523427798427356 ], [ 6.624562789380661, 46.523478784691051 ], [ 6.62452044553035, 46.523515203421532 ], [ 6.624435757829728, 46.523566189603194 ], [ 6.624319312241371, 46.523617175737002 ], [ 6.624213452615594, 46.523653594374707 ], [ 6.623832357962791, 46.523675445545628 ], [ 6.622519698603139, 46.523777417560318 ], [ 6.621609305821446, 46.523908524155111 ], [ 6.621291726944111, 46.524010495732298 ], [ 6.620931804216465, 46.524170736395476 ], [ 6.620508365713352, 46.524330976586 ], [ 6.617332576940003, 46.525904218810012 ], [ 6.616972654212355, 46.526049887081662 ], [ 6.616676247260177, 46.526151854639394 ], [ 6.616358668382841, 46.526195554962705 ], [ 6.615998745655197, 46.526224688492029 ], [ 6.615067180948347, 46.526253822005735 ], [ 6.61180762084682, 46.52629190705764 ], [ 6.61049923824634, 46.526324270935838 ], [ 6.610283207031346, 46.526333860229371 ], [ 6.609955675834422, 46.526367422743434 ], [ 6.60937726967815, 46.526434547709329 ], [ 6.608812801019619, 46.526458520891332 ], [ 6.608394676087375, 46.526477699429321 ], [ 6.60816470737464, 46.526511261854495 ], [ 6.608004426150613, 46.526568797392287 ], [ 6.604471270473145, 46.527896892450499 ], [ 6.602540927035949, 46.528640036166529 ], [ 6.60152348970082, 46.529009207006794 ], [ 6.600352739890535, 46.529373580960119 ], [ 6.59899383386074, 46.529805073269905 ], [ 6.597168021656604, 46.530389979594908 ], [ 6.596457209271787, 46.530605722141033 ], [ 6.595669740649393, 46.530787904068163 ], [ 6.595404928192305, 46.530845435076088 ], [ 6.594450209597013, 46.531209796711153 ], [ 6.594157522144442, 46.531353622999482 ], [ 6.593857865943, 46.531521419854492 ], [ 6.590749803946647, 46.533544529699348 ] ] ] } },
{ "type": "Feature", "properties": { "id": null }, "geometry": { "type": "MultiLineString", "coordinates": [ [ [ 6.629044941271501, 46.522270237227772 ], [ 6.629242293358065, 46.522188761631213 ], [ 6.629340969401346, 46.522093706614129 ], [ 6.629360704610002, 46.522052968698752 ], [ 6.629360704610002, 46.521985072105252 ] ] ] } },
{ "type": "Feature", "properties": { "id": null }, "geometry": { "type": "MultiLineString", "coordinates": [ [ [ 6.634082035209834, 46.525402038445165 ], [ 6.634103190643401, 46.525416594077811 ], [ 6.634116889896186, 46.525434111725637 ], [ 6.634136625104842, 46.525502004008715 ], [ 6.634136625104842, 46.525569896206946 ], [ 6.634077419478873, 46.525814307418017 ], [ 6.633722185723058, 46.526724050594751 ], [ 6.633682715305746, 46.526805519389669 ], [ 6.633643244888433, 46.526873409958768 ], [ 6.633307746341275, 46.52726717358631 ], [ 6.633212041437433, 46.527337138897927 ], [ 6.632949279076277, 46.52764085300646 ], [ 6.632549880287319, 46.528262738501617 ], [ 6.632108439520573, 46.528935234570845 ], [ 6.632034866059449, 46.52922447763131 ], [ 6.63191925062054, 46.529672801331124 ], [ 6.631603935787152, 46.530359741756612 ], [ 6.631288620953763, 46.530865902826541 ], [ 6.63101534809816, 46.53114067400341 ], [ 6.630300634475812, 46.531769750147575 ], [ 6.629848683214623, 46.532124054193588 ], [ 6.629575410359019, 46.532391588370224 ], [ 6.629501836897895, 46.53252897027312 ], [ 6.629465050167333, 46.5326518906285 ], [ 6.629480815909003, 46.532800117745857 ], [ 6.629522857886788, 46.532901345788638 ], [ 6.629606941842359, 46.53300257364274 ], [ 6.629706791539598, 46.533060418046091 ], [ 6.62982766222573, 46.533121877657138 ], [ 6.629959043406308, 46.533161645603698 ], [ 6.63017976378968, 46.533190567728354 ], [ 6.63034793170082, 46.533190567728354 ], [ 6.630489823375846, 46.53317249140224 ], [ 6.630652736039763, 46.533107416578432 ], [ 6.630994327109267, 46.532951959739272 ], [ 6.631398981145448, 46.532810963616605 ], [ 6.631645977764935, 46.532713350701862 ], [ 6.631935016362209, 46.532608507005428 ], [ 6.632113694767796, 46.532550662120755 ], [ 6.632245075948374, 46.532532585581663 ], [ 6.632355436140061, 46.532521739655316 ], [ 6.632471051578969, 46.532525354964342 ], [ 6.632618198501216, 46.532532585581663 ], [ 6.632770600670688, 46.532572353959722 ], [ 6.633028107784622, 46.532680813024633 ], [ 6.633159488965201, 46.532785656581488 ], [ 6.633264593909663, 46.532894115220415 ], [ 6.633343422618011, 46.533035111127198 ], [ 6.63337495410135, 46.533139954000085 ], [ 6.633385464595796, 46.53345809665128 ], [ 6.633338167370788, 46.534072685131513 ], [ 6.633311891134673, 46.534676421160512 ], [ 6.633285614898557, 46.535421140189762 ], [ 6.633301380640226, 46.536010400921924 ], [ 6.633353933112459, 46.536393597721521 ], [ 6.633553632506938, 46.537040688065161 ], [ 6.633727055665301, 46.537716690411919 ], [ 6.633753331901416, 46.538110719983003 ], [ 6.633742821406971, 46.538370994828774 ], [ 6.633695524181962, 46.538685491936221 ], [ 6.633595674484722, 46.539101203708256 ], [ 6.633527356270822, 46.539426541135818 ], [ 6.633301380640226, 46.540319401615299 ], [ 6.633101681245747, 46.541248394706152 ], [ 6.632959789570722, 46.541624325135736 ], [ 6.632849429379037, 46.541848436268779 ], [ 6.632649729984556, 46.542137610557376 ], [ 6.632591922265101, 46.54231834370561 ], [ 6.632597177512325, 46.542506305541536 ], [ 6.632702282456788, 46.543052114107383 ], [ 6.632665495726226, 46.543301521492978 ], [ 6.632518348803977, 46.543597917185949 ], [ 6.632329159903944, 46.543822020172179 ], [ 6.632271352184489, 46.54401720589032 ], [ 6.632313394162274, 46.544248536203085 ], [ 6.632355436140059, 46.544490709068121 ], [ 6.632344925645612, 46.544656976379841 ], [ 6.632297628420605, 46.544794327253257 ], [ 6.632134715756687, 46.545014810823389 ], [ 6.631940271609431, 46.545278667033529 ], [ 6.631824656170522, 46.545502763081558 ], [ 6.631798379934407, 46.545676256160817 ], [ 6.631824656170522, 46.545903964985897 ], [ 6.631982313587216, 46.546550941990745 ], [ 6.632050631801118, 46.546771418426317 ], [ 6.632061142295563, 46.547418385092499 ], [ 6.632008589823331, 46.547754515567966 ], [ 6.631840421912191, 46.548303885627462 ], [ 6.631666998753827, 46.549156843912115 ], [ 6.631630212023265, 46.549518262871047 ], [ 6.631688019742719, 46.549760412227172 ], [ 6.631808890428852, 46.550035087801028 ], [ 6.631908740126091, 46.55021579465734 ], [ 6.632229310206704, 46.550768753900364 ], [ 6.632602432759546, 46.551404830768007 ], [ 6.633059639267961, 46.552037286171384 ] ] ] } },
{ "type": "Feature", "properties": { "id": null }, "geometry": { "type": "MultiLineString", "coordinates": [ [ [ 6.634383980943475, 46.525492018657268 ], [ 6.63434167007634, 46.525492018657268 ], [ 6.634308975315372, 46.525495988369073 ], [ 6.634268587669471, 46.525509220739664 ], [ 6.634235301148123, 46.525542739337837 ], [ 6.634156360313497, 46.525597053062484 ], [ 6.634116653192035, 46.525654776603503 ] ] ] } },
{ "type": "Feature", "properties": { "id": null }, "geometry": { "type": "MultiLineString", "coordinates": [ [ [ 6.631734012617201, 46.522971020532957 ], [ 6.631725986068771, 46.523026248271272 ], [ 6.631669800229755, 46.523109089773477 ], [ 6.631501242712706, 46.523169840128134 ] ] ] } },
{ "type": "Feature", "properties": { "id": null }, "geometry": { "type": "MultiLineString", "coordinates": [ [ [ 6.631499067079429, 46.523168802815114 ], [ 6.631384857760459, 46.523211260785558 ], [ 6.631346584821338, 46.523243410497386 ], [ 6.631332685195658, 46.523280295144396 ], [ 6.631368804663596, 46.523354852153432 ], [ 6.631461109970552, 46.523490159056607 ], [ 6.631689866600833, 46.523771817243563 ], [ 6.631814278101512, 46.523940259187 ], [ 6.631826317924157, 46.524070041967526 ], [ 6.631814278101512, 46.524108700608174 ], [ 6.631794211730435, 46.524136313906084 ], [ 6.631762105536711, 46.524166688517575 ], [ 6.631721972794557, 46.524202585763803 ], [ 6.631176167501255, 46.524608499128234 ], [ 6.631047742726362, 46.524761751344442 ], [ 6.631031689629499, 46.524800409492876 ], [ 6.631039716177932, 46.524921906351672 ], [ 6.631031689629499, 46.525601179237626 ], [ 6.631071822371655, 46.526401937178491 ], [ 6.631200247146546, 46.527219250352317 ], [ 6.631168140952822, 46.527473277617503 ], [ 6.631103928565375, 46.527616857720162 ], [ 6.631071822371651, 46.527694169925944 ], [ 6.630960168002313, 46.527900274129415 ], [ 6.630728937124495, 46.528334146409435 ], [ 6.630282241110528, 46.529270575601764 ], [ 6.629945905288247, 46.529993675900634 ], [ 6.629635845702083, 46.530680612267894 ], [ 6.629467677790943, 46.530969846033869 ], [ 6.629367828093704, 46.531085539108993 ], [ 6.629136597215886, 46.531233770501323 ], [ 6.628101313512927, 46.531776077025789 ], [ 6.627255218710002, 46.532242456305937 ] ] ] } },
{ "type": "Feature", "properties": { "id": null }, "geometry": { "type": "MultiLineString", "coordinates": [ [ [ 6.614045640851333, 46.529497527754501 ], [ 6.614394034504058, 46.529109142663486 ], [ 6.614816623101347, 46.528791774498714 ], [ 6.615084370075201, 46.528612005694598 ], [ 6.615394053322068, 46.528427797537404 ], [ 6.615732769373329, 46.5282702213891 ], [ 6.616358668382841, 46.527972671658837 ], [ 6.617480780416092, 46.527433716180319 ], [ 6.618242969721696, 46.526953021647323 ], [ 6.618962815176989, 46.526326655721647 ], [ 6.619555629081347, 46.525889651961364 ], [ 6.620360162237263, 46.525336108818216 ], [ 6.621461102345356, 46.524753425731795 ], [ 6.622752589779852, 46.52408333245598 ], [ 6.623451263309989, 46.523748282718508 ], [ 6.623726498337013, 46.523675445545628 ], [ 6.623874701813102, 46.523675445545628 ] ] ] } },
{ "type": "Feature", "properties": { "id": null }, "geometry": { "type": "MultiLineString", "coordinates": [ ] } },
{ "type": "Feature", "properties": { "id": null }, "geometry": { "type": "MultiLineString", "coordinates": [ ] } },
{ "type": "Feature", "properties": { "id": null }, "geometry": { "type": "MultiLineString", "coordinates": [ [ [ 6.624565435871088, 46.523289406899053 ], [ 6.624626305155906, 46.523345856117665 ], [ 6.624782448103917, 46.523458754378929 ], [ 6.62482197713638, 46.523489268163345 ], [ 6.624872428785823, 46.523507919677442 ], [ 6.625015339280614, 46.523531591842328 ], [ 6.625121198906386, 46.523535233712927 ], [ 6.62524823045731, 46.523538875583306 ], [ 6.625309099742128, 46.52353341277766 ] ] ] } },
{ "type": "Feature", "properties": { "id": null }, "geometry": { "type": "MultiLineString", "coordinates": [ ] } },
{ "type": "Feature", "properties": { "id": null }, "geometry": { "type": "MultiLineString", "coordinates": [ ] } },
{ "type": "Feature", "properties": { "id": null }, "geometry": { "type": "MultiLineString", "coordinates": [ [ [ 6.607988746574617, 46.518667471087994 ], [ 6.608714895377918, 46.518073684542721 ], [ 6.608756831650931, 46.518078124146889 ], [ 6.608811671392563, 46.518078124146889 ], [ 6.608843930064111, 46.518071464740501 ], [ 6.608885866337125, 46.518053706319463 ], [ 6.608943931945913, 46.518007090436626 ], [ 6.609169742646754, 46.517856143493972 ], [ 6.609508871612952, 46.517640485735249 ], [ 6.610062104717288, 46.517209027460481 ], [ 6.610332574234964, 46.517065207274243 ], [ 6.610615337821627, 46.516921386707367 ], [ 6.611193159063933, 46.516760645623343 ], [ 6.613553620309104, 46.516168437526673 ], [ 6.61509360371282, 46.515724575715893 ], [ 6.615428103658616, 46.515628663977601 ], [ 6.615729670519496, 46.515576222976065 ], [ 6.616271322271976, 46.515566321256948 ], [ 6.616877603423732, 46.515542343268422 ], [ 6.617170290876303, 46.515518365269315 ], [ 6.617512310522359, 46.51546623956321 ], [ 6.61777048597105, 46.515415477912967 ], [ 6.617930308867858, 46.515373176501548 ], [ 6.618114719902637, 46.515297033878014 ], [ 6.618336013144371, 46.515203970526578 ], [ 6.618655658937989, 46.515068605367269 ], [ 6.619479361560001, 46.514687889048943 ], [ 6.619774419215646, 46.514552522604099 ], [ 6.619820521974342, 46.514548292397272 ], [ 6.619885065836514, 46.514550407500735 ], [ 6.619964977284918, 46.514569443428151 ], [ 6.62003874169883, 46.514615975667105 ], [ 6.62009713852651, 46.514709040025487 ], [ 6.620644224596352, 46.515504310769785 ], [ 6.620733356596495, 46.515620639291249 ], [ 6.620813268044899, 46.515686206166336 ], [ 6.620883958941565, 46.515724277218794 ], [ 6.620994605562433, 46.515770808468908 ], [ 6.6211052521833, 46.515779268691929 ], [ 6.622537511220083, 46.515855410639766 ], [ 6.622712701703123, 46.515861755797282 ], [ 6.622832568875729, 46.515904056828369 ], [ 6.62294936253109, 46.515961163168122 ], [ 6.623244420186738, 46.516223428550362 ], [ 6.623355066807605, 46.516339755532428 ], [ 6.623468786945718, 46.51641801172569 ], [ 6.623631683359773, 46.516498382833909 ], [ 6.623779212187596, 46.516540683369442 ], [ 6.623942108601652, 46.516580868847683 ], [ 6.624022020050055, 46.51659355899254 ], [ 6.624353959912657, 46.51661893927335 ], [ 6.624516856326713, 46.516637974476183 ], [ 6.624661311637288, 46.516654894650884 ], [ 6.624901045982503, 46.516676044861839 ], [ 6.625023986672354, 46.516676044861839 ], [ 6.625143853844961, 46.516661239715035 ], [ 6.625282162121046, 46.516631629409311 ], [ 6.625445058535099, 46.516580868847676 ], [ 6.625776998397702, 46.51646031232378 ], [ 6.625866130397845, 46.516445507118192 ], [ 6.625949115363495, 46.516445507118192 ], [ 6.626065909018855, 46.516479347582177 ], [ 6.626170408605231, 46.516557603574419 ], [ 6.626244173019142, 46.516625284341707 ] ] ] } },
{ "type": "Feature", "properties": { "id": null }, "geometry": { "type": "MultiLineString", "coordinates": [ [ [ 6.628143606677366, 46.505540377700839 ], [ 6.627651843917954, 46.505878849297844 ], [ 6.627584226538535, 46.505971928617562 ], [ 6.627571932469551, 46.506056546042622 ], [ 6.627627255779985, 46.506170779357539 ], [ 6.628002224884036, 46.506801173703678 ], [ 6.628008371918528, 46.50692386705537 ], [ 6.627965342677079, 46.506995790615548 ], [ 6.627860843090704, 46.507042329339072 ], [ 6.627701020193896, 46.507071944869658 ], [ 6.62754734433158, 46.507093098810202 ], [ 6.62743055067622, 46.507160791364605 ], [ 6.627375227365786, 46.507249637714331 ], [ 6.627326051089845, 46.507803866427118 ], [ 6.627356786262308, 46.5079900183148 ], [ 6.627424403641728, 46.50823116867597 ], [ 6.627756343504331, 46.508958843982583 ], [ 6.627916166401138, 46.509381906542998 ], [ 6.628063695228962, 46.509855732701361 ], [ 6.628217371091278, 46.510063030346764 ], [ 6.628580046126342, 46.51065530497717 ], [ 6.629342278403429, 46.511805991522785 ], [ 6.629870923369797, 46.512601304749779 ], [ 6.630295068749789, 46.513121636360857 ], [ 6.631149506544265, 46.513925390846822 ], [ 6.631678151510632, 46.51444147956559 ], [ 6.631678151510632, 46.51444147956559 ], [ 6.632000873609558, 46.514727883122028 ], [ 6.632126869848816, 46.514866071577337 ], [ 6.632142619378723, 46.514890457738858 ], [ 6.6321465567612, 46.514922972603863 ], [ 6.632138681996246, 46.51495006830983 ], [ 6.632118995083862, 46.514977164002296 ], [ 6.632099308171479, 46.514996130978979 ], [ 6.632067809111664, 46.515006969248397 ], [ 6.631996936227081, 46.515023226648481 ], [ 6.631300019528681, 46.515134318752175 ], [ 6.63070547477468, 46.515207476842768 ], [ 6.630061712739722, 46.515271151397009 ], [ 6.629829407173589, 46.515298246929383 ], [ 6.629557727782688, 46.515341599753079 ], [ 6.629305735304171, 46.515401209829186 ], [ 6.629061617590608, 46.515471658016644 ], [ 6.628333201832394, 46.515683002031047 ], [ 6.627203173061544, 46.515997306993874 ], [ 6.625777840604933, 46.516457923051682 ] ] ] } },
{ "type": "Feature", "properties": { "id": null }, "geometry": { "type": "MultiLineString", "coordinates": [ [ [ 6.613989188176124, 46.529576868938626 ], [ 6.613563373711681, 46.529916425703931 ], [ 6.613218205926111, 46.530187181864875 ], [ 6.612944007217947, 46.530355848954983 ], [ 6.612455288343985, 46.530589984639477 ], [ 6.611906890927658, 46.530953947111897 ], [ 6.611352041777021, 46.531419993058194 ], [ 6.610739127017595, 46.531868281099761 ], [ 6.609977822369046, 46.532307688559406 ], [ 6.608926189676558, 46.532929066777371 ], [ 6.608055205544744, 46.53334183552078 ], [ 6.607055186726735, 46.533679149583826 ], [ 6.605945488425462, 46.533989831735731 ], [ 6.605771291599099, 46.534069721144661 ], [ 6.605103537098043, 46.534520206445201 ], [ 6.604997083481931, 46.534621176775772 ] ] ] } }
]
}
