{
"type": "FeatureCollection",
"name": "1937_funiculaire",
"crs": { "type": "name", "properties": { "name": "urn:ogc:def:crs:OGC:1.3:CRS84" } },
"features": [
{ "type": "Feature", "properties": { "id": null }, "geometry": { "type": "MultiLineString", "coordinates": [ [ [ 6.62659762750247, 46.507204156862961 ], [ 6.626757450399279, 46.507809154841794 ], [ 6.626846582399422, 46.508067228853868 ], [ 6.627021772882463, 46.508615103227598 ], [ 6.627034066951448, 46.508722985175517 ], [ 6.627077096192896, 46.508972593567549 ], [ 6.627412109572746, 46.510148699040741 ], [ 6.627851622538969, 46.511513034116469 ], [ 6.628195856470558, 46.512625629306001 ], [ 6.628450958402003, 46.513355360930539 ], [ 6.628721427919677, 46.514214105016833 ], [ 6.62896116226489, 46.515136287989087 ], [ 6.629182455506625, 46.515830030002334 ], [ 6.629317690265464, 46.516282649590501 ] ] ] } },
{ "type": "Feature", "properties": { "id": null }, "geometry": { "type": "MultiLineString", "coordinates": [ [ [ 6.639350729664904, 46.5312106768992 ], [ 6.638890792239436, 46.529072414526389 ], [ 6.638869885992825, 46.528918993361721 ], [ 6.638855948495084, 46.528065580223782 ], [ 6.638848979746213, 46.527777909852311 ], [ 6.638960479728145, 46.527216948245993 ] ] ] } }
]
}
