{
"type": "FeatureCollection",
"name": "FER_station_2025",
"crs": { "type": "name", "properties": { "name": "urn:ogc:def:crs:OGC:1.3:CRS84" } },
"features": [
{ "type": "Feature", "properties": { "ALT": 396, "COMM_NOM": "Ecublens (VD)", "COMM_OFS": 5635, "COOR_X": 2533091, "COOR_Y": 1153321, "ETC": "(TL)", "ID_STATION": "1216", "LIGNES": "(m1)", "NB_LIGNES": 1, "ST_AFFICHE": 1, "ST_NOM": "Ecublens VD, Cerisaie", "ST_TYPE": "Métro", "ST_URL": "https://prestations.vd.ch/pub/101587/api/download/2_Cartographie_et_geodonnees/2.1_Carte_des_reseaux/Fiche_des_stations/TP_STA_1216.pdf" }, "geometry": { "type": "Point", "coordinates": [ 6.566569475715697, 46.527834834106713 ] } },
{ "type": "Feature", "properties": { "ALT": 455, "COMM_NOM": "Lausanne", "COMM_OFS": 5586, "COOR_X": 2537918, "COOR_Y": 1152131, "ETC": "(TL)", "ID_STATION": "92050_m", "LIGNES": "(m2)", "NB_LIGNES": 1, "ST_AFFICHE": 1, "ST_NOM": "Lausanne, gare", "ST_TYPE": "Métro", "ST_URL": "https://prestations.vd.ch/pub/101587/api/download/2_Cartographie_et_geodonnees/2.1_Carte_des_reseaux/Fiche_des_stations/TP_STA_92050_m.pdf" }, "geometry": { "type": "Point", "coordinates": [ 6.6296389198779, 46.517595504730458 ] } },
{ "type": "Feature", "properties": { "ALT": 479, "COMM_NOM": "Lausanne", "COMM_OFS": 5586, "COOR_X": 2537970, "COOR_Y": 1152421, "ETC": "(LEB)", "ID_STATION": "1181", "LIGNES": "(R20)", "NB_LIGNES": 1, "ST_AFFICHE": 1, "ST_NOM": "Lausanne-Flon", "ST_TYPE": "Régional", "ST_URL": "https://prestations.vd.ch/pub/101587/api/download/2_Cartographie_et_geodonnees/2.1_Carte_des_reseaux/Fiche_des_stations/TP_STA_1181.pdf" }, "geometry": { "type": "Point", "coordinates": [ 6.63027299875101, 46.520209040935413 ] } },
{ "type": "Feature", "properties": { "ALT": 591, "COMM_NOM": "Romanel-sur-Lausanne", "COMM_OFS": 5592, "COOR_X": 2535942, "COOR_Y": 1157130, "ETC": "(LEB)", "ID_STATION": "1166", "LIGNES": "(R20)", "NB_LIGNES": 1, "ST_AFFICHE": 1, "ST_NOM": "Romanel-sur-Lausanne", "ST_TYPE": "Régional", "ST_URL": "https://prestations.vd.ch/pub/101587/api/download/2_Cartographie_et_geodonnees/2.1_Carte_des_reseaux/Fiche_des_stations/TP_STA_1166.pdf" }, "geometry": { "type": "Point", "coordinates": [ 6.603191959854181, 46.562376444111237 ] } },
{ "type": "Feature", "properties": { "ALT": 533, "COMM_NOM": "Lausanne", "COMM_OFS": 5586, "COOR_X": 2538766, "COOR_Y": 1152526, "ETC": "(TL)", "ID_STATION": "79237_m", "LIGNES": "(m2)", "NB_LIGNES": 1, "ST_AFFICHE": 1, "ST_NOM": "Lausanne, Ours", "ST_TYPE": "Métro", "ST_URL": "https://prestations.vd.ch/pub/101587/api/download/2_Cartographie_et_geodonnees/2.1_Carte_des_reseaux/Fiche_des_stations/TP_STA_79237_m.pdf" }, "geometry": { "type": "Point", "coordinates": [ 6.640643204709459, 46.521225476336447 ] } },
{ "type": "Feature", "properties": { "ALT": 607, "COMM_NOM": "Lausanne", "COMM_OFS": 5586, "COOR_X": 2539199, "COOR_Y": 1153814, "ETC": "(TL)", "ID_STATION": "79238_m", "LIGNES": "(m2)", "NB_LIGNES": 1, "ST_AFFICHE": 1, "ST_NOM": "Lausanne, Sallaz", "ST_TYPE": "Métro", "ST_URL": "https://prestations.vd.ch/pub/101587/api/download/2_Cartographie_et_geodonnees/2.1_Carte_des_reseaux/Fiche_des_stations/TP_STA_79238_m.pdf" }, "geometry": { "type": "Point", "coordinates": [ 6.646113308896085, 46.532853353706408 ] } },
{ "type": "Feature", "properties": { "ALT": 403, "COMM_NOM": "Lutry", "COMM_OFS": 5606, "COOR_X": 2542590, "COOR_Y": 1150557, "ETC": "(CFF)", "ID_STATION": "1122", "LIGNES": "(R1) (R2) (R3) (R4)", "NB_LIGNES": 4, "ST_AFFICHE": 2, "ST_NOM": "Lutry", "ST_TYPE": "Régional", "ST_URL": "https://prestations.vd.ch/pub/101587/api/download/2_Cartographie_et_geodonnees/2.1_Carte_des_reseaux/Fiche_des_stations/TP_STA_1122.pdf" }, "geometry": { "type": "Point", "coordinates": [ 6.690711633845535, 46.503850504532814 ] } },
{ "type": "Feature", "properties": { "ALT": 387, "COMM_NOM": "Lonay", "COMM_OFS": 5638, "COOR_X": 2529476, "COOR_Y": 1152835, "ETC": "(CFF)", "ID_STATION": "1048", "LIGNES": "(R8) (R9)", "NB_LIGNES": 2, "ST_AFFICHE": 1, "ST_NOM": "Lonay-Préverenges", "ST_TYPE": "Régional", "ST_URL": "https://prestations.vd.ch/pub/101587/api/download/2_Cartographie_et_geodonnees/2.1_Carte_des_reseaux/Fiche_des_stations/TP_STA_1048.pdf" }, "geometry": { "type": "Point", "coordinates": [ 6.519531876375906, 46.523087898894794 ] } },
{ "type": "Feature", "properties": { "ALT": 399, "COMM_NOM": "Denges", "COMM_OFS": 5632, "COOR_X": 2531094, "COOR_Y": 1153480, "ETC": "(CFF)", "ID_STATION": "1045", "LIGNES": "(R8) (R9)", "NB_LIGNES": 2, "ST_AFFICHE": 1, "ST_NOM": "Denges-Echandens", "ST_TYPE": "Régional", "ST_URL": "https://prestations.vd.ch/pub/101587/api/download/2_Cartographie_et_geodonnees/2.1_Carte_des_reseaux/Fiche_des_stations/TP_STA_1045.pdf" }, "geometry": { "type": "Point", "coordinates": [ 6.540522396228302, 46.529059982922618 ] } },
{ "type": "Feature", "properties": { "ALT": 388, "COMM_NOM": "Chavannes-près-Renens", "COMM_OFS": 5627, "COOR_X": 2534484, "COOR_Y": 1152902, "ETC": "(TL)", "ID_STATION": "1211", "LIGNES": "(m1)", "NB_LIGNES": 1, "ST_AFFICHE": 1, "ST_NOM": "Chavannes-R., UNIL-Chamberonne", "ST_TYPE": "Métro", "ST_URL": "https://prestations.vd.ch/pub/101587/api/download/2_Cartographie_et_geodonnees/2.1_Carte_des_reseaux/Fiche_des_stations/TP_STA_1211.pdf" }, "geometry": { "type": "Point", "coordinates": [ 6.584789213141015, 46.524204195026556 ] } },
{ "type": "Feature", "properties": { "ALT": 447, "COMM_NOM": "Lausanne", "COMM_OFS": 5586, "COOR_X": 2537875, "COOR_Y": 1152047, "ETC": "(CFF) (SNCF)", "ID_STATION": "1120", "LIGNES": "(GL-100) (GL-150) (GL-210) (GL-250) (RE33) (RE) (TGV9)", "NB_LIGNES": 7, "ST_AFFICHE": 3, "ST_NOM": "Lausanne", "ST_TYPE": "Grande ligne / régional", "ST_URL": "https://prestations.vd.ch/pub/101587/api/download/2_Cartographie_et_geodonnees/2.1_Carte_des_reseaux/Fiche_des_stations/TP_STA_1120.pdf" }, "geometry": { "type": "Point", "coordinates": [ 6.629085447196774, 46.516831963035223 ] } },
{ "type": "Feature", "properties": { "ALT": 514, "COMM_NOM": "Lausanne", "COMM_OFS": 5586, "COOR_X": 2538490, "COOR_Y": 1152477, "ETC": "(TL)", "ID_STATION": "89523_m", "LIGNES": "(m2)", "NB_LIGNES": 1, "ST_AFFICHE": 1, "ST_NOM": "Lausanne, Bessières", "ST_TYPE": "Métro", "ST_URL": "https://prestations.vd.ch/pub/101587/api/download/2_Cartographie_et_geodonnees/2.1_Carte_des_reseaux/Fiche_des_stations/TP_STA_89523_m.pdf" }, "geometry": { "type": "Point", "coordinates": [ 6.637053369359448, 46.520754681928032 ] } },
{ "type": "Feature", "properties": { "ALT": 387, "COMM_NOM": "Bourg-en-Lavaux", "COMM_OFS": 5613, "COOR_X": 2543863, "COOR_Y": 1149613, "ETC": "(CFF)", "ID_STATION": "1123", "LIGNES": "(R1) (R2) (R3) (R4)", "NB_LIGNES": 4, "ST_AFFICHE": 1, "ST_NOM": "Villette VD", "ST_TYPE": "Régional", "ST_URL": "https://prestations.vd.ch/pub/101587/api/download/2_Cartographie_et_geodonnees/2.1_Carte_des_reseaux/Fiche_des_stations/TP_STA_1123.pdf" }, "geometry": { "type": "Point", "coordinates": [ 6.707415110873992, 46.495465774984972 ] } },
{ "type": "Feature", "properties": { "ALT": 385, "COMM_NOM": "Chavannes-près-Renens", "COMM_OFS": 5627, "COOR_X": 2534062, "COOR_Y": 1152999, "ETC": "(TL)", "ID_STATION": "1212", "LIGNES": "(m1)", "NB_LIGNES": 1, "ST_AFFICHE": 1, "ST_NOM": "Chavannes-R., UNIL-Mouline", "ST_TYPE": "Métro", "ST_URL": "https://prestations.vd.ch/pub/101587/api/download/2_Cartographie_et_geodonnees/2.1_Carte_des_reseaux/Fiche_des_stations/TP_STA_1212.pdf" }, "geometry": { "type": "Point", "coordinates": [ 6.579269142291884, 46.52503015079651 ] } },
{ "type": "Feature", "properties": { "ALT": 441, "COMM_NOM": "Lausanne", "COMM_OFS": 5586, "COOR_X": 2536675, "COOR_Y": 1152619, "ETC": "(TL)", "ID_STATION": "1207_m", "LIGNES": "(m1)", "NB_LIGNES": 1, "ST_AFFICHE": 1, "ST_NOM": "Lausanne, Montelly", "ST_TYPE": "Métro", "ST_URL": "https://prestations.vd.ch/pub/101587/api/download/2_Cartographie_et_geodonnees/2.1_Carte_des_reseaux/Fiche_des_stations/TP_STA_1207_m.pdf" }, "geometry": { "type": "Point", "coordinates": [ 6.613372652548792, 46.521866485822343 ] } },
{ "type": "Feature", "properties": { "ALT": 407, "COMM_NOM": "Lausanne", "COMM_OFS": 5586, "COOR_X": 2537791, "COOR_Y": 1151538, "ETC": "(TL)", "ID_STATION": "92028_m", "LIGNES": "(m2)", "NB_LIGNES": 1, "ST_AFFICHE": 1, "ST_NOM": "Lausanne, Délices", "ST_TYPE": "Métro", "ST_URL": "https://prestations.vd.ch/pub/101587/api/download/2_Cartographie_et_geodonnees/2.1_Carte_des_reseaux/Fiche_des_stations/TP_STA_92028_m.pdf" }, "geometry": { "type": "Point", "coordinates": [ 6.628059684088245, 46.512247133649815 ] } },
{ "type": "Feature", "properties": { "ALT": 659, "COMM_NOM": "Lausanne", "COMM_OFS": 5586, "COOR_X": 2539583, "COOR_Y": 1154480, "ETC": "(TL)", "ID_STATION": "92048", "LIGNES": "(m2)", "NB_LIGNES": 1, "ST_AFFICHE": 1, "ST_NOM": "Lausanne, Fourmi", "ST_TYPE": "Métro", "ST_URL": "https://prestations.vd.ch/pub/101587/api/download/2_Cartographie_et_geodonnees/2.1_Carte_des_reseaux/Fiche_des_stations/TP_STA_92048.pdf" }, "geometry": { "type": "Point", "coordinates": [ 6.651025465187721, 46.538876801984905 ] } },
{ "type": "Feature", "properties": { "ALT": 417, "COMM_NOM": "Ecublens (VD)", "COMM_OFS": 5635, "COOR_X": 2533632, "COOR_Y": 1154402, "ETC": "(TL)", "ID_STATION": "1218_m", "LIGNES": "(m1)", "NB_LIGNES": 1, "ST_AFFICHE": 1, "ST_NOM": "Ecublens VD, Epenex", "ST_TYPE": "Métro", "ST_URL": "https://prestations.vd.ch/pub/101587/api/download/2_Cartographie_et_geodonnees/2.1_Carte_des_reseaux/Fiche_des_stations/TP_STA_1218_m.pdf" }, "geometry": { "type": "Point", "coordinates": [ 6.573468318494442, 46.53760695403399 ] } },
{ "type": "Feature", "properties": { "ALT": 429, "COMM_NOM": "Prilly", "COMM_OFS": 5589, "COOR_X": 2535860, "COOR_Y": 1153170, "ETC": "(CFF)", "ID_STATION": "18452", "LIGNES": "(R1) (R2) (R3) (R4) (R9)", "NB_LIGNES": 5, "ST_AFFICHE": 2, "ST_NOM": "Prilly-Malley", "ST_TYPE": "Régional", "ST_URL": "https://prestations.vd.ch/pub/101587/api/download/2_Cartographie_et_geodonnees/2.1_Carte_des_reseaux/Fiche_des_stations/TP_STA_18452.pdf" }, "geometry": { "type": "Point", "coordinates": [ 6.602682899666276, 46.526745302718659 ] } },
{ "type": "Feature", "properties": { "ALT": 471, "COMM_NOM": "Lausanne", "COMM_OFS": 5586, "COOR_X": 2537595, "COOR_Y": 1152794, "ETC": "(LEB)", "ID_STATION": "1160", "LIGNES": "(R20)", "NB_LIGNES": 1, "ST_AFFICHE": 1, "ST_NOM": "Lausanne-Chauderon", "ST_TYPE": "Régional", "ST_URL": "https://prestations.vd.ch/pub/101587/api/download/2_Cartographie_et_geodonnees/2.1_Carte_des_reseaux/Fiche_des_stations/TP_STA_1160.pdf" }, "geometry": { "type": "Point", "coordinates": [ 6.625339701777101, 46.523530551686228 ] } },
{ "type": "Feature", "properties": { "ALT": 394, "COMM_NOM": "Lausanne", "COMM_OFS": 5586, "COOR_X": 2537732, "COOR_Y": 1151272, "ETC": "(TL)", "ID_STATION": "92061_m", "LIGNES": "(m2)", "NB_LIGNES": 1, "ST_AFFICHE": 1, "ST_NOM": "Lausanne, Jordils", "ST_TYPE": "Métro", "ST_URL": "https://prestations.vd.ch/pub/101587/api/download/2_Cartographie_et_geodonnees/2.1_Carte_des_reseaux/Fiche_des_stations/TP_STA_92061_m.pdf" }, "geometry": { "type": "Point", "coordinates": [ 6.627335749609533, 46.509852903334789 ] } },
{ "type": "Feature", "properties": { "ALT": 447, "COMM_NOM": "Lausanne", "COMM_OFS": 5586, "COOR_X": 2537875, "COOR_Y": 1152047, "ETC": "(CFF)", "ID_STATION": "1120_RER", "LIGNES": "(R1) (R2) (R3) (R4) (R8) (R9) (S40) (S41)", "NB_LIGNES": 8, "ST_AFFICHE": 1, "ST_NOM": "Lausanne", "ST_TYPE": "Régional", "ST_URL": "https://prestations.vd.ch/pub/101587/api/download/2_Cartographie_et_geodonnees/2.1_Carte_des_reseaux/Fiche_des_stations/TP_STA_1120_RER.pdf" }, "geometry": { "type": "Point", "coordinates": [ 6.629085447196774, 46.516831963035223 ] } },
{ "type": "Feature", "properties": { "ALT": 598, "COMM_NOM": "Lausanne", "COMM_OFS": 5586, "COOR_X": 2536085, "COOR_Y": 1158082, "ETC": "(LEB)", "ID_STATION": "1168", "LIGNES": "(R20)", "NB_LIGNES": 1, "ST_AFFICHE": 1, "ST_NOM": "Vernand-Camarès", "ST_TYPE": "Régional (arrêt sur demande)", "ST_URL": "https://prestations.vd.ch/pub/101587/api/download/2_Cartographie_et_geodonnees/2.1_Carte_des_reseaux/Fiche_des_stations/TP_STA_1168.pdf" }, "geometry": { "type": "Point", "coordinates": [ 6.60492788066307, 46.570950061284861 ] } },
{ "type": "Feature", "properties": { "ALT": 501, "COMM_NOM": "Lausanne", "COMM_OFS": 5586, "COOR_X": 2538158, "COOR_Y": 1152717, "ETC": "(TL)", "ID_STATION": "90442_m", "LIGNES": "(m2)", "NB_LIGNES": 1, "ST_AFFICHE": 1, "ST_NOM": "Lausanne, Riponne-M. Béjart", "ST_TYPE": "Métro", "ST_URL": "https://prestations.vd.ch/pub/101587/api/download/2_Cartographie_et_geodonnees/2.1_Carte_des_reseaux/Fiche_des_stations/TP_STA_90442_m.pdf" }, "geometry": { "type": "Point", "coordinates": [ 6.632693641291484, 46.522887465175948 ] } },
{ "type": "Feature", "properties": { "ALT": 581, "COMM_NOM": "Lausanne", "COMM_OFS": 5586, "COOR_X": 2538840, "COOR_Y": 1153110, "ETC": "(TL)", "ID_STATION": "92017", "LIGNES": "(m2)", "NB_LIGNES": 1, "ST_AFFICHE": 1, "ST_NOM": "Lausanne, CHUV", "ST_TYPE": "Métro", "ST_URL": "https://prestations.vd.ch/pub/101587/api/download/2_Cartographie_et_geodonnees/2.1_Carte_des_reseaux/Fiche_des_stations/TP_STA_92017.pdf" }, "geometry": { "type": "Point", "coordinates": [ 6.641519226293179, 46.52648517454513 ] } },
{ "type": "Feature", "properties": { "ALT": 691, "COMM_NOM": "Lausanne", "COMM_OFS": 5586, "COOR_X": 2540096, "COOR_Y": 1154747, "ETC": "(TL)", "ID_STATION": "92128", "LIGNES": "(m2)", "NB_LIGNES": 1, "ST_AFFICHE": 1, "ST_NOM": "Lausanne, Vennes", "ST_TYPE": "Métro", "ST_URL": "https://prestations.vd.ch/pub/101587/api/download/2_Cartographie_et_geodonnees/2.1_Carte_des_reseaux/Fiche_des_stations/TP_STA_92128.pdf" }, "geometry": { "type": "Point", "coordinates": [ 6.657686218705248, 46.541322493983287 ] } },
{ "type": "Feature", "properties": { "ALT": 428, "COMM_NOM": "Lausanne", "COMM_OFS": 5586, "COOR_X": 2537854, "COOR_Y": 1151835, "ETC": "(TL)", "ID_STATION": "92052", "LIGNES": "(m2)", "NB_LIGNES": 1, "ST_AFFICHE": 1, "ST_NOM": "Lausanne, Grancy", "ST_TYPE": "Métro", "ST_URL": "https://prestations.vd.ch/pub/101587/api/download/2_Cartographie_et_geodonnees/2.1_Carte_des_reseaux/Fiche_des_stations/TP_STA_92052.pdf" }, "geometry": { "type": "Point", "coordinates": [ 6.628846588044695, 46.514926345300658 ] } },
{ "type": "Feature", "properties": { "ALT": 425, "COMM_NOM": "Pully", "COMM_OFS": 5590, "COOR_X": 2540197, "COOR_Y": 1151368, "ETC": "(CFF)", "ID_STATION": "1121", "LIGNES": "(R1) (R2) (R3) (R4)", "NB_LIGNES": 4, "ST_AFFICHE": 2, "ST_NOM": "Pully", "ST_TYPE": "Régional", "ST_URL": "https://prestations.vd.ch/pub/101587/api/download/2_Cartographie_et_geodonnees/2.1_Carte_des_reseaux/Fiche_des_stations/TP_STA_1121.pdf" }, "geometry": { "type": "Point", "coordinates": [ 6.659436995547533, 46.510933781658679 ] } },
{ "type": "Feature", "properties": { "ALT": 407, "COMM_NOM": "Vufflens-la-Ville", "COMM_OFS": 5503, "COOR_X": 2530400, "COOR_Y": 1158737, "ETC": "(CFF)", "ID_STATION": "1116", "LIGNES": "(R1) (R2)", "NB_LIGNES": 2, "ST_AFFICHE": 1, "ST_NOM": "Vufflens-la-Ville", "ST_TYPE": "Régional", "ST_URL": "https://prestations.vd.ch/pub/101587/api/download/2_Cartographie_et_geodonnees/2.1_Carte_des_reseaux/Fiche_des_stations/TP_STA_1116.pdf" }, "geometry": { "type": "Point", "coordinates": [ 6.530683856534779, 46.57627532127777 ] } },
{ "type": "Feature", "properties": { "ALT": 416, "COMM_NOM": "Renens (VD)", "COMM_OFS": 5591, "COOR_X": 2534078, "COOR_Y": 1154365, "ETC": "(CFF)", "ID_STATION": "1118", "LIGNES": "(GL-210) (RE33) (R1) (R2) (R3) (R4) (R8) (R9)", "NB_LIGNES": 8, "ST_AFFICHE": 3, "ST_NOM": "Renens VD", "ST_TYPE": "Grande ligne / régional", "ST_URL": "https://prestations.vd.ch/pub/101587/api/download/2_Cartographie_et_geodonnees/2.1_Carte_des_reseaux/Fiche_des_stations/TP_STA_1118.pdf" }, "geometry": { "type": "Point", "coordinates": [ 6.579288287308502, 46.537323525478307 ] } },
{ "type": "Feature", "properties": { "ALT": 390, "COMM_NOM": "Lausanne", "COMM_OFS": 5586, "COOR_X": 2534898, "COOR_Y": 1152803, "ETC": "(TL)", "ID_STATION": "1210_m", "LIGNES": "(m1)", "NB_LIGNES": 1, "ST_AFFICHE": 1, "ST_NOM": "Lausanne, Bourdonnette", "ST_TYPE": "Métro", "ST_URL": "https://prestations.vd.ch/pub/101587/api/download/2_Cartographie_et_geodonnees/2.1_Carte_des_reseaux/Fiche_des_stations/TP_STA_1210_m.pdf" }, "geometry": { "type": "Point", "coordinates": [ 6.590200826172243, 46.523352071028441 ] } },
{ "type": "Feature", "properties": { "ALT": 555, "COMM_NOM": "Jouxtens-Mézery", "COMM_OFS": 5585, "COOR_X": 2535814, "COOR_Y": 1155583, "ETC": "(LEB)", "ID_STATION": "1165", "LIGNES": "(R20)", "NB_LIGNES": 1, "ST_AFFICHE": 1, "ST_NOM": "Jouxtens-Mézery", "ST_TYPE": "Régional (arrêt sur demande)", "ST_URL": "https://prestations.vd.ch/pub/101587/api/download/2_Cartographie_et_geodonnees/2.1_Carte_des_reseaux/Fiche_des_stations/TP_STA_1165.pdf" }, "geometry": { "type": "Point", "coordinates": [ 6.601747081267799, 46.548441922544583 ] } },
{ "type": "Feature", "properties": { "ALT": 525, "COMM_NOM": "Prilly", "COMM_OFS": 5589, "COOR_X": 2536242, "COOR_Y": 1154608, "ETC": "(LEB)", "ID_STATION": "1163", "LIGNES": "(R20)", "NB_LIGNES": 1, "ST_AFFICHE": 1, "ST_NOM": "Prilly-Chasseur", "ST_TYPE": "Régional (arrêt sur demande)", "ST_URL": "https://prestations.vd.ch/pub/101587/api/download/2_Cartographie_et_geodonnees/2.1_Carte_des_reseaux/Fiche_des_stations/TP_STA_1163.pdf" }, "geometry": { "type": "Point", "coordinates": [ 6.607454163332998, 46.539714023379034 ] } },
{ "type": "Feature", "properties": { "ALT": 480, "COMM_NOM": "Lausanne", "COMM_OFS": 5586, "COOR_X": 2537451, "COOR_Y": 1152587, "ETC": "(TL)", "ID_STATION": "92133_m", "LIGNES": "(m1)", "NB_LIGNES": 1, "ST_AFFICHE": 1, "ST_NOM": "Lausanne, Vigie", "ST_TYPE": "Métro", "ST_URL": "https://prestations.vd.ch/pub/101587/api/download/2_Cartographie_et_geodonnees/2.1_Carte_des_reseaux/Fiche_des_stations/TP_STA_92133_m.pdf" }, "geometry": { "type": "Point", "coordinates": [ 6.623497970141809, 46.52165210328463 ] } },
{ "type": "Feature", "properties": { "ALT": 398, "COMM_NOM": "Ecublens (VD)", "COMM_OFS": 5635, "COOR_X": 2532951, "COOR_Y": 1153006, "ETC": "(TL)", "ID_STATION": "1215", "LIGNES": "(m1)", "NB_LIGNES": 1, "ST_AFFICHE": 1, "ST_NOM": "Ecublens VD, Bassenges", "ST_TYPE": "Métro", "ST_URL": "https://prestations.vd.ch/pub/101587/api/download/2_Cartographie_et_geodonnees/2.1_Carte_des_reseaux/Fiche_des_stations/TP_STA_1215.pdf" }, "geometry": { "type": "Point", "coordinates": [ 6.564787512819437, 46.524986831258452 ] } },
{ "type": "Feature", "properties": { "ALT": 396, "COMM_NOM": "Ecublens (VD)", "COMM_OFS": 5635, "COOR_X": 2533039, "COOR_Y": 1152700, "ETC": "(TL)", "ID_STATION": "1214_m", "LIGNES": "(m1)", "NB_LIGNES": 1, "ST_AFFICHE": 1, "ST_NOM": "Ecublens VD, EPFL", "ST_TYPE": "Métro", "ST_URL": "https://prestations.vd.ch/pub/101587/api/download/2_Cartographie_et_geodonnees/2.1_Carte_des_reseaux/Fiche_des_stations/TP_STA_1214_m.pdf" }, "geometry": { "type": "Point", "coordinates": [ 6.565987605743312, 46.522239798221399 ] } },
{ "type": "Feature", "properties": { "ALT": 403, "COMM_NOM": "Chavannes-près-Renens", "COMM_OFS": 5627, "COOR_X": 2533361, "COOR_Y": 1153866, "ETC": "(TL)", "ID_STATION": "1217", "LIGNES": "(m1)", "NB_LIGNES": 1, "ST_AFFICHE": 1, "ST_NOM": "Chavannes-R., Crochy", "ST_TYPE": "Métro", "ST_URL": "https://prestations.vd.ch/pub/101587/api/download/2_Cartographie_et_geodonnees/2.1_Carte_des_reseaux/Fiche_des_stations/TP_STA_1217.pdf" }, "geometry": { "type": "Point", "coordinates": [ 6.570011691244464, 46.53275857912724 ] } },
{ "type": "Feature", "properties": { "ALT": 377, "COMM_NOM": "Lausanne", "COMM_OFS": 5586, "COOR_X": 2537673, "COOR_Y": 1151001, "ETC": "(TL)", "ID_STATION": "92086_m", "LIGNES": "(m2)", "NB_LIGNES": 1, "ST_AFFICHE": 1, "ST_NOM": "Lausanne, Ouchy-Olympique", "ST_TYPE": "Métro", "ST_URL": "https://prestations.vd.ch/pub/101587/api/download/2_Cartographie_et_geodonnees/2.1_Carte_des_reseaux/Fiche_des_stations/TP_STA_92086_m.pdf" }, "geometry": { "type": "Point", "coordinates": [ 6.626595494171861, 46.507404502350255 ] } },
{ "type": "Feature", "properties": { "ALT": 391, "COMM_NOM": "Ecublens (VD)", "COMM_OFS": 5635, "COOR_X": 2533592, "COOR_Y": 1152695, "ETC": "(TL)", "ID_STATION": "1213_m", "LIGNES": "(m1)", "NB_LIGNES": 1, "ST_AFFICHE": 1, "ST_NOM": "Ecublens VD, UNIL-Sorge", "ST_TYPE": "Métro", "ST_URL": "https://prestations.vd.ch/pub/101587/api/download/2_Cartographie_et_geodonnees/2.1_Carte_des_reseaux/Fiche_des_stations/TP_STA_1213_m.pdf" }, "geometry": { "type": "Point", "coordinates": [ 6.57318768778727, 46.522246964555457 ] } },
{ "type": "Feature", "properties": { "ALT": 425, "COMM_NOM": "Lausanne", "COMM_OFS": 5586, "COOR_X": 2535897, "COOR_Y": 1152886, "ETC": "(TL)", "ID_STATION": "1209_m", "LIGNES": "(m1)", "NB_LIGNES": 1, "ST_AFFICHE": 1, "ST_NOM": "Lausanne, Malley", "ST_TYPE": "Métro", "ST_URL": "https://prestations.vd.ch/pub/101587/api/download/2_Cartographie_et_geodonnees/2.1_Carte_des_reseaux/Fiche_des_stations/TP_STA_1209_m.pdf" }, "geometry": { "type": "Point", "coordinates": [ 6.60319674274849, 46.524192150348547 ] } },
{ "type": "Feature", "properties": { "ALT": 543, "COMM_NOM": "Prilly", "COMM_OFS": 5589, "COOR_X": 2536072, "COOR_Y": 1155139, "ETC": "(LEB)", "ID_STATION": "1164", "LIGNES": "(R20)", "NB_LIGNES": 1, "ST_AFFICHE": 1, "ST_NOM": "Cery-Fleur-de-Lys", "ST_TYPE": "Régional (arrêt sur demande)", "ST_URL": "https://prestations.vd.ch/pub/101587/api/download/2_Cartographie_et_geodonnees/2.1_Carte_des_reseaux/Fiche_des_stations/TP_STA_1164.pdf" }, "geometry": { "type": "Point", "coordinates": [ 6.605164729483629, 46.544475159643817 ] } },
{ "type": "Feature", "properties": { "ALT": 427, "COMM_NOM": "Lausanne", "COMM_OFS": 5586, "COOR_X": 2536313, "COOR_Y": 1152777, "ETC": "(TL)", "ID_STATION": "1208", "LIGNES": "(m1)", "NB_LIGNES": 1, "ST_AFFICHE": 1, "ST_NOM": "Lausanne, Provence", "ST_TYPE": "Métro", "ST_URL": "https://prestations.vd.ch/pub/101587/api/download/2_Cartographie_et_geodonnees/2.1_Carte_des_reseaux/Fiche_des_stations/TP_STA_1208.pdf" }, "geometry": { "type": "Point", "coordinates": [ 6.608632280607743, 46.523249977288032 ] } },
{ "type": "Feature", "properties": { "ALT": 508, "COMM_NOM": "Prilly", "COMM_OFS": 5589, "COOR_X": 2536419, "COOR_Y": 1154061, "ETC": "(LEB)", "ID_STATION": "1162", "LIGNES": "(R20)", "NB_LIGNES": 1, "ST_AFFICHE": 1, "ST_NOM": "Union-Prilly", "ST_TYPE": "Régional (arrêt sur demande)", "ST_URL": "https://prestations.vd.ch/pub/101587/api/download/2_Cartographie_et_geodonnees/2.1_Carte_des_reseaux/Fiche_des_stations/TP_STA_1162.pdf" }, "geometry": { "type": "Point", "coordinates": [ 6.609844408212632, 46.534808939881358 ] } },
{ "type": "Feature", "properties": { "ALT": 485, "COMM_NOM": "Lausanne", "COMM_OFS": 5586, "COOR_X": 2537952, "COOR_Y": 1152406, "ETC": "(TL)", "ID_STATION": "91818_m", "LIGNES": "(m1)", "NB_LIGNES": 1, "ST_AFFICHE": 1, "ST_NOM": "Lausanne, Flon", "ST_TYPE": "Métro", "ST_URL": "https://prestations.vd.ch/pub/101587/api/download/2_Cartographie_et_geodonnees/2.1_Carte_des_reseaux/Fiche_des_stations/TP_STA_91818_m.pdf" }, "geometry": { "type": "Point", "coordinates": [ 6.630040679240945, 46.520070977684988 ] } },
{ "type": "Feature", "properties": { "ALT": 485, "COMM_NOM": "Lausanne", "COMM_OFS": 5586, "COOR_X": 2537980, "COOR_Y": 1152423, "ETC": "(TL)", "ID_STATION": "91818_m2", "LIGNES": "(m2)", "NB_LIGNES": 1, "ST_AFFICHE": 1, "ST_NOM": "Lausanne, Flon", "ST_TYPE": "Métro", "ST_URL": "https://prestations.vd.ch/pub/101587/api/download/2_Cartographie_et_geodonnees/2.1_Carte_des_reseaux/Fiche_des_stations/TP_STA_91818_m2.pdf" }, "geometry": { "type": "Point", "coordinates": [ 6.63040949674576, 46.520224839051643 ] } },
{ "type": "Feature", "properties": { "ALT": 473, "COMM_NOM": "Pully", "COMM_OFS": 5590, "COOR_X": 2540136, "COOR_Y": 1151790, "ETC": "(CFF)", "ID_STATION": "4000", "LIGNES": "(S40) (S41)", "NB_LIGNES": 2, "ST_AFFICHE": 1, "ST_NOM": "Pully-Nord", "ST_TYPE": "Régional", "ST_URL": "https://prestations.vd.ch/pub/101587/api/download/2_Cartographie_et_geodonnees/2.1_Carte_des_reseaux/Fiche_des_stations/TP_STA_4000.pdf" }, "geometry": { "type": "Point", "coordinates": [ 6.658588665420004, 46.514730400000168 ] } },
{ "type": "Feature", "properties": { "ALT": 501, "COMM_NOM": "Lutry", "COMM_OFS": 5606, "COOR_X": 2541643, "COOR_Y": 1151583, "ETC": "(CFF)", "ID_STATION": "4010", "LIGNES": "(S40) (S41)", "NB_LIGNES": 2, "ST_AFFICHE": 1, "ST_NOM": "La Conversion", "ST_TYPE": "Régional", "ST_URL": "https://prestations.vd.ch/pub/101587/api/download/2_Cartographie_et_geodonnees/2.1_Carte_des_reseaux/Fiche_des_stations/TP_STA_4010.pdf" }, "geometry": { "type": "Point", "coordinates": [ 6.678242826071616, 46.512997063386493 ] } },
{ "type": "Feature", "properties": { "ALT": 524, "COMM_NOM": "Lutry", "COMM_OFS": 5606, "COOR_X": 2543255, "COOR_Y": 1151194, "ETC": "(CFF)", "ID_STATION": "4003", "LIGNES": "(S40) (S41)", "NB_LIGNES": 2, "ST_AFFICHE": 1, "ST_NOM": "Bossière", "ST_TYPE": "Régional", "ST_URL": "https://prestations.vd.ch/pub/101587/api/download/2_Cartographie_et_geodonnees/2.1_Carte_des_reseaux/Fiche_des_stations/TP_STA_4003.pdf" }, "geometry": { "type": "Point", "coordinates": [ 6.699299184914194, 46.50964064903701 ] } },
{ "type": "Feature", "properties": { "ALT": 407, "COMM_NOM": "Bussigny", "COMM_OFS": 5624, "COOR_X": 2531975, "COOR_Y": 1155525, "ETC": "(CFF)", "ID_STATION": "1117", "LIGNES": "(R1) (R2) (R3) (R4)", "NB_LIGNES": 4, "ST_AFFICHE": 2, "ST_NOM": "Bussigny", "ST_TYPE": "Régional", "ST_URL": "https://prestations.vd.ch/pub/101587/api/download/2_Cartographie_et_geodonnees/2.1_Carte_des_reseaux/Fiche_des_stations/TP_STA_1117.pdf" }, "geometry": { "type": "Point", "coordinates": [ 6.551696914585956, 46.547543828145535 ] } },
{ "type": "Feature", "properties": { "ALT": 416, "COMM_NOM": "Renens (VD)", "COMM_OFS": 5591, "COOR_X": 2533985, "COOR_Y": 1154388, "ETC": "(TL)", "ID_STATION": "30749", "LIGNES": "(m1)", "NB_LIGNES": 1, "ST_AFFICHE": 1, "ST_NOM": "Renens VD, gare", "ST_TYPE": "Métro", "ST_URL": "https://prestations.vd.ch/pub/101587/api/download/2_Cartographie_et_geodonnees/2.1_Carte_des_reseaux/Fiche_des_stations/TP_STA_30749.pdf" }, "geometry": { "type": "Point", "coordinates": [ 6.578065547956413, 46.537519101896983 ] } },
{ "type": "Feature", "properties": { "ALT": 714, "COMM_NOM": "Epalinges", "COMM_OFS": 5584, "COOR_X": 2540392, "COOR_Y": 1154923, "ETC": "(TL)", "ID_STATION": "79239_m", "LIGNES": "(m2)", "NB_LIGNES": 1, "ST_AFFICHE": 1, "ST_NOM": "Epalinges, Croisettes", "ST_TYPE": "Métro", "ST_URL": "https://prestations.vd.ch/pub/101587/api/download/2_Cartographie_et_geodonnees/2.1_Carte_des_reseaux/Fiche_des_stations/TP_STA_79239_m.pdf" }, "geometry": { "type": "Point", "coordinates": [ 6.661511054079311, 46.542935084496257 ] } }
]
}
