{
"type": "FeatureCollection",
"name": "NAV_ligne_2025",
"crs": { "type": "name", "properties": { "name": "urn:ogc:def:crs:OGC:1.3:CRS84" } },
"features": [
{ "type": "Feature", "properties": { "CADRE_NO": "3150", "DDT_URL": null, "ETC_NOM": "Compagnie Générale de Navigation sur le lac Léman", "ETC_SIGLE": "CGN", "ETC_URL": "http://www.cgn.ch", "HORAIR_URL": "http://www.tableaux-horaires.ch/bav_assets/files/2009/3150.pdf", "LIGNE_NOM": "Lausanne-Ouchy - Evians-les-Bains", "LIGNE_SIGL": "CGN", "LIGNE_TYPE": "Régional/touristique", "PLAN_URL": null, "SHAPE_LEN": 11787.633 }, "geometry": { "type": "MultiLineString", "coordinates": [ [ [ 6.626765761070681, 46.505635120254823 ], [ 6.594586285884428, 46.401956710228781 ] ] ] } },
{ "type": "Feature", "properties": { "CADRE_NO": "3150", "DDT_URL": null, "ETC_NOM": "Compagnie Générale de Navigation sur le lac Léman", "ETC_SIGLE": "CGN", "ETC_URL": "http://www.cgn.ch", "HORAIR_URL": "http://www.tableaux-horaires.ch/bav_assets/files/2009/3150.pdf", "LIGNE_NOM": "Lausanne-Ouchy - Thonon-les-Bains", "LIGNE_SIGL": "CGN", "LIGNE_TYPE": "Régional/touristique", "PLAN_URL": null, "SHAPE_LEN": 20024.603 }, "geometry": { "type": "MultiLineString", "coordinates": [ [ [ 6.476710320471248, 46.375133480817297 ], [ 6.47667395080333, 46.375186710937399 ], [ 6.476637674850936, 46.375239971696189 ], [ 6.476601492668195, 46.375293263014584 ], [ 6.476565404309115, 46.3753465848134 ], [ 6.476529409827529, 46.375399937013526 ], [ 6.476493509277172, 46.375453319535779 ], [ 6.476457702711615, 46.375506732300806 ], [ 6.476421990184293, 46.375560175229424 ], [ 6.476386371748514, 46.375613648242179 ], [ 6.476350847457426, 46.375667151259748 ], [ 6.476315417364055, 46.375720684202619 ], [ 6.476280081521283, 46.37577424699144 ], [ 6.476244839981849, 46.375827839546616 ], [ 6.476209692798355, 46.375881461788602 ], [ 6.476174640023265, 46.375935113637723 ], [ 6.476139681708906, 46.375988795014401 ], [ 6.476104817907447, 46.376042505838868 ], [ 6.47607004867095, 46.376096246031409 ], [ 6.476035374051309, 46.376150015512273 ], [ 6.476000794100281, 46.37620381420161 ], [ 6.475966308869492, 46.376257642019468 ], [ 6.475931918410435, 46.376311498886025 ], [ 6.475897622774444, 46.376365384721268 ], [ 6.475863422012718, 46.376419299445203 ], [ 6.475829316176327, 46.376473242977823 ], [ 6.475795305316188, 46.376527215238944 ], [ 6.475761389483083, 46.376581216148502 ], [ 6.475727568727652, 46.376635245626296 ], [ 6.475693843100388, 46.376689303592158 ], [ 6.475660212651663, 46.376743389965675 ], [ 6.47562667743168, 46.376797504666712 ], [ 6.475593237490529, 46.376851647614835 ], [ 6.475559892878143, 46.376905818729682 ], [ 6.475526643644308, 46.376960017930791 ], [ 6.475493489838688, 46.377014245137737 ], [ 6.475460431510784, 46.377068500269971 ], [ 6.475427468709977, 46.377122783246953 ], [ 6.475394601485494, 46.377177093988024 ], [ 6.475361829886426, 46.377231432412628 ], [ 6.475329153961713, 46.377285798440013 ], [ 6.475296573760163, 46.377340191989504 ], [ 6.475264089330438, 46.377394612980353 ], [ 6.475231700721062, 46.377449061331689 ], [ 6.475199407980414, 46.377503536962713 ], [ 6.47516721115673, 46.377558039792547 ], [ 6.475135110298106, 46.377612569740194 ], [ 6.475103105452498, 46.377667126724766 ], [ 6.475071196667717, 46.377721710665242 ], [ 6.475039383991432, 46.37777632148056 ], [ 6.475007667471169, 46.377830959089579 ], [ 6.474976047154312, 46.377885623411252 ], [ 6.474944523088107, 46.377940314364388 ], [ 6.474913095319656, 46.377995031867719 ], [ 6.474881763895908, 46.378049775840097 ], [ 6.474850528863677, 46.378104546200198 ], [ 6.474819390269645, 46.378159342866624 ], [ 6.474788348160333, 46.378214165758123 ], [ 6.474757402582132, 46.378269014793183 ], [ 6.474726553581284, 46.37832388989041 ], [ 6.474695801203882, 46.378378790968313 ], [ 6.474665145495897, 46.378433717945413 ], [ 6.474634586503138, 46.378488670740097 ], [ 6.47460412427127, 46.378543649270803 ], [ 6.474573758845826, 46.378598653455832 ], [ 6.474543490272193, 46.37865368321355 ], [ 6.474513318595604, 46.378708738462258 ], [ 6.474483243861167, 46.378763819120181 ], [ 6.474453266113824, 46.37881892510552 ], [ 6.474423385398391, 46.378874056336436 ], [ 6.474393601759539, 46.378929212731137 ], [ 6.474363915241792, 46.37898439420762 ], [ 6.474334325889516, 46.379039600683988 ], [ 6.47430483374696, 46.379094832078302 ], [ 6.474275438858208, 46.379150088308471 ], [ 6.474246141267205, 46.379205369292499 ], [ 6.474216941017763, 46.379260674948263 ], [ 6.47418783815354, 46.379316005193687 ], [ 6.474158832718041, 46.37937135994656 ], [ 6.474129924754648, 46.379426739124625 ], [ 6.47410111430658, 46.379482142645735 ], [ 6.474072401416922, 46.379537570427637 ], [ 6.474043786128608, 46.379593022387944 ], [ 6.474015268484437, 46.37964849844434 ], [ 6.47398684852705, 46.379703998514437 ], [ 6.473958526298957, 46.379759522515819 ], [ 6.473930301842511, 46.379815070366092 ], [ 6.473902175199928, 46.379870641982698 ], [ 6.473874146413283, 46.379926237283122 ], [ 6.473846215524487, 46.37998185618477 ], [ 6.473818382575335, 46.380037498605127 ], [ 6.473790647607449, 46.380093164461485 ], [ 6.473763010662321, 46.380148853671251 ], [ 6.4737354717813, 46.380204566151669 ], [ 6.473708031005576, 46.380260301820037 ], [ 6.473680688376211, 46.380316060593557 ], [ 6.473653443934108, 46.380371842389451 ], [ 6.473626297720028, 46.38042764712484 ], [ 6.473599249774595, 46.380483474716897 ], [ 6.473572300138269, 46.380539325082665 ], [ 6.473545448851383, 46.380595198139297 ], [ 6.473518695954122, 46.380651093803685 ], [ 6.473492041486509, 46.380707011992918 ], [ 6.473465485488439, 46.38076295262394 ], [ 6.473439027999655, 46.380818915613638 ], [ 6.473412669059751, 46.380874900878915 ], [ 6.473386408708183, 46.380930908336587 ], [ 6.473360246984249, 46.380986937903579 ], [ 6.47333418392711, 46.381042989496606 ], [ 6.47330821957578, 46.381099063032408 ], [ 6.473282353969119, 46.381155158427767 ], [ 6.473256587145857, 46.381211275599384 ], [ 6.473230919144561, 46.381267414463828 ], [ 6.473205350003657, 46.381323574937831 ], [ 6.473179879761433, 46.381379756937918 ], [ 6.473154508456011, 46.381435960380649 ], [ 6.473129236125393, 46.381492185182609 ], [ 6.473104062807405, 46.381548431260278 ], [ 6.473078988539755, 46.381604698530062 ], [ 6.473054013359986, 46.381660986908472 ], [ 6.473029137305492, 46.381717296311884 ], [ 6.473004360413532, 46.381773626656631 ], [ 6.472979682721212, 46.381829977859091 ], [ 6.472955104265494, 46.381886349835547 ], [ 6.472930625083195, 46.381942742502339 ], [ 6.472906245210972, 46.381999155775667 ], [ 6.472881964685341, 46.382055589571713 ], [ 6.472857783542681, 46.3821120438067 ], [ 6.472833701819213, 46.382168518396817 ], [ 6.47280971955102, 46.382225013258122 ], [ 6.472785836774017, 46.382281528306756 ], [ 6.472762053524007, 46.382338063458747 ], [ 6.472738369836607, 46.382394618630158 ], [ 6.472714785747305, 46.382451193736969 ], [ 6.472691301291452, 46.382507788695158 ], [ 6.472667916504227, 46.382564403420673 ], [ 6.472644631420686, 46.382621037829416 ], [ 6.472621446075709, 46.38267769183733 ], [ 6.472598360504062, 46.382734365360143 ], [ 6.472575374740334, 46.382791058313799 ], [ 6.472552488818989, 46.38284777061407 ], [ 6.472529702774313, 46.382904502176707 ], [ 6.472507016640483, 46.382961252917426 ], [ 6.47248443045149, 46.38301802275199 ], [ 6.472461944241209, 46.383074811596003 ], [ 6.472439558043347, 46.383131619365209 ], [ 6.47241727189146, 46.383188445975172 ], [ 6.472395085818977, 46.383245291341531 ], [ 6.472372999859158, 46.383302155379795 ], [ 6.472351014045119, 46.383359038005523 ], [ 6.472329128409842, 46.383415939134281 ], [ 6.472307342986134, 46.383472858681493 ], [ 6.472285657806682, 46.383529796562634 ], [ 6.472264072904006, 46.383586752693091 ], [ 6.472242588310476, 46.383643726988389 ], [ 6.47222120405833, 46.383700719363816 ], [ 6.472199920179645, 46.383757729734668 ], [ 6.472178736706343, 46.383814758016356 ], [ 6.472157653670219, 46.383871804124169 ], [ 6.472136671102891, 46.38392886797331 ], [ 6.47211578903585, 46.383985949479076 ], [ 6.472095007500427, 46.384043048556613 ], [ 6.472074326527811, 46.384100165121211 ], [ 6.472053746149035, 46.384157299087938 ], [ 6.472033266394997, 46.384214450372014 ], [ 6.472012887296419, 46.384271618888455 ], [ 6.471992608883902, 46.38432880455241 ], [ 6.471972431187871, 46.384386007278927 ], [ 6.471952354238637, 46.384443226983009 ], [ 6.471932378066327, 46.384500463579677 ], [ 6.471912502700935, 46.384557716983927 ], [ 6.471892728172299, 46.38461498711068 ], [ 6.47187305451012, 46.384672273874919 ], [ 6.471853481743938, 46.384729577191514 ], [ 6.471834009903148, 46.384786896975321 ], [ 6.471814639016986, 46.384844233141266 ], [ 6.471795369114559, 46.384901585604112 ], [ 6.471776200224799, 46.384958954278723 ], [ 6.471757132376506, 46.385016339079847 ], [ 6.471738165598322, 46.385073739922227 ], [ 6.471719299918743, 46.385131156720654 ], [ 6.47170053536612, 46.385188589389777 ], [ 6.47168187196864, 46.385246037844333 ], [ 6.471663309754349, 46.385303501998926 ], [ 6.471644848751148, 46.385360981768265 ], [ 6.471626488986778, 46.385418477066906 ], [ 6.471608230488834, 46.385475987809492 ], [ 6.471590073284756, 46.385533513910524 ], [ 6.471572017401847, 46.385591055284614 ], [ 6.471554062867243, 46.385648611846271 ], [ 6.471536209707947, 46.385706183509946 ], [ 6.471518457950797, 46.385763770190223 ], [ 6.47150080762248, 46.385821371801427 ], [ 6.471483258749548, 46.385878988258114 ], [ 6.471465811358391, 46.385936619474585 ], [ 6.471448465475252, 46.385994265365291 ], [ 6.471431221126222, 46.38605192584459 ], [ 6.471414078337237, 46.386109600826792 ], [ 6.471397037134094, 46.386167290226282 ], [ 6.471380097542426, 46.386224993957335 ], [ 6.471363259587722, 46.386282711934172 ], [ 6.471346523295324, 46.386340444071124 ], [ 6.471329888690419, 46.386398190282407 ], [ 6.471313355798039, 46.386455950482194 ], [ 6.471296924643069, 46.386513724584759 ], [ 6.471280595250251, 46.386571512504197 ], [ 6.471264367644161, 46.386629314154739 ], [ 6.471248241849242, 46.386687129450443 ], [ 6.471232217889757, 46.386744958305414 ], [ 6.471216295789854, 46.386802800633831 ], [ 6.471200475573507, 46.386860656349739 ], [ 6.471184757264542, 46.386918525367058 ], [ 6.471169140886643, 46.386976407600002 ], [ 6.471153626463323, 46.387034302962498 ], [ 6.47113821401797, 46.387092211368511 ], [ 6.471122903573799, 46.38715013273206 ], [ 6.471107695153883, 46.387208066967034 ], [ 6.471092588781145, 46.387266013987428 ], [ 6.471077584478361, 46.387323973707105 ], [ 6.471062682268135, 46.387381946040001 ], [ 6.471047882172941, 46.387439930900008 ], [ 6.471033184215094, 46.387497928200915 ], [ 6.471018588416757, 46.387555937856597 ], [ 6.471004094799943, 46.387613959780893 ], [ 6.470989703386511, 46.387671993887551 ], [ 6.470975414198175, 46.387730040090354 ], [ 6.470961227256481, 46.387788098303133 ], [ 6.47094714258284, 46.387846168439559 ], [ 6.47093316019851, 46.387904250413378 ], [ 6.470919280124587, 46.387962344138359 ], [ 6.470905502382024, 46.388020449528092 ], [ 6.470891826991617, 46.388078566496361 ], [ 6.470878253974011, 46.388136694956721 ], [ 6.470864783349707, 46.388194834822819 ], [ 6.470851415139042, 46.388252986008339 ], [ 6.470838149362208, 46.388311148426851 ], [ 6.470824986039238, 46.388369321992009 ], [ 6.470811925190034, 46.388427506617262 ], [ 6.470798966834312, 46.388485702216251 ], [ 6.470786110991671, 46.388543908702445 ], [ 6.470773357681524, 46.388602125989408 ], [ 6.470760706923164, 46.38866035399073 ], [ 6.470748158735712, 46.388718592619746 ], [ 6.470735713138138, 46.388776841789998 ], [ 6.470723370149269, 46.388835101414948 ], [ 6.470711129787766, 46.388893371408059 ], [ 6.470698992072156, 46.388951651682675 ], [ 6.4706869570208, 46.389009942152278 ], [ 6.470675024651905, 46.389068242730225 ], [ 6.470663194983541, 46.389126553329938 ], [ 6.470651468033605, 46.389184873864721 ], [ 6.47063984381986, 46.389243204247997 ], [ 6.470628322359897, 46.389301544393014 ], [ 6.470616903671182, 46.389359894213143 ], [ 6.470605587771, 46.38941825362167 ], [ 6.470594374676504, 46.389476622531895 ], [ 6.470583264404676, 46.389535000857101 ], [ 6.470572256972371, 46.389593388510555 ], [ 6.470561352396268, 46.389651785405498 ], [ 6.470550550692894, 46.389710191455087 ], [ 6.470539851878637, 46.389768606572652 ], [ 6.470529255969727, 46.389827030671341 ], [ 6.47051876298224, 46.389885463664328 ], [ 6.470508372932103, 46.389943905464875 ], [ 6.470498085835078, 46.390002355986041 ], [ 6.470487901706794, 46.390060815141055 ], [ 6.470477820562704, 46.39011928284301 ], [ 6.47046784241813, 46.390177759005084 ], [ 6.470457967288227, 46.390236243540315 ], [ 6.470448195187993, 46.390294736361874 ], [ 6.4704385261323, 46.39035323738279 ], [ 6.470428960135834, 46.390411746516136 ], [ 6.470419497213145, 46.39047026367507 ], [ 6.470410137378629, 46.390528788772514 ], [ 6.47040088064653, 46.390587321721597 ], [ 6.47039172703093, 46.390645862435335 ], [ 6.470382676545766, 46.390704410826665 ], [ 6.470373729204828, 46.390762966808687 ], [ 6.470364885021731, 46.39082153029436 ], [ 6.470356144009969, 46.390880101196622 ], [ 6.470347506182848, 46.390938679428494 ], [ 6.470338971553539, 46.390997264902893 ], [ 6.470330540135068, 46.391055857532791 ], [ 6.470322211940296, 46.391114457231112 ], [ 6.470313986981923, 46.391173063910827 ], [ 6.470305865272516, 46.391231677484775 ], [ 6.470297846824471, 46.391290297865901 ], [ 6.470289931650044, 46.391348924967104 ], [ 6.470282119761322, 46.391407558701189 ], [ 6.470274411170259, 46.391466198981156 ], [ 6.470266805888641, 46.391524845719729 ], [ 6.470259303928103, 46.391583498829931 ], [ 6.47025190530012, 46.39164215822445 ], [ 6.470244610016042, 46.391700823816151 ], [ 6.470237418087027, 46.391759495517931 ], [ 6.470230329524101, 46.391818173242562 ], [ 6.470223344338137, 46.391876856902797 ], [ 6.470216462539848, 46.391935546411524 ], [ 6.4702096841398, 46.391994241681466 ], [ 6.470203009148393, 46.392052942625426 ], [ 6.47019643757589, 46.392111649156135 ], [ 6.470189969432388, 46.39217036118643 ], [ 6.470183604727834, 46.392229078629015 ], [ 6.470177343472023, 46.392287801396606 ], [ 6.470171185674602, 46.392346529402005 ], [ 6.470165131345047, 46.392405262557887 ], [ 6.470159180492696, 46.392464000776997 ], [ 6.470153333126727, 46.392522743972009 ], [ 6.470147589256174, 46.39258149205569 ], [ 6.470141948889892, 46.392640244940679 ], [ 6.470136412036618, 46.39269900253975 ], [ 6.4701309787049, 46.392757764765477 ], [ 6.470125648903162, 46.392816531530599 ], [ 6.470120422639654, 46.392875302747761 ], [ 6.470115299922483, 46.392934078329652 ], [ 6.470110280759595, 46.39299285818889 ], [ 6.470105365158784, 46.393051642238106 ], [ 6.470100553127698, 46.393110430390067 ], [ 6.470095844673816, 46.393169222557255 ], [ 6.470091239804482, 46.393228018652366 ], [ 6.470086738526868, 46.393286818587974 ], [ 6.470082340848005, 46.39334562227679 ], [ 6.470078046774765, 46.39340442963136 ], [ 6.470073856313862, 46.393463240564309 ], [ 6.47006976947187, 46.393522054988175 ], [ 6.470065786255186, 46.393580872815683 ], [ 6.470061906670082, 46.393639693959301 ], [ 6.470058130722651, 46.393698518331647 ], [ 6.470054458418845, 46.393757345845309 ], [ 6.470050889764452, 46.393816176412855 ], [ 6.470047424765124, 46.393875009946882 ], [ 6.470044063426341, 46.393933846359886 ], [ 6.470040805753434, 46.393992685564477 ], [ 6.470037651751593, 46.394051527473195 ], [ 6.470034601425827, 46.3941103719986 ], [ 6.470031654781017, 46.394169219053225 ], [ 6.470028811821879, 46.394228068549644 ], [ 6.470026072552969, 46.394286920400347 ], [ 6.470023436978707, 46.394345774517866 ], [ 6.47002090510334, 46.394404630814776 ], [ 6.470018476930965, 46.394463489203609 ], [ 6.470016152465533, 46.394522349596869 ], [ 6.470013931710841, 46.39458121190706 ], [ 6.470011814670517, 46.39464007604667 ], [ 6.470009801348054, 46.394698941928311 ], [ 6.470007891746772, 46.39475780946443 ], [ 6.470006085869857, 46.394816678567523 ], [ 6.47000438372033, 46.394875549150115 ], [ 6.470002785301052, 46.394934421124731 ], [ 6.470001290614739, 46.394993294403868 ], [ 6.469999899663947, 46.395052168899959 ], [ 6.46999861245109, 46.395111044525542 ], [ 6.46999742897841, 46.395169921193201 ], [ 6.469996349248004, 46.395228798815296 ], [ 6.469995373261831, 46.395287677304367 ], [ 6.469994501021654, 46.39534655657296 ], [ 6.469993732529122, 46.395405436533437 ], [ 6.469993067785715, 46.395464317098416 ], [ 6.469992506792758, 46.395523198180335 ], [ 6.469992049551419, 46.395582079691671 ], [ 6.469991696062714, 46.395640961544878 ], [ 6.469991446327516, 46.395699843652487 ], [ 6.469991300346519, 46.395758725926996 ], [ 6.469991258120292, 46.395817608280787 ], [ 6.469991319649233, 46.395876490626463 ], [ 6.469991484933582, 46.395935372876409 ], [ 6.469991753973437, 46.395994254943197 ], [ 6.469992126768733, 46.396053136739191 ], [ 6.469992603319255, 46.396112018176986 ], [ 6.469993183624629, 46.396170899169043 ], [ 6.469993867684331, 46.396229779627774 ], [ 6.46999465549769, 46.396288659465768 ], [ 6.469995547063871, 46.396347538595393 ], [ 6.469996542381873, 46.396406416929224 ], [ 6.469997641450574, 46.396465294379674 ], [ 6.469998844268665, 46.396524170859301 ], [ 6.470000150834695, 46.396583046280504 ], [ 6.470001561147073, 46.396641920555837 ], [ 6.470003075204021, 46.396700793597816 ], [ 6.470004693003645, 46.396759665318854 ], [ 6.470006414543871, 46.39681853563151 ], [ 6.470008239822469, 46.39687740444819 ], [ 6.470010168837083, 46.396936271681497 ], [ 6.470012201585162, 46.396995137243884 ], [ 6.47001433806404, 46.397054001047842 ], [ 6.470016578270868, 46.397112863005887 ], [ 6.470018922202654, 46.39717172303051 ], [ 6.470021369856255, 46.397230581034229 ], [ 6.47002392122837, 46.397289436929569 ], [ 6.470026576315547, 46.397348290629012 ], [ 6.470029335114175, 46.397407142045111 ], [ 6.470032197620482, 46.397465991090336 ], [ 6.470035163830564, 46.397524837677302 ], [ 6.470038233740342, 46.397583681718437 ], [ 6.470041407345595, 46.397642523126301 ], [ 6.470044684641934, 46.397701361813425 ], [ 6.470048065624829, 46.397760197692385 ], [ 6.470051550289596, 46.397819030675677 ], [ 6.470055138631391, 46.397877860675905 ], [ 6.470058830645214, 46.397936687605515 ], [ 6.470062626325917, 46.397995511377175 ], [ 6.470066525668189, 46.398054331903367 ], [ 6.470070528666578, 46.398113149096709 ], [ 6.470074635315469, 46.398171962869661 ], [ 6.470078845609089, 46.398230773134934 ], [ 6.470083159541528, 46.398289579805024 ], [ 6.4700875771067, 46.39834838279257 ], [ 6.470092098298375, 46.398407182010082 ], [ 6.470096723110176, 46.398465977370186 ], [ 6.470101451535558, 46.398524768785492 ], [ 6.470106283567838, 46.39858355616861 ], [ 6.470111219200157, 46.398642339432172 ], [ 6.47011625842553, 46.398701118488717 ], [ 6.470121401236786, 46.398759893250876 ], [ 6.470126647626629, 46.398818663631339 ], [ 6.470131997587588, 46.398877429542701 ], [ 6.470137451112054, 46.398936190897615 ], [ 6.470143008192254, 46.39899494760872 ], [ 6.470148668820261, 46.39905369958867 ], [ 6.470154432988005, 46.399112446750166 ], [ 6.470160300687237, 46.399171189005799 ], [ 6.470166271909585, 46.399229926268248 ], [ 6.470172346646502, 46.39928865845026 ], [ 6.470178524889294, 46.399347385464466 ], [ 6.470184806629116, 46.399406107223605 ], [ 6.470191191856959, 46.399464823640329 ], [ 6.47019768056367, 46.399523534627413 ], [ 6.470204272739942, 46.399582240097523 ], [ 6.470210968376303, 46.399640939963383 ], [ 6.470217767463144, 46.399699634137775 ], [ 6.470224669990693, 46.399758322533387 ], [ 6.470231675949011, 46.399817005062985 ], [ 6.470238785328035, 46.399875681639408 ], [ 6.47024599811752, 46.399934352175251 ], [ 6.470253314307078, 46.399993016583494 ], [ 6.470260733886174, 46.400051674776762 ], [ 6.470268256844114, 46.400110326667928 ], [ 6.470275883170043, 46.400168972169794 ], [ 6.470283612852961, 46.400227611195106 ], [ 6.470291445881713, 46.400286243656758 ], [ 6.470299382244983, 46.400344869467588 ], [ 6.470307421931314, 46.400403488540377 ], [ 6.470315564929086, 46.400462100788012 ], [ 6.470323811226526, 46.400520706123324 ], [ 6.470332160811712, 46.400579304459271 ], [ 6.470340613672565, 46.40063789570862 ], [ 6.470349169796847, 46.40069647978433 ], [ 6.470357829172181, 46.400755056599294 ], [ 6.47036659178602, 46.400813626066395 ], [ 6.47037545762567, 46.400872188098603 ], [ 6.470384426678294, 46.400930742608807 ], [ 6.470393498930881, 46.400989289510008 ], [ 6.47040267437028, 46.401047828715086 ], [ 6.470411952983183, 46.401106360137028 ], [ 6.470421334756134, 46.401164883688871 ], [ 6.470430819675507, 46.401223399283531 ], [ 6.470440407727549, 46.401281906834015 ], [ 6.470450098898327, 46.401340406253411 ], [ 6.470459893173774, 46.401398897454676 ], [ 6.470469790539653, 46.401457380350841 ], [ 6.470479790981589, 46.401515854854985 ], [ 6.470489894485042, 46.401574320880158 ], [ 6.470500101035329, 46.40163277833944 ], [ 6.470510410617599, 46.401691227145932 ], [ 6.470520823216864, 46.401749667212663 ], [ 6.470531338817974, 46.401808098452804 ], [ 6.470541957405626, 46.401866520779464 ], [ 6.470552678964371, 46.401924934105793 ], [ 6.47056350347859, 46.401983338344884 ], [ 6.470574430932529, 46.402041733409959 ], [ 6.470585461310263, 46.402100119214197 ], [ 6.470596594595741, 46.402158495670797 ], [ 6.470607830772725, 46.402216862692882 ], [ 6.47061916982485, 46.402275220193729 ], [ 6.470630611735587, 46.402333568086576 ], [ 6.470642156488254, 46.402391906284613 ], [ 6.47065380406602, 46.402450234701192 ], [ 6.470665554451887, 46.402508553249469 ], [ 6.470677407628735, 46.402566861842821 ], [ 6.470689363579254, 46.40262516039455 ], [ 6.47070142228601, 46.402683448817911 ], [ 6.470713583731393, 46.402741727026282 ], [ 6.470725847897656, 46.402799994933012 ], [ 6.4707382147669, 46.402858252451438 ], [ 6.470750684321065, 46.402916499494921 ], [ 6.470763256541941, 46.402974735976912 ], [ 6.470775931411158, 46.403032961810744 ], [ 6.470788708910205, 46.403091176909939 ], [ 6.470801589020412, 46.403149381187873 ], [ 6.470814571722959, 46.403207574557925 ], [ 6.470827656998877, 46.403265756933685 ], [ 6.470840844829029, 46.403323928228595 ], [ 6.470854135194139, 46.403382088356196 ], [ 6.470867528074771, 46.403440237229951 ], [ 6.470881023451351, 46.403498374763402 ], [ 6.470894621304138, 46.403556500870145 ], [ 6.47090832161323, 46.403614615463674 ], [ 6.470922124358601, 46.403672718457663 ], [ 6.470936029520048, 46.403730809765662 ], [ 6.470950037077216, 46.403788889301296 ], [ 6.470964147009618, 46.403846956978171 ], [ 6.470978359296596, 46.403905012710034 ], [ 6.470992673917351, 46.403963056410497 ], [ 6.47100709085091, 46.404021087993158 ], [ 6.471021610076177, 46.404079107371942 ], [ 6.471036231571889, 46.404137114460376 ], [ 6.471050955316627, 46.404195109172285 ], [ 6.471065781288827, 46.404253091421417 ], [ 6.471080709466769, 46.404311061121582 ], [ 6.471095739828589, 46.404369018186536 ], [ 6.471110872352253, 46.404426962530103 ], [ 6.471126107015593, 46.40448489406613 ], [ 6.471141443796272, 46.404542812708449 ], [ 6.47115688267183, 46.404600718370972 ], [ 6.471172423619619, 46.404658610967516 ], [ 6.471188066616854, 46.404716490412113 ], [ 6.471203811640611, 46.404774356618596 ], [ 6.471219658667801, 46.404832209500945 ], [ 6.471235607675181, 46.404890048973087 ], [ 6.471251658639353, 46.404947874949087 ], [ 6.471267811536793, 46.405005687342928 ], [ 6.471284066343788, 46.405063486068542 ], [ 6.471300423036499, 46.405121271040166 ], [ 6.471316881590925, 46.405179042171689 ], [ 6.471333441982923, 46.405236799377299 ], [ 6.471350104188182, 46.405294542571085 ], [ 6.471366868182254, 46.405352271667127 ], [ 6.471383733940531, 46.405409986579706 ], [ 6.47140070143826, 46.405467687222831 ], [ 6.471417770650537, 46.405525373510834 ], [ 6.471434941552292, 46.40558304535783 ], [ 6.471452214118319, 46.405640702678085 ], [ 6.471469588323259, 46.405698345385844 ], [ 6.471487064141588, 46.405755973395408 ], [ 6.471504641547649, 46.405813586621058 ], [ 6.471522320515627, 46.405871184977144 ], [ 6.471540101019555, 46.405928768377962 ], [ 6.471557983033305, 46.405986336737961 ], [ 6.471575966530615, 46.406043889971414 ], [ 6.471594051485055, 46.406101427992809 ], [ 6.471612237870059, 46.406158950716517 ], [ 6.471630525658911, 46.406216458057074 ], [ 6.471648914824717, 46.406273949928831 ], [ 6.471667405340467, 46.406331426246432 ], [ 6.471685997178978, 46.406388886924319 ], [ 6.471704690312921, 46.406446331877007 ], [ 6.471723484714826, 46.406503761019174 ], [ 6.471742380357052, 46.40656117426532 ], [ 6.471761377211825, 46.406618571530096 ], [ 6.471780475251216, 46.406675952728101 ], [ 6.471799674447138, 46.406733317774034 ], [ 6.471818974771358, 46.40679066658253 ], [ 6.471838376195497, 46.406847999068368 ], [ 6.471857878691021, 46.406905315146297 ], [ 6.471877482229239, 46.406962614730965 ], [ 6.471897186781327, 46.407019897737207 ], [ 6.471916992318293, 46.407077164079887 ], [ 6.471936898810996, 46.407134413673731 ], [ 6.471956906230158, 46.407191646433709 ], [ 6.471977014546336, 46.407248862274621 ], [ 6.471997223729955, 46.407306061111363 ], [ 6.472017533751258, 46.407363242858921 ], [ 6.472037944580372, 46.407420407432227 ], [ 6.472058456187257, 46.407477554746237 ], [ 6.472079068541719, 46.407534684716012 ], [ 6.472099781613426, 46.407591797256487 ], [ 6.472120595371888, 46.407648892282843 ], [ 6.472141509786467, 46.407705969710065 ], [ 6.472162524826374, 46.407763029453292 ], [ 6.472183640460667, 46.407820071427651 ], [ 6.472204856658262, 46.407877095548379 ], [ 6.472226173387922, 46.407934101730554 ], [ 6.472247590618259, 46.407991089889471 ], [ 6.472269108317724, 46.408048059940278 ], [ 6.472290726454651, 46.408105011798327 ], [ 6.472312444997183, 46.408161945378858 ], [ 6.472334263913348, 46.408218860597252 ], [ 6.472356183170998, 46.408275757368784 ], [ 6.472378202737854, 46.408332635608872 ], [ 6.472400322581477, 46.408389495232925 ], [ 6.472422542669284, 46.408446336156352 ], [ 6.472444862968548, 46.408503158294579 ], [ 6.472467283446367, 46.408559961563192 ], [ 6.472489804069729, 46.408616745877595 ], [ 6.472512424805434, 46.408673511153353 ], [ 6.472535145620167, 46.408730257306075 ], [ 6.472557966480434, 46.408786984251336 ], [ 6.472580887352608, 46.408843691904771 ], [ 6.472603908202916, 46.40890038018199 ], [ 6.472627028997428, 46.40895704899873 ], [ 6.472650249702061, 46.409013698270691 ], [ 6.4726735702826, 46.409070327913597 ], [ 6.472696990704662, 46.409126937843183 ], [ 6.472720510933729, 46.409183527975301 ], [ 6.47274413093512, 46.40924009822573 ], [ 6.472767850674029, 46.409296648510413 ], [ 6.472791670115468, 46.409353178745114 ], [ 6.472815589224338, 46.409409688845841 ], [ 6.472839607965352, 46.409466178728515 ], [ 6.472863726303111, 46.409522648309071 ], [ 6.47288794420205, 46.409579097503531 ], [ 6.472912261626443, 46.409635526227966 ], [ 6.472936678540449, 46.40969193439846 ], [ 6.472961194908034, 46.40974832193104 ], [ 6.47298581069307, 46.409804688741822 ], [ 6.473010525859227, 46.40986103474701 ], [ 6.473035340370061, 46.409917359862746 ], [ 6.473060254188977, 46.409973664005328 ], [ 6.473085267279213, 46.410029947090955 ], [ 6.473110379603879, 46.410086209035867 ], [ 6.473135591125923, 46.410142449756428 ], [ 6.473160901808161, 46.410198669168928 ], [ 6.473186311613244, 46.410254867189828 ], [ 6.47321182050368, 46.410311043735476 ], [ 6.473237428441842, 46.410367198722305 ], [ 6.473263135389936, 46.410423332066763 ], [ 6.473288941310037, 46.410479443685418 ], [ 6.473314846164056, 46.410535533494759 ], [ 6.473340849913777, 46.410591601411326 ], [ 6.473366952520809, 46.410647647351759 ], [ 6.473393153946644, 46.410703671232667 ], [ 6.473419454152612, 46.410759672970741 ], [ 6.473445853099885, 46.410815652482604 ], [ 6.473472350749504, 46.410871609685017 ], [ 6.473498947062364, 46.410927544494797 ], [ 6.473525641999199, 46.410983456828689 ], [ 6.473552435520608, 46.411039346603523 ], [ 6.473579327587032, 46.411095213736147 ], [ 6.473606318158775, 46.411151058143446 ], [ 6.473633407195996, 46.411206879742387 ], [ 6.47366059465869, 46.411262678449965 ], [ 6.473687880506724, 46.411318454183025 ], [ 6.473715264699811, 46.411374206858724 ], [ 6.473742747197513, 46.411429936394086 ], [ 6.473770327959257, 46.411485642706253 ], [ 6.47379800694431, 46.411541325712285 ], [ 6.473825784111803, 46.411596985329346 ], [ 6.473853659420708, 46.411652621474651 ], [ 6.473881632829873, 46.411708234065493 ], [ 6.473909704297971, 46.411763823019086 ], [ 6.473937873783553, 46.411819388252717 ], [ 6.473966141245008, 46.411874929683798 ], [ 6.473994506640592, 46.411930447229615 ], [ 6.474022969928402, 46.411985940807625 ], [ 6.474051531066396, 46.412041410335263 ], [ 6.474080190012389, 46.412096855730013 ], [ 6.474108946724037, 46.412152276909417 ], [ 6.474137801158871, 46.412207673790988 ], [ 6.474166753274254, 46.412263046292267 ], [ 6.474195803027416, 46.412318394330974 ], [ 6.474224950375442, 46.412373717824735 ], [ 6.474254195275272, 46.412429016691277 ], [ 6.47428353768369, 46.412484290848234 ], [ 6.474312977557341, 46.412539540213452 ], [ 6.474342514852732, 46.41259476470475 ], [ 6.474372149526213, 46.412649964239904 ], [ 6.474401881533992, 46.412705138736868 ], [ 6.474431710832137, 46.412760288113482 ], [ 6.474461637376565, 46.412815412287749 ], [ 6.474491661123054, 46.412870511177694 ], [ 6.474521782027225, 46.412925584701249 ], [ 6.474552000044567, 46.412980632776524 ], [ 6.474582315130422, 46.413035655321622 ], [ 6.474612727239977, 46.413090652254731 ], [ 6.474643236328291, 46.413145623493953 ], [ 6.474673842350261, 46.413200568957571 ], [ 6.474704545260652, 46.413255488563777 ], [ 6.474735345014074, 46.413310382230904 ], [ 6.474766241565002, 46.413365249877273 ], [ 6.474797234867766, 46.413420091421237 ], [ 6.474828324876539, 46.413474906781261 ], [ 6.474859511545376, 46.413529695875731 ], [ 6.474890794828154, 46.413584458623177 ], [ 6.474922174678631, 46.413639194942064 ], [ 6.474953651050408, 46.413693904751007 ], [ 6.474985223896947, 46.41374858796862 ], [ 6.475016893171574, 46.413803244513474 ], [ 6.475048658827459, 46.413857874304291 ], [ 6.475080520817625, 46.413912477259828 ], [ 6.475112479094963, 46.413967053298819 ], [ 6.475144533612215, 46.414021602340043 ], [ 6.475176684321977, 46.414076124302362 ], [ 6.475208931176713, 46.414130619104675 ], [ 6.475241274128726, 46.41418508666586 ], [ 6.475273713130191, 46.414239526904886 ], [ 6.475306248133133, 46.414293939740816 ], [ 6.475338879089426, 46.414348325092632 ], [ 6.475371605950818, 46.414402682879413 ], [ 6.475404428668896, 46.414457013020282 ], [ 6.475437347195117, 46.41451131543446 ], [ 6.475470361480788, 46.414565590041079 ], [ 6.475503471477083, 46.414619836759428 ], [ 6.475536677135016, 46.414674055508783 ], [ 6.475569978405476, 46.414728246208497 ], [ 6.475603375239194, 46.414782408777917 ], [ 6.475636867586769, 46.414836543136438 ], [ 6.475670455398654, 46.414890649203514 ], [ 6.475704138625167, 46.414944726898696 ], [ 6.475737917216457, 46.414998776141537 ], [ 6.475771791122568, 46.415052796851505 ], [ 6.475805760293378, 46.415106788948286 ], [ 6.475839824678625, 46.415160752351532 ], [ 6.475873984227905, 46.415214686980995 ], [ 6.475908238890692, 46.415268592756334 ], [ 6.475942588616281, 46.41532246959747 ], [ 6.475977033353862, 46.415376317424119 ], [ 6.47601157305245, 46.415430136156225 ], [ 6.476046207660949, 46.415483925713673 ], [ 6.476080937128095, 46.415537686016471 ], [ 6.476115761402506, 46.41559141698454 ], [ 6.476150680432642, 46.415645118538073 ], [ 6.476185694166825, 46.41569879059702 ], [ 6.476220802553238, 46.415752433081614 ], [ 6.476256005539919, 46.415806045911985 ], [ 6.47629130307477, 46.415859629008374 ], [ 6.476326695105554, 46.415913182291071 ], [ 6.476362181579876, 46.415966705680383 ], [ 6.476397762445227, 46.416020199096614 ], [ 6.476433437648933, 46.416073662460214 ], [ 6.476469207138194, 46.416127095691692 ], [ 6.47650507086006, 46.416180498711405 ], [ 6.476541028761444, 46.416233871439999 ], [ 6.476577080789118, 46.416287213797979 ], [ 6.476613226889715, 46.416340525706019 ], [ 6.476649467009731, 46.416393807084816 ], [ 6.476685801095507, 46.416447057855002 ], [ 6.476722229093259, 46.416500277937388 ], [ 6.476758750949061, 46.41655346725279 ], [ 6.476795366608843, 46.416606625722046 ], [ 6.476832076018392, 46.416659753266082 ], [ 6.476868879123359, 46.416712849805769 ], [ 6.476905775869251, 46.416765915262175 ], [ 6.476942766201446, 46.416818949556294 ], [ 6.476979850065168, 46.416871952609235 ], [ 6.477017027405514, 46.416924924342105 ], [ 6.477054298167431, 46.41697786467607 ], [ 6.477091662295738, 46.417030773532346 ], [ 6.477129119735099, 46.417083650832296 ], [ 6.477166670430053, 46.4171364964971 ], [ 6.477204314324999, 46.417189310448173 ], [ 6.477242051364176, 46.417242092606969 ], [ 6.477279881491714, 46.417294842894876 ], [ 6.47731780465158, 46.417347561233449 ], [ 6.477355820787625, 46.417400247544187 ], [ 6.477393929843536, 46.417452901748746 ], [ 6.477432131762878, 46.417505523768718 ], [ 6.477470426489075, 46.417558113525835 ], [ 6.477508813965404, 46.417610670941798 ], [ 6.477547294135008, 46.417663195938395 ], [ 6.477585866940909, 46.417715688437532 ], [ 6.477624532325953, 46.417768148361048 ], [ 6.477663290232887, 46.417820575630849 ], [ 6.477702140604291, 46.417872970168915 ], [ 6.477741083382621, 46.417925331897351 ], [ 6.477780118510198, 46.417977660738167 ], [ 6.47781924592919, 46.418029956613502 ], [ 6.477858465581644, 46.418082219445559 ], [ 6.477897777409459, 46.418134449156518 ], [ 6.477937181354394, 46.418186645668669 ], [ 6.477976677358082, 46.418238808904349 ], [ 6.478016265362008, 46.418290938785951 ], [ 6.478055945307529, 46.418343035235843 ], [ 6.47809571713585, 46.418395098176561 ], [ 6.478135580788059, 46.418447127530555 ], [ 6.478175536205083, 46.418499123220407 ], [ 6.478215583327728, 46.418551085168801 ], [ 6.478255722096669, 46.418603013298338 ], [ 6.478295952452425, 46.418654907531788 ], [ 6.478336274335392, 46.418706767791889 ], [ 6.478376687685823, 46.418758594001474 ], [ 6.478417192443838, 46.418810386083372 ], [ 6.478457788549425, 46.418862143960631 ], [ 6.478498475942417, 46.418913867556086 ], [ 6.478539254562529, 46.41896555679282 ], [ 6.478580124349332, 46.419017211593918 ], [ 6.478621085242263, 46.419068831882434 ], [ 6.478662137180631, 46.419120417581681 ], [ 6.478703280103586, 46.419171968614727 ], [ 6.47874451395017, 46.419223484904997 ], [ 6.478785838659268, 46.41927496637571 ], [ 6.47882725416964, 46.419326412950326 ], [ 6.478868760419905, 46.419377824552207 ], [ 6.478910357348547, 46.419429201104911 ], [ 6.478952044893919, 46.419480542531922 ], [ 6.478993822994237, 46.419531848756861 ], [ 6.479035691587586, 46.419583119703354 ], [ 6.4790776506119, 46.419634355295116 ], [ 6.479119700004992, 46.419685555455857 ], [ 6.479161839704532, 46.419736720109427 ], [ 6.479204069648064, 46.41978784917967 ], [ 6.479246389772996, 46.419838942590403 ], [ 6.479288800016592, 46.419890000265731 ], [ 6.479331300315988, 46.419941022129535 ], [ 6.47937389060819, 46.419992008105915 ], [ 6.479416570830056, 46.420042958119033 ], [ 6.479459340918319, 46.420093872092984 ], [ 6.479502200809578, 46.420144749952122 ], [ 6.479545150440299, 46.420195591620548 ], [ 6.479588189746812, 46.420246397022751 ], [ 6.4796313186653, 46.420297166083003 ], [ 6.479674537131833, 46.420347898725808 ], [ 6.479717845082346, 46.420398594875643 ], [ 6.479761242452621, 46.420449254457004 ], [ 6.479804729178322, 46.420499877394562 ], [ 6.479848305194973, 46.420550463612983 ], [ 6.479891970437968, 46.420601013036908 ], [ 6.479935724842568, 46.420651525591097 ], [ 6.479979568343895, 46.420702001200461 ], [ 6.480023500876949, 46.420752439789808 ], [ 6.480067522376589, 46.420802841284072 ], [ 6.480111632777541, 46.420853205608218 ], [ 6.480155832014397, 46.420903532687291 ], [ 6.480200120021625, 46.420953822446442 ], [ 6.480244496733538, 46.421004074810753 ], [ 6.48028896208435, 46.421054289705481 ], [ 6.480333516008118, 46.421104467055841 ], [ 6.480378158438778, 46.421154606787141 ], [ 6.480422889310119, 46.421204708824803 ], [ 6.480467708555818, 46.421254773094233 ], [ 6.480512616109407, 46.421304799520932 ], [ 6.480557611904279, 46.421354788030364 ], [ 6.48060269587372, 46.421404738548226 ], [ 6.480647867950865, 46.421454651000097 ], [ 6.480693128068715, 46.421504525311732 ], [ 6.480738476160156, 46.421554361408873 ], [ 6.480783912157919, 46.421604159217281 ], [ 6.48082943599463, 46.421653918663011 ], [ 6.480875047602761, 46.421703639671811 ], [ 6.48092074691467, 46.421753322169764 ], [ 6.480966533862575, 46.421802966082886 ], [ 6.481012408378557, 46.42185257133734 ], [ 6.481058370394586, 46.421902137859249 ], [ 6.481104419842478, 46.421951665574817 ], [ 6.481150556653933, 46.422001154410346 ], [ 6.481196780760515, 46.42205060429216 ], [ 6.481243092093661, 46.422100015146682 ], [ 6.481289490584676, 46.422149386900358 ], [ 6.481335976164731, 46.422198719479674 ], [ 6.481382548764873, 46.42224801281121 ], [ 6.481429208316013, 46.422297266821587 ], [ 6.481475954748939, 46.42234648143755 ], [ 6.481522787994294, 46.422395656585714 ], [ 6.48156970798262, 46.422444792192998 ], [ 6.481616714644299, 46.422493888186231 ], [ 6.481663807909603, 46.422542944492307 ], [ 6.481710987708659, 46.422591961038236 ], [ 6.48175825397148, 46.422640937751055 ], [ 6.481805606627939, 46.422689874557811 ], [ 6.481853045607787, 46.422738771385731 ], [ 6.481900570840635, 46.422787628161963 ], [ 6.481948182255985, 46.422836444813818 ], [ 6.481995879783189, 46.422885221268643 ], [ 6.482043663351476, 46.422933957453814 ], [ 6.482091532889965, 46.422982653296785 ], [ 6.48213948832761, 46.423031308725093 ], [ 6.482187529593276, 46.423079923666236 ], [ 6.482235656615667, 46.423128498047916 ], [ 6.482283869323378, 46.423177031797799 ], [ 6.482332167644872, 46.423225524843687 ], [ 6.482380551508483, 46.423273977113347 ], [ 6.482429020842412, 46.423322388534629 ], [ 6.482477575574747, 46.423370759035535 ], [ 6.482526215633426, 46.423419088544044 ], [ 6.482574940946274, 46.423467376988171 ], [ 6.482623751440995, 46.423515624296051 ], [ 6.48267264704515, 46.423563830395885 ], [ 6.482721627686179, 46.423611995215921 ], [ 6.482770693291396, 46.42366011868441 ], [ 6.482819843787984, 46.423708200729742 ], [ 6.482869079103018, 46.423756241280387 ], [ 6.482918399163414, 46.423804240264758 ], [ 6.482967803895979, 46.423852197611424 ], [ 6.483017293227396, 46.423900113249005 ], [ 6.483066867084218, 46.423947987106168 ], [ 6.483116525392866, 46.42399581911166 ], [ 6.483166268079648, 46.424043609194285 ], [ 6.483216095070732, 46.424091357282819 ], [ 6.483266006292169, 46.424139063306271 ], [ 6.483316001669876, 46.424186727193586 ], [ 6.483366081129653, 46.424234348873838 ], [ 6.483416244597172, 46.424281928276059 ], [ 6.483466491997965, 46.424329465329528 ], [ 6.483516823257468, 46.424376959963446 ], [ 6.48356723830096, 46.424424412107022 ], [ 6.483617737053611, 46.424471821689686 ], [ 6.483668319440478, 46.424519188640865 ], [ 6.48371898538646, 46.424566512890067 ], [ 6.483769734816361, 46.424613794366742 ], [ 6.483820567654844, 46.42466103300066 ], [ 6.483871483826452, 46.424708228721336 ], [ 6.483922483255608, 46.424755381458539 ], [ 6.483973565866608, 46.424802491142181 ], [ 6.484024731583607, 46.424849557702025 ], [ 6.484075980330664, 46.42489658106804 ], [ 6.484127312031702, 46.424943561170259 ], [ 6.484178726610499, 46.424990497938637 ], [ 6.484230223990751, 46.425037391303412 ], [ 6.484281804095993, 46.425084241194646 ], [ 6.484333466849651, 46.425131047542756 ], [ 6.484385212175035, 46.425177810277916 ], [ 6.484437039995314, 46.425224529330613 ], [ 6.484488950233544, 46.425271204631194 ], [ 6.484540942812658, 46.425317836110267 ], [ 6.484593017655467, 46.425364423698319 ], [ 6.48464517468466, 46.42541096732608 ], [ 6.484697413822782, 46.425457466924193 ], [ 6.48474973499229, 46.425503922423452 ], [ 6.484802138115493, 46.425550333754686 ], [ 6.484854623114583, 46.425596700848864 ], [ 6.484907189911636, 46.425643023636852 ], [ 6.484959838428602, 46.425689302049761 ], [ 6.485012568587303, 46.425735536018671 ], [ 6.485065380309446, 46.4257817254747 ], [ 6.485118273516614, 46.425827870349167 ], [ 6.485171248130269, 46.425873970573363 ], [ 6.485224304071746, 46.425920026078522 ], [ 6.485277441262272, 46.425966036796282 ], [ 6.485330659622926, 46.426012002658013 ], [ 6.485383959074701, 46.426057923595295 ], [ 6.485437339538436, 46.426103799539739 ], [ 6.485490800934867, 46.426149630423104 ], [ 6.485544343184605, 46.426195416177137 ], [ 6.485597966208142, 46.42624115673366 ], [ 6.485651669925844, 46.426286852024575 ], [ 6.485705454257959, 46.42633250198184 ], [ 6.485759319124621, 46.426378106537491 ], [ 6.485813264445824, 46.42642366562368 ], [ 6.48586729014146, 46.426469179172507 ], [ 6.485921396131301, 46.426514647116221 ], [ 6.485975582334987, 46.426560069387136 ], [ 6.486029848672047, 46.426605445917673 ], [ 6.486084195061884, 46.426650776640244 ], [ 6.486138621423782, 46.426696061487306 ], [ 6.486193127676921, 46.42674130039147 ], [ 6.486247713740337, 46.42678649328542 ], [ 6.486302379532953, 46.426831640101824 ], [ 6.486357124973588, 46.426876740773487 ], [ 6.486411949980928, 46.426921795233199 ], [ 6.486466854473544, 46.42696680341399 ], [ 6.486521838369883, 46.427011765248771 ], [ 6.486576901588279, 46.427056680670582 ], [ 6.486632044046946, 46.427101549612587 ], [ 6.486687265663981, 46.427146372008004 ], [ 6.486742566357359, 46.427191147790076 ], [ 6.486797946044933, 46.427235876892105 ], [ 6.486853404644457, 46.427280559247535 ], [ 6.486908942073533, 46.427325194789766 ], [ 6.486964558249686, 46.427369783452448 ], [ 6.487020253090285, 46.427414325169131 ], [ 6.487076026512602, 46.427458819873493 ], [ 6.487131878433797, 46.427503267499269 ], [ 6.487187808770893, 46.427547667980328 ], [ 6.48724381744081, 46.427592021250547 ], [ 6.487299904360344, 46.427636327243853 ], [ 6.487356069446177, 46.427680585894329 ], [ 6.487412312614879, 46.427724797136008 ], [ 6.487468633782893, 46.427768960903109 ], [ 6.487525032866547, 46.42781307712989 ], [ 6.487581509782061, 46.4278571457506 ], [ 6.487638064445525, 46.427901166699712 ], [ 6.487694696772927, 46.427945139911571 ], [ 6.487751406680132, 46.427989065320801 ], [ 6.487808194082887, 46.428032942861947 ], [ 6.487865058896827, 46.428076772469701 ], [ 6.487922001037463, 46.428120554078745 ], [ 6.487979020420198, 46.428164287623993 ], [ 6.488036116960325, 46.428207973040223 ], [ 6.488093290573002, 46.42825161026245 ], [ 6.488150541173294, 46.428295199225722 ], [ 6.48820786867614, 46.428338739865026 ], [ 6.488265272996358, 46.428382232115638 ], [ 6.488322754048662, 46.428425675912706 ], [ 6.488380311747643, 46.428469071191671 ], [ 6.488437946007783, 46.428512417887724 ], [ 6.488495656743449, 46.428555715936518 ], [ 6.488553443868891, 46.428598965273473 ], [ 6.48861130729824, 46.428642165834205 ], [ 6.488669246945525, 46.428685317554425 ], [ 6.488727262724651, 46.42872842036985 ], [ 6.48878535454941, 46.428771474216319 ], [ 6.488843522333486, 46.428814479029661 ], [ 6.488901765990446, 46.428857434745908 ], [ 6.488960085433738, 46.428900341301066 ], [ 6.489018480576703, 46.428943198631252 ], [ 6.489076951332565, 46.428986006672631 ], [ 6.489135497614441, 46.429028765361501 ], [ 6.48919411933533, 46.429071474634156 ], [ 6.489252816408118, 46.429114134427046 ], [ 6.489311588745582, 46.429156744676568 ], [ 6.489370436260373, 46.429199305319329 ], [ 6.489429358865052, 46.429241816291935 ], [ 6.489488356472046, 46.429284277531096 ], [ 6.489547428993685, 46.429326688973603 ], [ 6.489606576342173, 46.429369050556247 ], [ 6.489665798429624, 46.429411362215994 ], [ 6.489725095168012, 46.429453623889806 ], [ 6.489784466469222, 46.429495835514771 ], [ 6.489843912245005, 46.429537997028028 ], [ 6.489903432407035, 46.429580108366821 ], [ 6.489963026866831, 46.429622169468409 ], [ 6.490022695535838, 46.429664180270159 ], [ 6.490082438325373, 46.429706140709541 ], [ 6.490142255146645, 46.429748050723965 ], [ 6.49020214591074, 46.429789910251202 ], [ 6.490262110528659, 46.429831719228773 ], [ 6.490322148911265, 46.429873477594491 ], [ 6.490382260969336, 46.429915185286134 ], [ 6.490442446613518, 46.429956842241616 ], [ 6.490502705754364, 46.429998448398869 ], [ 6.490563038302299, 46.430040003696007 ], [ 6.490623444167654, 46.430081508071098 ], [ 6.490683923260645, 46.430122961462331 ], [ 6.490744475491375, 46.430164363808004 ], [ 6.490805100769834, 46.430205715046448 ], [ 6.490865799005923, 46.430247015116066 ], [ 6.490926570109404, 46.430288263955411 ], [ 6.490987413989958, 46.430329461502971 ], [ 6.491048330557135, 46.430370607697448 ], [ 6.491109319720389, 46.430411702477578 ], [ 6.491170381389059, 46.430452745782162 ], [ 6.491231515472382, 46.430493737550087 ], [ 6.491292721879484, 46.430534677720225 ], [ 6.491354000519374, 46.430575566231738 ], [ 6.491415351300962, 46.430616403023649 ], [ 6.49147677413305, 46.430657188035148 ], [ 6.491538268924335, 46.430697921205564 ], [ 6.491599835583385, 46.430738602474158 ], [ 6.491661474018698, 46.430779231780377 ], [ 6.491723184138622, 46.430819809063728 ], [ 6.49178496585144, 46.430860334263777 ], [ 6.491846819065289, 46.430900807320128 ], [ 6.491908743688225, 46.430941228172614 ], [ 6.491970739628186, 46.430981596760937 ], [ 6.492032806793003, 46.431021913025013 ], [ 6.492094945090408, 46.431062176904859 ], [ 6.492157154428016, 46.431102388340413 ], [ 6.492219434713345, 46.431142547271854 ], [ 6.492281785853804, 46.43118265363934 ], [ 6.492344207756692, 46.431222707383164 ], [ 6.492406700329206, 46.431262708443739 ], [ 6.492469263478434, 46.431302656761353 ], [ 6.492531897111357, 46.431342552276639 ], [ 6.492594601134855, 46.431382394930118 ], [ 6.492657375455703, 46.431422184662459 ], [ 6.492720219980569, 46.431461921414481 ], [ 6.492783134616016, 46.431501605126876 ], [ 6.4928461192685, 46.431541235740646 ], [ 6.492909173844374, 46.431580813196682 ], [ 6.492972298249885, 46.431620337436172 ], [ 6.493035492391173, 46.431659808400141 ], [ 6.493098756174285, 46.431699226029856 ], [ 6.493162089505147, 46.431738590266548 ], [ 6.493225492289587, 46.431777901051731 ], [ 6.493288964433344, 46.431817158326716 ], [ 6.493352505842028, 46.431856362033102 ], [ 6.493416116421164, 46.431895512112504 ], [ 6.493479796076167, 46.431934608506594 ], [ 6.49354354471234, 46.4319736511572 ], [ 6.493607362234903, 46.4320126400061 ], [ 6.493671248548953, 46.43205157499527 ], [ 6.493735203559492, 46.432090456066724 ], [ 6.493799227171418, 46.432129283162553 ], [ 6.49386331928953, 46.432168056224924 ], [ 6.493927479818526, 46.432206775196107 ], [ 6.49399170866298, 46.432245440018391 ], [ 6.494056005727399, 46.432284050634273 ], [ 6.494120370916165, 46.432322606986176 ], [ 6.494184804133555, 46.432361109016718 ], [ 6.494249305283756, 46.432399556668528 ], [ 6.494313874270843, 46.432437949884374 ], [ 6.494378510998806, 46.43247628860702 ], [ 6.49444321537151, 46.432514572779461 ], [ 6.49450798729274, 46.43255280234461 ], [ 6.494572826666166, 46.432590977245525 ], [ 6.494637733395364, 46.432629097425398 ], [ 6.494702707383808, 46.432667162827428 ], [ 6.494767748534861, 46.432705173394893 ], [ 6.494832856751805, 46.432743129071213 ], [ 6.494898031937812, 46.432781029799848 ], [ 6.494963273995943, 46.432818875524362 ], [ 6.495028582829171, 46.432856666188442 ], [ 6.495093958340364, 46.43289440173568 ], [ 6.495159400432301, 46.43293208210995 ], [ 6.495224909007649, 46.432969707255126 ], [ 6.495290483968973, 46.433007277115138 ], [ 6.495356125218753, 46.433044791634074 ], [ 6.495421832659354, 46.433082250756044 ], [ 6.495487606193049, 46.433119654425276 ], [ 6.626765761070681, 46.505635120254823 ] ] ] } }
]
}
